{"type":"FeatureCollection", "features": [
{"type":"Feature","geometry":{"type":"LineString","coordinates":[[2.5047809,48.8297503],[2.4984321,48.8307568]]},"properties":{"@id":"way/21264383","CEMT":"I","comment":"oneway","waterway":"river"},"id":"way/21264383"},
{"type":"Feature","geometry":{"type":"LineString","coordinates":[[2.4691676,48.8188246],[2.4729827,48.8162909],[2.4751187,48.8152252]]},"properties":{"@id":"way/22588045","motorboat":"yes","name":"La Marne","name:lt":"Marna","waterway":"river"},"id":"way/22588045"},
{"type":"Feature","geometry":{"type":"LineString","coordinates":[[2.468365,48.8259318],[2.467026,48.8237619],[2.4677984,48.8201713]]},"properties":{"@id":"way/22588049","motorboat":"yes","name":"La Marne","oneway":"yes","waterway":"river"},"id":"way/22588049"},
{"type":"Feature","geometry":{"type":"LineString","coordinates":[[2.5101941,48.809732],[2.5146449,48.8092766],[2.517649,48.8085531],[2.5202239,48.8069421],[2.5224532,48.8038167],[2.5228675,48.8007801],[2.5227216,48.7984056],[2.5230649,48.7972579]]},"properties":{"@id":"way/22588150","motorboat":"yes","name":"La Marne","waterway":"river"},"id":"way/22588150"},
{"type":"Feature","geometry":{"type":"LineString","coordinates":[[2.5230649,48.7972579],[2.5238803,48.7964833],[2.5229104,48.7924349],[2.5216659,48.7906481]]},"properties":{"@id":"way/22588255","intermittent":"no","name":"La Marne","tidal":"no","waterway":"river"},"id":"way/22588255"},
{"type":"Feature","geometry":{"type":"LineString","coordinates":[[2.5228675,48.8007801],[2.5234426,48.7998586],[2.524215,48.7978515],[2.5238803,48.7964833]]},"properties":{"@id":"way/22588270","ref:sandre":"F6649101","waterway":"river"},"id":"way/22588270"},
{"type":"Feature","geometry":{"type":"LineString","coordinates":[[2.5227216,48.7984056],[2.5228968,48.7983112],[2.524215,48.7978515]]},"properties":{"@id":"way/22588295","waterway":"river"},"id":"way/22588295"},
{"type":"Feature","geometry":{"type":"LineString","coordinates":[[2.4910715,48.831183],[2.4882777,48.8310454],[2.4831451,48.8315257],[2.4775231,48.8308929],[2.4729292,48.8297969],[2.4706996,48.8285424],[2.468365,48.8259318]]},"properties":{"@id":"way/22875295","CEMT":"I","boat":"yes","motorboat":"yes","name":"La Marne","waterway":"river"},"id":"way/22875295"},
{"type":"Feature","geometry":{"type":"LineString","coordinates":[[2.4976544,48.8308028],[2.4910715,48.831183]]},"properties":{"@id":"way/22875299","CEMT":"I","comment":"oneway","motorboat":"yes","waterway":"river"},"id":"way/22875299"},
{"type":"Feature","geometry":{"type":"LineString","coordinates":[[2.4928825,48.8315446],[2.4901824,48.8316368],[2.4882777,48.8310454]]},"properties":{"@id":"way/22875302","waterway":"river"},"id":"way/22875302"},
{"type":"Feature","geometry":{"type":"LineString","coordinates":[[2.4093608,48.8166335],[2.407618,48.8173953],[2.3990779,48.820334],[2.3963742,48.8215491],[2.3902559,48.8257262]]},"properties":{"@id":"way/32496111","CEMT":"Vb","admin_level":"7","boat":"yes","boundary":"administrative","motorboat":"yes","name":"La Seine","name:ar":"السين","name:arc":"ܣܢ","name:azb":"سئن چایی","name:fa":"سن","name:fr":"La Seine","name:grc":"Σηκουάνας","name:kk-Arab":"سەنا","name:pa":"ਸੈਨ ਦਰਿਆ","name:pnb":"دریائے سین","name:syc":"ܣܢ","name:ur":"دریائے سین","source":"cadastre-dgi-fr source : Direction Générale des Impôts - Cadastre. Mise à jour : 2007","waterway":"river"},"id":"way/32496111"},
{"type":"Feature","geometry":{"type":"LineString","coordinates":[[2.4089823,48.8093613],[2.4102418,48.8139333],[2.4093608,48.8166335]]},"properties":{"@id":"way/32556642","CEMT":"Vb","admin_level":"7","boat":"yes","boundary":"administrative","have_riverbank":"yes","motorboat":"yes","name":"La Seine","name:ar":"السين","name:arc":"ܣܢ","name:azb":"سئن چایی","name:be":"Сена","name:br":"Ar Saena","name:fa":"سن","name:fr":"La Seine","name:grc":"Σηκουάνας","name:kk-Arab":"سەنا","name:pa":"ਸੈਨ ਦਰਿਆ","name:pnb":"دریائے سین","name:ru":"Сена","name:sk":"Seina","name:syc":"ܣܢ","name:ur":"دریائے سین","name:vi":"Sông Seine","source":"cadastre-dgi-fr source : Direction Générale des Impôts - Cadastre. Mise à jour : 2009","waterway":"river"},"id":"way/32556642"},
{"type":"Feature","geometry":{"type":"LineString","coordinates":[[2.4189955,48.7830942],[2.4218251,48.7875698],[2.4226877,48.7897553]]},"properties":{"@id":"way/32556644","CEMT":"Vb","admin_level":"7","boat":"yes","boundary":"administrative","have_riverbank":"yes","motorboat":"yes","name":"La Seine","name:ar":"السين","name:arc":"ܣܢ","name:azb":"سئن چایی","name:be":"Сена","name:br":"Ar Saena","name:fa":"سن","name:fr":"La Seine","name:grc":"Σηκουάνας","name:kk-Arab":"سەنا","name:pa":"ਸੈਨ ਦਰਿਆ","name:pnb":"دریائے سین","name:ru":"Сена","name:sk":"Seina","name:syc":"ܣܢ","name:ur":"دریائے سین","name:vi":"Sông Seine","source":"cadastre-dgi-fr source : Direction Générale des Impôts - Cadastre. Mise à jour : 2009","waterway":"river"},"id":"way/32556644"},
{"type":"Feature","geometry":{"type":"LineString","coordinates":[[2.4602091,48.8094141],[2.4578058,48.8105163],[2.4549841,48.8130315]]},"properties":{"@id":"way/53273677","CEMT":"Va","motorboat":"yes","name":"La Marne","name:en":"Marne river","waterway":"river"},"id":"way/53273677"},
{"type":"Feature","geometry":{"type":"LineString","coordinates":[[2.4549841,48.8130315],[2.45139,48.8155961],[2.4452359,48.8161314],[2.4414386,48.8161491],[2.4381101,48.8167797],[2.4333484,48.8160565],[2.4273745,48.8163343]]},"properties":{"@id":"way/53273682","CEMT":"Va","motorboat":"yes","name":"La Marne","name:en":"Marne river","waterway":"river"},"id":"way/53273682"},
{"type":"Feature","geometry":{"type":"LineString","coordinates":[[2.5039789,48.8307515],[2.5047809,48.8297503]]},"properties":{"@id":"way/71123910","boat":"yes","name":"La Marne","waterway":"river"},"id":"way/71123910"},
{"type":"Feature","geometry":{"type":"LineString","coordinates":[[2.4207405,48.7957988],[2.4188536,48.7973454]]},"properties":{"@id":"way/99242786","admin_level":"7","boat":"no","boundary":"administrative","have_riverbank":"yes","name":"La Seine","name:ar":"السين","name:arc":"ܣܢ","name:azb":"سئن چایی","name:be":"Сена","name:br":"Ar Saena","name:fa":"سن","name:fr":"La Seine","name:grc":"Σηκουάνας","name:kk-Arab":"سەنا","name:pa":"ਸੈਨ ਦਰਿਆ","name:pnb":"دریائے سین","name:ru":"Сена","name:sk":"Seina","name:syc":"ܣܢ","name:ur":"دریائے سین","name:vi":"Sông Seine","source":"cadastre-dgi-fr source : Direction Générale des Impôts - Cadastre. Mise à jour : 2009","waterway":"river"},"id":"way/99242786"},
{"type":"Feature","geometry":{"type":"LineString","coordinates":[[2.4145862,48.8006841],[2.4097897,48.8048409],[2.4094696,48.8054344]]},"properties":{"@id":"way/99242792","CEMT":"Vb","admin_level":"7","boat":"yes","boundary":"administrative","motorboat":"yes","name":"La Seine","name:ar":"السين","name:arc":"ܣܢ","name:azb":"سئن چایی","name:be":"Сена","name:br":"Ar Saena","name:fa":"سن","name:fr":"La Seine","name:grc":"Σηκουάνας","name:kk-Arab":"سەنا","name:pa":"ਸੈਨ ਦਰਿਆ","name:pnb":"دریائے سین","name:ru":"Сена","name:sk":"Seina","name:syc":"ܣܢ","name:ur":"دریائے سین","name:vi":"Sông Seine","source":"cadastre-dgi-fr source : Direction Générale des Impôts - Cadastre. Mise à jour : 2009","waterway":"river"},"id":"way/99242792"},
{"type":"Feature","geometry":{"type":"LineString","coordinates":[[2.4212821,48.7949747],[2.4204356,48.7972661],[2.4191521,48.7982783]]},"properties":{"@id":"way/99242793","CEMT":"Vb","boat":"yes","have_riverbank":"yes","motorboat":"yes","name":"La Seine","name:ar":"السين","name:arc":"ܣܢ","name:azb":"سئن چایی","name:fa":"سن","name:grc":"Σηκουάνας","name:kk-Arab":"سەنا","name:pa":"ਸੈਨ ਦਰਿਆ","name:pnb":"دریائے سین","name:syc":"ܣܢ","name:ur":"دریائے سین","source":"GPS survey","waterway":"river"},"id":"way/99242793"},
{"type":"Feature","geometry":{"type":"LineString","coordinates":[[2.4226814,48.7919971],[2.4212821,48.7949747]]},"properties":{"@id":"way/99242794","CEMT":"Vb","admin_level":"7","boat":"yes","boundary":"administrative","have_riverbank":"yes","motorboat":"yes","name":"La Seine","name:ar":"السين","name:arc":"ܣܢ","name:azb":"سئن چایی","name:be":"Сена","name:br":"Ar Saena","name:fa":"سن","name:fr":"La Seine","name:grc":"Σηκουάνας","name:kk-Arab":"سەنا","name:pa":"ਸੈਨ ਦਰਿਆ","name:pnb":"دریائے سین","name:ru":"Сена","name:sk":"Seina","name:syc":"ܣܢ","name:ur":"دریائے سین","name:vi":"Sông Seine","source":"cadastre-dgi-fr source : Direction Générale des Impôts - Cadastre. Mise à jour : 2009","waterway":"river"},"id":"way/99242794"},
{"type":"Feature","geometry":{"type":"LineString","coordinates":[[2.4212821,48.7949747],[2.4177894,48.7969634]]},"properties":{"@id":"way/99242795","CEMT":"Vb","boat":"yes","have_riverbank":"yes","motorboat":"yes","name":"La Seine","name:ar":"السين","name:arc":"ܣܢ","name:azb":"سئن چایی","name:fa":"سن","name:grc":"Σηκουάνας","name:kk-Arab":"سەنا","name:pa":"ਸੈਨ ਦਰਿਆ","name:pnb":"دریائے سین","name:syc":"ܣܢ","name:ur":"دریائے سین","source":"GPS survey","waterway":"river"},"id":"way/99242795"},
{"type":"Feature","geometry":{"type":"LineString","coordinates":[[2.4191521,48.7982783],[2.4173804,48.7996544]]},"properties":{"@id":"way/99242796","CEMT":"Vb","boat":"yes","lock":"yes","lock_name":"Écluse rive droite n°10 bis de Port-a-l'Anglais","lock_ref":"10 bis","motorboat":"yes","source":"GPS survey","vhf":"18","waterway":"river"},"id":"way/99242796"},
{"type":"Feature","geometry":{"type":"LineString","coordinates":[[2.4173804,48.7996544],[2.4145862,48.8006841]]},"properties":{"@id":"way/99242797","CEMT":"Vb","boat":"yes","have_riverbank":"yes","motorboat":"yes","name":"La Seine","name:ar":"السين","name:arc":"ܣܢ","name:azb":"سئن چایی","name:fa":"سن","name:grc":"Σηκουάνας","name:kk-Arab":"سەنا","name:pa":"ਸੈਨ ਦਰਿਆ","name:pnb":"دریائے سین","name:syc":"ܣܢ","name:ur":"دریائے سین","source":"GPS survey","waterway":"river"},"id":"way/99242797"},
{"type":"Feature","geometry":{"type":"LineString","coordinates":[[2.4177894,48.7969634],[2.4160201,48.7982711]]},"properties":{"@id":"way/99242798","CEMT":"Vb","boat":"yes","lock":"yes","lock_name":"Écluse rive gauche n°10 bis de port-à-l'Anglais","lock_ref":"10 bis","motorboat":"yes","source":"GPS survey","vhf":"18","waterway":"river"},"id":"way/99242798"},
{"type":"Feature","geometry":{"type":"LineString","coordinates":[[2.4160201,48.7982711],[2.4145862,48.8006841]]},"properties":{"@id":"way/99242799","CEMT":"Vb","boat":"yes","have_riverbank":"yes","motorboat":"yes","name":"La Seine","name:ar":"السين","name:arc":"ܣܢ","name:azb":"سئن چایی","name:fa":"سن","name:grc":"Σηκουάνας","name:kk-Arab":"سەنا","name:pa":"ਸੈਨ ਦਰਿਆ","name:pnb":"دریائے سین","name:syc":"ܣܢ","name:ur":"دریائے سین","source":"GPS survey","waterway":"river"},"id":"way/99242799"},
{"type":"Feature","geometry":{"type":"LineString","coordinates":[[2.2304637,48.867857],[2.2327335,48.8692462],[2.2350985,48.8718131]]},"properties":{"@id":"way/99550443","CEMT":"none","boat":"no","name":"La Seine","name:ar":"السين","name:arc":"ܣܢ","name:azb":"سئن چایی","name:be":"Сена","name:br":"Ar Saena","name:fa":"سن","name:fr":"La Seine","name:grc":"Σηκουάνας","name:kk-Arab":"سەنا","name:pa":"ਸੈਨ ਦਰਿਆ","name:pnb":"دریائے سین","name:ru":"Сена","name:sk":"Seina","name:syc":"ܣܢ","name:ur":"دریائے سین","name:vi":"Sông Seine","waterway":"river"},"id":"way/99550443"},
{"type":"Feature","geometry":{"type":"LineString","coordinates":[[2.2423802,48.8226966],[2.2399512,48.8226232],[2.2355481,48.8239229],[2.2283304,48.8277052],[2.226347,48.830647]]},"properties":{"@id":"way/99555147","name":"La Seine","name:ar":"السين","name:arc":"ܣܢ","name:azb":"سئن چایی","name:fa":"سن","name:fr":"La Seine","name:grc":"Σηκουάνας","name:kk-Arab":"سەنا","name:pa":"ਸੈਨ ਦਰਿਆ","name:pnb":"دریائے سین","name:syc":"ܣܢ","name:ur":"دریائے سین","waterway":"river"},"id":"way/99555147"},
{"type":"Feature","geometry":{"type":"LineString","coordinates":[[2.2423802,48.8226966],[2.2388766,48.8216078],[2.236849,48.8214292],[2.2345019,48.8218699],[2.2304863,48.8239853],[2.2279057,48.8262841],[2.226491,48.8283325],[2.226347,48.830647]]},"properties":{"@id":"way/99555149","CEMT":"Vb","boat":"yes","have_riverbank":"yes","name":"La Seine","name:ar":"السين","name:arc":"ܣܢ","name:azb":"سئن چایی","name:be":"Сена","name:br":"Ar Saena","name:fa":"سن","name:fr":"La Seine","name:grc":"Σηκουάνας","name:kk-Arab":"سەنا","name:pa":"ਸੈਨ ਦਰਿਆ","name:pnb":"دریائے سین","name:ru":"Сена","name:sk":"Seina","name:syc":"ܣܢ","name:ur":"دریائے سین","name:vi":"Sông Seine","seamark:type":"separation_lane","waterway":"river"},"id":"way/99555149"},
{"type":"Feature","geometry":{"type":"LineString","coordinates":[[2.3614016,48.84847],[2.3602748,48.8515891],[2.3522295,48.8546776]]},"properties":{"@id":"way/99555151","CEMT":"Vb","boat":"yes","have_riverbank":"yes","name":"La Seine - Bras Marie","waterway":"river"},"id":"way/99555151"},
{"type":"Feature","geometry":{"type":"LineString","coordinates":[[2.353857,48.8511856],[2.350401,48.8519243],[2.34403,48.854294],[2.3384698,48.858236]]},"properties":{"@id":"way/99555152","CEMT":"Va","boat":"yes","name":"La Seine - Bras de la Monnaie","name:be":"Сена","name:es":"Rio Siena","name:ru":"Сена","name:vi":"Sông Seine","ref:sandre":"F7045121","waterway":"river"},"id":"way/99555152"},
{"type":"Feature","geometry":{"type":"LineString","coordinates":[[2.2887373,48.857206],[2.2883424,48.8554663],[2.279738,48.8495397],[2.2773364,48.8483379]]},"properties":{"@id":"way/99555154","have_riverbank":"yes","name":"La Seine","name:ar":"السين","name:arc":"ܣܢ","name:azb":"سئن چایی","name:br":"Ar Saena","name:fa":"سن","name:fr":"La Seine","name:grc":"Σηκουάνας","name:kk-Arab":"سەنا","name:pa":"ਸੈਨ ਦਰਿਆ","name:pnb":"دریائے سین","name:ru":"Сена","name:syc":"ܣܢ","name:ur":"دریائے سین","name:vi":"Sông Seine","waterway":"river"},"id":"way/99555154"},
{"type":"Feature","geometry":{"type":"LineString","coordinates":[[2.2887373,48.857206],[2.2796444,48.8506161],[2.2773364,48.8483379],[2.2762135,48.8475807],[2.2683278,48.8393555],[2.2609303,48.8319847],[2.2587378,48.8306539],[2.2521384,48.8259939],[2.2501221,48.824957],[2.2423802,48.8226966]]},"properties":{"@id":"way/99555155","CEMT":"Vb","boat":"yes","have_riverbank":"yes","name":"La Seine","name:ar":"السين","name:arc":"ܣܢ","name:azb":"سئن چایی","name:be":"Сена","name:br":"Ar Saena","name:fa":"سن","name:fr":"La Seine","name:grc":"Σηκουάνας","name:kk-Arab":"سەنا","name:pa":"ਸੈਨ ਦਰਿਆ","name:pnb":"دریائے سین","name:ru":"Сена","name:sk":"Seina","name:syc":"ܣܢ","name:ur":"دریائے سین","name:vi":"Sông Seine","waterway":"river"},"id":"way/99555155"},
{"type":"Feature","geometry":{"type":"LineString","coordinates":[[2.3902559,48.8257262],[2.3876423,48.8275402],[2.3775206,48.8358335],[2.3729029,48.8400253],[2.3614016,48.84847]]},"properties":{"@id":"way/99555156","CEMT":"Vb","boat":"yes","name":"La Seine","name:ar":"السين","name:arc":"ܣܢ","name:azb":"سئن چایی","name:be":"Сена","name:br":"Ar Saena","name:fa":"سن","name:fr":"La Seine","name:grc":"Σηκουάνας","name:kk-Arab":"سەنا","name:pa":"ਸੈਨ ਦਰਿਆ","name:pnb":"دریائے سین","name:ru":"Сена","name:sk":"Seina","name:syc":"ܣܢ","name:ur":"دریائے سین","name:vi":"Sông Seine","ref:sandre":"0010 (6)","waterway":"river"},"id":"way/99555156"},
{"type":"Feature","geometry":{"type":"LineString","coordinates":[[2.3614016,48.84847],[2.353857,48.8511856],[2.3531932,48.8517549],[2.3522295,48.8546776]]},"properties":{"@id":"way/150372226","CEMT":"Va","boat":"yes","maxlength":"125","maxwidth":"11.5","name":"La Seine","name:ar":"السين","name:arc":"ܣܢ","name:azb":"سئن چایی","name:be":"Сена","name:br":"Ar Saena","name:fa":"سن","name:fr":"La Seine","name:grc":"Σηκουάνας","name:kk-Arab":"سەنا","name:pa":"ਸੈਨ ਦਰਿਆ","name:pnb":"دریائے سین","name:ru":"Сена","name:sk":"Seina","name:syc":"ܣܢ","name:ur":"دریائے سین","name:vi":"Sông Seine","seamark:information":"Alternate area - Area for 125 m x 11.50 m vessels only","seamark:national_information":"Zone d'alternat - Zone réservée aux bateaux de 125 m x 11.50 m maxi","waterway":"river"},"id":"way/150372226"},
{"type":"Feature","geometry":{"type":"LineString","coordinates":[[2.3351107,48.8589292],[2.3298794,48.8601217],[2.3247816,48.8618826],[2.3189937,48.8635425],[2.3172781,48.8637609],[2.3104059,48.86375],[2.3015455,48.8634835]]},"properties":{"@id":"way/150372229","CEMT":"Vb","boat":"yes","name":"La Seine","name:ar":"السين","name:arc":"ܣܢ","name:azb":"سئن چایی","name:br":"Ar Saena","name:fa":"سن","name:fr":"La Seine","name:grc":"Σηκουάνας","name:kk-Arab":"سەنا","name:pa":"ਸੈਨ ਦਰਿਆ","name:pl":"Sekwana","name:pnb":"دریائے سین","name:ru":"Сена","name:sk":"Seina","name:syc":"ܣܢ","name:ur":"دریائے سین","name:vi":"Sông Seine","waterway":"river"},"id":"way/150372229"},
{"type":"Feature","geometry":{"type":"LineString","coordinates":[[2.4188536,48.7973454],[2.4160164,48.7994932]]},"properties":{"@id":"way/165405387","admin_level":"7","boat":"no","boundary":"administrative","have_riverbank":"yes","name":"La Seine","name:ar":"السين","name:arc":"ܣܢ","name:azb":"سئن چایی","name:be":"Сена","name:br":"Ar Saena","name:fa":"سن","name:fr":"La Seine","name:grc":"Σηκουάνας","name:kk-Arab":"سەنا","name:pa":"ਸੈਨ ਦਰਿਆ","name:pnb":"دریائے سین","name:ru":"Сена","name:sk":"Seina","name:syc":"ܣܢ","name:ur":"دریائے سین","name:vi":"Sông Seine","source":"cadastre-dgi-fr source : Direction Générale des Impôts - Cadastre. Mise à jour : 2009","waterway":"river"},"id":"way/165405387"},
{"type":"Feature","geometry":{"type":"LineString","coordinates":[[2.468365,48.8259318],[2.4693091,48.8218067],[2.4692723,48.8201598]]},"properties":{"@id":"way/190054668","CEMT":"I","boat":"yes","motorboat":"yes","name":"La Marne","waterway":"river"},"id":"way/190054668"},
{"type":"Feature","geometry":{"type":"LineString","coordinates":[[2.5105342,48.829203],[2.5086889,48.8288075],[2.5047809,48.8297503]]},"properties":{"@id":"way/190056981","CEMT":"I","boat":"yes","comment":"oneway","motorboat":"yes","name":"La Marne","waterway":"river"},"id":"way/190056981"},
{"type":"Feature","geometry":{"type":"LineString","coordinates":[[2.5105342,48.829203],[2.5083911,48.8300876],[2.5039789,48.8307515],[2.498184,48.8320995],[2.4953838,48.8321366],[2.4928825,48.8315446],[2.4910715,48.831183]]},"properties":{"@id":"way/190059597","CEMT":"I","boat":"yes","motorboat":"yes","name":"La Marne","waterway":"river"},"id":"way/190059597"},
{"type":"Feature","geometry":{"type":"LineString","coordinates":[[2.203483,48.9099046],[2.1978988,48.9076652],[2.1935432,48.9051165],[2.1815444,48.9022205],[2.1761796,48.9001264],[2.1706356,48.8968271],[2.1676543,48.8943961],[2.1666795,48.8922027],[2.1633869,48.8885844],[2.1630837,48.8864804]]},"properties":{"@id":"way/196776301","CEMT":"Vb","boat":"yes","name":"La Seine - Bras de Marly","source":"cadastre-dgi-fr source : Direction Générale des Impôts - Cadastre. Mise à jour : 2012","waterway":"river"},"id":"way/196776301"},
{"type":"Feature","geometry":{"type":"LineString","coordinates":[[2.2006604,48.9106028],[2.1957277,48.9087976],[2.188949,48.9059472],[2.1809676,48.9047756],[2.1748975,48.902802],[2.1727992,48.9015241]]},"properties":{"@id":"way/196776306","CEMT":"Vb","boat":"yes","name":"La Seine","name:ar":"السين","name:arc":"ܣܢ","name:azb":"سئن چایی","name:be":"Сена","name:br":"Ar Saena","name:fa":"سن","name:fr":"La Seine","name:grc":"Σηκουάνας","name:kk-Arab":"سەنا","name:pa":"ਸੈਨ ਦਰਿਆ","name:pnb":"دریائے سین","name:ru":"Сена","name:sk":"Seina","name:syc":"ܣܢ","name:ur":"دریائے سین","name:vi":"Sông Seine","source":"cadastre-dgi-fr source : Direction Générale des Impôts - Cadastre. Mise à jour : 2012","waterway":"river"},"id":"way/196776306"},
{"type":"Feature","geometry":{"type":"LineString","coordinates":[[2.4711552,48.7965331],[2.4699247,48.8000878]]},"properties":{"@id":"way/200732132","name":"La Marne","waterway":"river"},"id":"way/200732132"},
{"type":"Feature","geometry":{"type":"LineString","coordinates":[[2.4801515,48.8134165],[2.487531,48.8122724],[2.4913505,48.8113341],[2.4985163,48.8103874],[2.5032416,48.8105943]]},"properties":{"@id":"way/200732137","boat":"yes","motorboat":"yes","name":"La Marne","waterway":"river"},"id":"way/200732137"},
{"type":"Feature","geometry":{"type":"LineString","coordinates":[[2.4751187,48.8152252],[2.4801515,48.8134165]]},"properties":{"@id":"way/200732140","boat":"no","name":"La Marne","waterway":"river"},"id":"way/200732140"},
{"type":"Feature","geometry":{"type":"LineString","coordinates":[[2.4699247,48.8000878],[2.4687533,48.8030982],[2.4676641,48.8047382],[2.4627898,48.808064],[2.4602091,48.8094141]]},"properties":{"@id":"way/200732141","CEMT":"Va","motorboat":"yes","name":"La Marne","waterway":"river"},"id":"way/200732141"},
{"type":"Feature","geometry":{"type":"LineString","coordinates":[[2.4711552,48.7965331],[2.4703222,48.7976168]]},"properties":{"@id":"way/200732143","CEMT":"Va","motorboat":"yes","waterway":"river"},"id":"way/200732143"},
{"type":"Feature","geometry":{"type":"LineString","coordinates":[[2.2377123,48.8711125],[2.2410205,48.8723808],[2.2428467,48.8736705],[2.2478925,48.8785389],[2.2515939,48.8816504],[2.2544478,48.884917],[2.2568346,48.8882343],[2.2605576,48.8905717],[2.2631703,48.8916893],[2.2708414,48.8957029],[2.2727082,48.8971277],[2.2790168,48.8998149],[2.2806533,48.9009284]]},"properties":{"@id":"way/227933426","boat":"yes","name":"Petit Bras de la Seine","waterway":"river"},"id":"way/227933426"},
{"type":"Feature","geometry":{"type":"LineString","coordinates":[[2.2568346,48.8882343],[2.2568526,48.8892414]]},"properties":{"@id":"way/227933427","boat":"yes","name":"Petit Bras de la Seine","waterway":"river"},"id":"way/227933427"},
{"type":"Feature","geometry":{"type":"LineString","coordinates":[[2.4703222,48.7976168],[2.4699313,48.7988753]]},"properties":{"@id":"way/235733184","CEMT":"Va","lock":"yes","lock_name":"Écluse de Créteil","motorboat":"yes","waterway":"river"},"id":"way/235733184"},
{"type":"Feature","geometry":{"type":"LineString","coordinates":[[2.4699313,48.7988753],[2.4699247,48.8000878]]},"properties":{"@id":"way/235733185","CEMT":"Va","motorboat":"yes","waterway":"river"},"id":"way/235733185"},
{"type":"Feature","geometry":{"type":"LineString","coordinates":[[2.2609303,48.8319847],[2.2597371,48.8274437],[2.257543,48.8255543],[2.2548233,48.8239756],[2.2511755,48.8224428],[2.2442983,48.820592],[2.2401999,48.8204861],[2.236849,48.8214292]]},"properties":{"@id":"way/236038746","boat":"yes","name":"La Seine","name:ar":"السين","name:arc":"ܣܢ","name:azb":"سئن چایی","name:fa":"سن","name:fr":"La Seine","name:grc":"Σηκουάνας","name:kk-Arab":"سەنا","name:pa":"ਸੈਨ ਦਰਿਆ","name:pnb":"دریائے سین","name:syc":"ܣܢ","name:ur":"دریائے سین","waterway":"river"},"id":"way/236038746"},
{"type":"Feature","geometry":{"type":"LineString","coordinates":[[2.4232879,48.8167313],[2.4213794,48.8166602]]},"properties":{"@id":"way/236684270","CEMT":"Va","motorboat":"yes","waterway":"river"},"id":"way/236684270"},
{"type":"Feature","geometry":{"type":"LineString","coordinates":[[2.4273745,48.8163343],[2.4251398,48.8166686]]},"properties":{"@id":"way/236684271","CEMT":"Va","motorboat":"yes","waterway":"river"},"id":"way/236684271"},
{"type":"Feature","geometry":{"type":"LineString","coordinates":[[2.4213794,48.8166602],[2.4195242,48.8168944],[2.4149558,48.8162349],[2.4093608,48.8166335]]},"properties":{"@id":"way/236684274","CEMT":"Vb","motorboat":"yes","name":"La Marne","name:en":"Marne river","waterway":"river"},"id":"way/236684274"},
{"type":"Feature","geometry":{"type":"LineString","coordinates":[[2.4273745,48.8163343],[2.4229098,48.8162444],[2.4213794,48.8166602]]},"properties":{"@id":"way/236684276","name":"La Marne","name:en":"Marne river","waterway":"river"},"id":"way/236684276"},
{"type":"Feature","geometry":{"type":"LineString","coordinates":[[2.4745797,48.7878466],[2.4732093,48.7872283],[2.4708173,48.7884471],[2.4697991,48.7908888],[2.4694964,48.7938259],[2.4683253,48.79733],[2.4675063,48.7984295],[2.4676787,48.8014772],[2.4687533,48.8030982]]},"properties":{"@id":"way/243171854","alt_name":"Bras de la Marne","motorboat":"no","name":"Bras du Chapitre","ref:sandre":"F6649401","source":"BDCarthage 2012","waterway":"river"},"id":"way/243171854"},
{"type":"Feature","geometry":{"type":"LineString","coordinates":[[2.4758896,48.7869979],[2.4745797,48.7878466],[2.474199,48.7883294],[2.4721877,48.7906801],[2.4716614,48.7945987],[2.4711552,48.7965331]]},"properties":{"@id":"way/243171859","CEMT":"Va","motorboat":"yes","name":"La Marne","source":"BDCarthage2012","waterway":"river"},"id":"way/243171859"},
{"type":"Feature","geometry":{"type":"LineString","coordinates":[[2.5202239,48.8069421],[2.5222953,48.8055813],[2.5224532,48.8038167]]},"properties":{"@id":"way/243171893","ref:sandre":"F6649001","source":"BDCarthage2012","waterway":"river"},"id":"way/243171893"},
{"type":"Feature","geometry":{"type":"LineString","coordinates":[[2.5230649,48.7972579],[2.5216659,48.7906481]]},"properties":{"@id":"way/243385975","motorboat":"yes","name":"La Marne","ref:sandre":"F6649201","waterway":"river"},"id":"way/243385975"},
{"type":"Feature","geometry":{"type":"LineString","coordinates":[[2.5216659,48.7906481],[2.5201552,48.7885954],[2.5169709,48.7864012],[2.5132974,48.7854455],[2.5097476,48.7840369],[2.5059452,48.7841777],[2.5005132,48.7847527],[2.4954196,48.7842364],[2.4869215,48.784072],[2.4820704,48.785062],[2.4758896,48.7869979]]},"properties":{"@id":"way/243385976","motorboat":"yes","name":"La Marne","waterway":"river"},"id":"way/243385976"},
{"type":"Feature","geometry":{"type":"LineString","coordinates":[[2.1625873,48.8920538],[2.161192,48.8885717],[2.1588404,48.8851922],[2.1571448,48.8815577],[2.1545177,48.8776654],[2.151188,48.87478],[2.1455249,48.8712436],[2.1421359,48.8703446],[2.1357379,48.8701975],[2.1308983,48.870909],[2.129458,48.871533]]},"properties":{"@id":"way/247268272","CEMT":"Vb","boat":"yes","name":"La Seine","name:ar":"السين","name:arc":"ܣܢ","name:azb":"سئن چایی","name:be":"Сена","name:br":"Ar Saena","name:fa":"سن","name:fr":"La Seine","name:grc":"Σηκουάνας","name:kk-Arab":"سەنا","name:pa":"ਸੈਨ ਦਰਿਆ","name:pnb":"دریائے سین","name:ru":"Сена","name:sk":"Seina","name:syc":"ܣܢ","name:ur":"دریائے سین","name:vi":"Sông Seine","source":"cadastre-dgi-fr source : Direction Générale des Impôts - Cadastre. Mise à jour : 2012","waterway":"river"},"id":"way/247268272"},
{"type":"Feature","geometry":{"type":"LineString","coordinates":[[2.1676363,48.8976774],[2.1641249,48.8948742],[2.1625873,48.8920538]]},"properties":{"@id":"way/247268273","CEMT":"none","boat":"no","name":"La Seine","name:ar":"السين","name:arc":"ܣܢ","name:azb":"سئن چایی","name:be":"Сена","name:br":"Ar Saena","name:fa":"سن","name:fr":"La Seine","name:grc":"Σηκουάνας","name:kk-Arab":"سەنا","name:pa":"ਸੈਨ ਦਰਿਆ","name:pnb":"دریائے سین","name:ru":"Сена","name:sk":"Seina","name:syc":"ܣܢ","name:ur":"دریائے سین","name:vi":"Sông Seine","source":"cadastre-dgi-fr source : Direction Générale des Impôts - Cadastre. Mise à jour : 2012","waterway":"river"},"id":"way/247268273"},
{"type":"Feature","geometry":{"type":"LineString","coordinates":[[2.4694964,48.7938259],[2.4701003,48.7939303],[2.4716614,48.7945987]]},"properties":{"@id":"way/263527206","name":"Bras Sainte-Catherine","source":"survey","waterway":"river"},"id":"way/263527206"},
{"type":"Feature","geometry":{"type":"LineString","coordinates":[[2.4721877,48.7906801],[2.472726,48.7881905],[2.474199,48.7883294]]},"properties":{"@id":"way/263527213","name":"Bras des Ravageurs","waterway":"river"},"id":"way/263527213"},
{"type":"Feature","geometry":{"type":"LineString","coordinates":[[2.3195455,48.9158535],[2.3222717,48.9190513],[2.3259939,48.9205791],[2.329363,48.9234592],[2.333094,48.9270711],[2.3347746,48.9292137],[2.3368415,48.9335263],[2.336782,48.9358816],[2.3355974,48.9405802],[2.3334472,48.9429396],[2.3304276,48.9443763],[2.3243359,48.9460056],[2.3132395,48.9476066],[2.30013,48.9504623],[2.292472,48.9507442],[2.2907551,48.9511333]]},"properties":{"@id":"way/340481021","CEMT":"Vb","boat":"yes","have_riverbank":"yes","name":"Petit bras de la Seine","name:ar":"السين","name:arc":"ܣܢ","name:azb":"سئن چایی","name:be":"Сена","name:br":"Ar Saena","name:fa":"سن","name:fr":"La Seine","name:grc":"Σηκουάνας","name:kk-Arab":"سەنا","name:pa":"ਸੈਨ ਦਰਿਆ","name:pnb":"دریائے سین","name:ru":"Сена","name:sk":"Seina","name:syc":"ܣܢ","name:ur":"دریائے سین","name:vi":"Sông Seine","note":"Sailing direction is unidirection up river. Direction de la navigation est en amont.","waterway":"river"},"id":"way/340481021"},
{"type":"Feature","geometry":{"type":"LineString","coordinates":[[2.287513,48.9037032],[2.2885423,48.9043662],[2.2994486,48.9096],[2.30336,48.911059],[2.3089275,48.912477],[2.313722,48.9140823]]},"properties":{"@id":"way/340481262","CEMT":"Vb","boat":"yes","have_riverbank":"yes","name":"La Seine","name:ar":"السين","name:arc":"ܣܢ","name:azb":"سئن چایی","name:be":"Сена","name:br":"Ar Saena","name:fa":"سن","name:fr":"La Seine","name:grc":"Σηκουάνας","name:hu":"Szajna","name:kk-Arab":"سەنا","name:pa":"ਸੈਨ ਦਰਿਆ","name:pnb":"دریائے سین","name:ru":"Сена","name:sk":"Seina","name:syc":"ܣܢ","name:ur":"دریائے سین","name:vi":"Sông Seine","waterway":"river"},"id":"way/340481262"},
{"type":"Feature","geometry":{"type":"LineString","coordinates":[[2.3262566,48.9176307],[2.328302,48.918235],[2.3298329,48.919486]]},"properties":{"@id":"way/456341854","CEMT":"Vb","boat":"yes","name":"La Seine","seamark:type":"separation_lane","waterway":"river"},"id":"way/456341854"},
{"type":"Feature","geometry":{"type":"LineString","coordinates":[[2.5234426,48.7998586],[2.5228968,48.7983112]]},"properties":{"@id":"way/519108935","waterway":"river"},"id":"way/519108935"},
{"type":"Feature","geometry":{"type":"LineString","coordinates":[[2.4361991,48.8179455],[2.4358803,48.8179426]]},"properties":{"@id":"way/533196153","layer":"-1","name":"Bras de Gravelle","tunnel":"culvert","waterway":"river","wikidata":"Q109017676","wikipedia":"fr:Bras de Gravelle"},"id":"way/533196153"},
{"type":"Feature","geometry":{"type":"LineString","coordinates":[[2.4409219,48.8177214],[2.4361991,48.8179455]]},"properties":{"@id":"way/533196154","name":"Bras de Gravelle","waterway":"river","wikidata":"Q109017676","wikipedia":"fr:Bras de Gravelle"},"id":"way/533196154"},
{"type":"Feature","geometry":{"type":"LineString","coordinates":[[2.4358803,48.8179426],[2.4247572,48.8175965]]},"properties":{"@id":"way/533196159","name":"Bras de Gravelle","waterway":"river","wikidata":"Q109017676","wikipedia":"fr:Bras de Gravelle"},"id":"way/533196159"},
{"type":"Feature","geometry":{"type":"LineString","coordinates":[[2.4212821,48.7949747],[2.4207405,48.7957988]]},"properties":{"@id":"way/754863378","admin_level":"7","boat":"no","boundary":"administrative","have_riverbank":"yes","name":"La Seine","name:ar":"السين","name:arc":"ܣܢ","name:azb":"سئن چایی","name:be":"Сена","name:br":"Ar Saena","name:fa":"سن","name:fr":"La Seine","name:grc":"Σηκουάνας","name:kk-Arab":"سەنا","name:pa":"ਸੈਨ ਦਰਿਆ","name:pnb":"دریائے سین","name:ru":"Сена","name:sk":"Seina","name:syc":"ܣܢ","name:ur":"دریائے سین","name:vi":"Sông Seine","source":"cadastre-dgi-fr source : Direction Générale des Impôts - Cadastre. Mise à jour : 2009","waterway":"river"},"id":"way/754863378"},
{"type":"Feature","geometry":{"type":"LineString","coordinates":[[2.3298329,48.919486],[2.3342332,48.9242739],[2.3387264,48.9286824],[2.3408657,48.9313494],[2.341819,48.9358601],[2.3408925,48.9385111],[2.3394992,48.940905]]},"properties":{"@id":"way/784080542","CEMT":"Vb","boat":"yes","have_riverbank":"yes","name":"La Seine","name:ar":"السين","name:arc":"ܣܢ","name:azb":"سئن چایی","name:be":"Сена","name:br":"Ar Saena","name:fa":"سن","name:fr":"La Seine","name:grc":"Σηκουάνας","name:kk-Arab":"سەنا","name:pa":"ਸੈਨ ਦਰਿਆ","name:pnb":"دریائے سین","name:ru":"Сена","name:sk":"Seina","name:syc":"ܣܢ","name:ur":"دریائے سین","name:vi":"Sông Seine","waterway":"river"},"id":"way/784080542"},
{"type":"Feature","geometry":{"type":"LineString","coordinates":[[2.313722,48.9140823],[2.3195455,48.9158535]]},"properties":{"@id":"way/784080543","CEMT":"Vb","boat":"yes","have_riverbank":"yes","name":"La Seine","name:ar":"السين","name:arc":"ܣܢ","name:azb":"سئن چایی","name:be":"Сена","name:br":"Ar Saena","name:fa":"سن","name:fr":"La Seine","name:grc":"Σηκουάνας","name:hu":"Szajna","name:kk-Arab":"سەنا","name:pa":"ਸੈਨ ਦਰਿਆ","name:pnb":"دریائے سین","name:ru":"Сена","name:sk":"Seina","name:syc":"ܣܢ","name:ur":"دریائے سین","name:vi":"Sông Seine","waterway":"river"},"id":"way/784080543"},
{"type":"Feature","geometry":{"type":"LineString","coordinates":[[2.2228611,48.838758],[2.22546,48.847064],[2.225447,48.849368],[2.2243349,48.8529531],[2.2241497,48.8549639],[2.22523,48.858519],[2.2282705,48.8651786],[2.2304637,48.867857]]},"properties":{"@id":"way/788680101","CEMT":"Vb","boat":"yes","have_riverbank":"yes","name":"La Seine","name:ar":"السين","name:arc":"ܣܢ","name:azb":"سئن چایی","name:be":"Сена","name:br":"Ar Saena","name:fa":"سن","name:fr":"La Seine","name:grc":"Σηκουάνας","name:kk-Arab":"سەنا","name:pa":"ਸੈਨ ਦਰਿਆ","name:pnb":"دریائے سین","name:ru":"Сена","name:sk":"Seina","name:syc":"ܣܢ","name:ur":"دریائے سین","name:vi":"Sông Seine","waterway":"river"},"id":"way/788680101"},
{"type":"Feature","geometry":{"type":"LineString","coordinates":[[2.2357699,48.8727715],[2.2432511,48.8778527],[2.2527784,48.885783],[2.2544998,48.8877883],[2.2568526,48.8892414],[2.2633586,48.8949482],[2.268663,48.89748],[2.2751153,48.899719],[2.2806533,48.9009284]]},"properties":{"@id":"way/789623290","CEMT":"Vb","boat":"yes","have_riverbank":"yes","name":"La Seine","name:ar":"السين","name:arc":"ܣܢ","name:azb":"سئن چایی","name:be":"Сена","name:br":"Ar Saena","name:fa":"سن","name:fr":"La Seine","name:grc":"Σηκουάνας","name:kk-Arab":"سەنا","name:pa":"ਸੈਨ ਦਰਿਆ","name:pnb":"دریائے سین","name:ru":"Сена","name:sk":"Seina","name:syc":"ܣܢ","name:ur":"دریائے سین","name:vi":"Sông Seine","waterway":"river"},"id":"way/789623290"},
{"type":"Feature","geometry":{"type":"LineString","coordinates":[[2.2806533,48.9009284],[2.287513,48.9037032]]},"properties":{"@id":"way/789623291","CEMT":"Vb","boat":"yes","have_riverbank":"yes","name":"La Seine","name:ar":"السين","name:arc":"ܣܢ","name:azb":"سئن چایی","name:be":"Сена","name:br":"Ar Saena","name:fa":"سن","name:fr":"La Seine","name:grc":"Σηκουάνας","name:hu":"Szajna","name:kk-Arab":"سەنا","name:pa":"ਸੈਨ ਦਰਿਆ","name:pnb":"دریائے سین","name:ru":"Сена","name:sk":"Seina","name:syc":"ܣܢ","name:ur":"دریائے سین","name:vi":"Sông Seine","waterway":"river"},"id":"way/789623291"},
{"type":"Feature","geometry":{"type":"LineString","coordinates":[[2.2574676,48.9414933],[2.2551396,48.940197],[2.2466877,48.936264],[2.2418012,48.9328774],[2.2394824,48.931965],[2.2336876,48.9290238],[2.2238889,48.9228987],[2.2140793,48.9165943]]},"properties":{"@id":"way/790164164","CEMT":"Vb","boat":"yes","name":"La Seine","name:ar":"السين","name:arc":"ܣܢ","name:azb":"سئن چایی","name:be":"Сена","name:br":"Ar Saena","name:fa":"سن","name:fr":"La Seine","name:grc":"Σηκουάνας","name:kk-Arab":"سەنا","name:pa":"ਸੈਨ ਦਰਿਆ","name:pnb":"دریائے سین","name:ru":"Сена","name:sk":"Seina","name:syc":"ܣܢ","name:ur":"دریائے سین","name:vi":"Sông Seine","waterway":"river"},"id":"way/790164164"},
{"type":"Feature","geometry":{"type":"LineString","coordinates":[[2.226347,48.830647],[2.2257634,48.832681],[2.2235244,48.8359881],[2.2228611,48.838758]]},"properties":{"@id":"way/790385447","CEMT":"Vb","boat":"yes","have_riverbank":"yes","name":"La Seine","name:ar":"السين","name:arc":"ܣܢ","name:azb":"سئن چایی","name:be":"Сена","name:br":"Ar Saena","name:fa":"سن","name:fr":"La Seine","name:grc":"Σηκουάνας","name:kk-Arab":"سەنا","name:pa":"ਸੈਨ ਦਰਿਆ","name:pnb":"دریائے سین","name:ru":"Сена","name:sk":"Seina","name:syc":"ܣܢ","name:ur":"دریائے سین","name:vi":"Sông Seine","waterway":"river"},"id":"way/790385447"},
{"type":"Feature","geometry":{"type":"LineString","coordinates":[[2.5032416,48.8105943],[2.5076089,48.8103142],[2.5101941,48.809732]]},"properties":{"@id":"way/791052945","boat":"yes","motorboat":"yes","name":"La Marne","waterway":"river"},"id":"way/791052945"},
{"type":"Feature","geometry":{"type":"LineString","coordinates":[[2.4984321,48.8307568],[2.4976544,48.8308028]]},"properties":{"@id":"way/791052948","CEMT":"I","comment":"oneway","motorboat":"yes","waterway":"river"},"id":"way/791052948"},
{"type":"Feature","geometry":{"type":"LineString","coordinates":[[2.5155099,48.8512163],[2.5142061,48.8505494],[2.5118646,48.8480431],[2.5113925,48.8462922],[2.5115841,48.8437008],[2.5134932,48.8390346],[2.5166465,48.8367608],[2.5175176,48.8338593],[2.5162071,48.8314648],[2.5129804,48.829655],[2.5105342,48.829203]]},"properties":{"@id":"way/791083974","CEMT":"I","boat":"yes","motorboat":"yes","name":"La Marne","waterway":"river"},"id":"way/791083974"},
{"type":"Feature","geometry":{"type":"LineString","coordinates":[[2.5443645,48.8541179],[2.5423821,48.8532718],[2.5390573,48.8529233],[2.5354821,48.8536972]]},"properties":{"@id":"way/791154517","boat":"no","name":"La Marne","waterway":"river"},"id":"way/791154517"},
{"type":"Feature","geometry":{"type":"LineString","coordinates":[[2.1630837,48.8864804],[2.1635976,48.8847375]]},"properties":{"@id":"way/794387421","name":"La Seine - Bras de Marly","waterway":"river"},"id":"way/794387421"},
{"type":"Feature","geometry":{"type":"LineString","coordinates":[[2.1635976,48.8847375],[2.1632199,48.8828299],[2.1620285,48.8818831],[2.1577403,48.880059],[2.1527492,48.8731261],[2.1497063,48.8702918],[2.1480128,48.8693033]]},"properties":{"@id":"way/794387422","CEMT":"Vb","boat":"yes","name":"La Seine - Bras de Marly","source":"cadastre-dgi-fr source : Direction Générale des Impôts - Cadastre. Mise à jour : 2012","waterway":"river"},"id":"way/794387422"},
{"type":"Feature","geometry":{"type":"LineString","coordinates":[[2.1630837,48.8864804],[2.1635976,48.8847375]]},"properties":{"@id":"way/794387423","CEMT":"Vb","boat":"yes","motorboat":"yes","name":"La Seine - Bras de Marly","seamark:type":"separation_lane","source":"cadastre-dgi-fr source : Direction Générale des Impôts - Cadastre. Mise à jour : 2012","waterway":"river"},"id":"way/794387423"},
{"type":"Feature","geometry":{"type":"LineString","coordinates":[[2.1727992,48.9015241],[2.1676363,48.8976774]]},"properties":{"@id":"way/799049306","CEMT":"Vb","boat":"yes","name":"La Seine","name:ar":"السين","name:arc":"ܣܢ","name:azb":"سئن چایی","name:be":"Сена","name:br":"Ar Saena","name:fa":"سن","name:fr":"La Seine","name:grc":"Σηκουάνας","name:kk-Arab":"سەنا","name:pa":"ਸੈਨ ਦਰਿਆ","name:pnb":"دریائے سین","name:ru":"Сена","name:sk":"Seina","name:syc":"ܣܢ","name:ur":"دریائے سین","name:vi":"Sông Seine","source":"cadastre-dgi-fr source : Direction Générale des Impôts - Cadastre. Mise à jour : 2012","waterway":"river"},"id":"way/799049306"},
{"type":"Feature","geometry":{"type":"LineString","coordinates":[[2.2077532,48.9117456],[2.203483,48.9099046]]},"properties":{"@id":"way/913549049","CEMT":"Vb","boat":"yes","name":"La Seine - Bras de Marly","seamark:type":"separation_lane","source":"cadastre-dgi-fr source : Direction Générale des Impôts - Cadastre. Mise à jour : 2012","waterway":"river"},"id":"way/913549049"},
{"type":"Feature","geometry":{"type":"LineString","coordinates":[[2.2140793,48.9165943],[2.2130913,48.9152061],[2.2077532,48.9117456]]},"properties":{"@id":"way/913549050","CEMT":"Vb","boat":"yes","name":"La Seine - Bras de Marly","source":"cadastre-dgi-fr source : Direction Générale des Impôts - Cadastre. Mise à jour : 2012","waterway":"river"},"id":"way/913549050"},
{"type":"Feature","geometry":{"type":"LineString","coordinates":[[2.2055817,48.9133015],[2.2006604,48.9106028]]},"properties":{"@id":"way/913549052","CEMT":"Vb","boat":"yes","name":"La Seine","name:ar":"السين","name:arc":"ܣܢ","name:azb":"سئن چایی","name:be":"Сена","name:br":"Ar Saena","name:fa":"سن","name:fr":"La Seine","name:grc":"Σηκουάνας","name:kk-Arab":"سەنا","name:pa":"ਸੈਨ ਦਰਿਆ","name:pnb":"دریائے سین","name:ru":"Сена","name:sk":"Seina","name:syc":"ܣܢ","name:ur":"دریائے سین","name:vi":"Sông Seine","seamark:type":"separation_lane","source":"cadastre-dgi-fr source : Direction Générale des Impôts - Cadastre. Mise à jour : 2012","waterway":"river"},"id":"way/913549052"},
{"type":"Feature","geometry":{"type":"LineString","coordinates":[[2.2140793,48.9165943],[2.2096845,48.9146921],[2.2055817,48.9133015]]},"properties":{"@id":"way/913549053","CEMT":"Vb","boat":"yes","name":"La Seine","name:ar":"السين","name:arc":"ܣܢ","name:azb":"سئن چایی","name:be":"Сена","name:br":"Ar Saena","name:fa":"سن","name:fr":"La Seine","name:grc":"Σηκουάνας","name:kk-Arab":"سەنا","name:pa":"ਸੈਨ ਦਰਿਆ","name:pnb":"دریائے سین","name:ru":"Сена","name:sk":"Seina","name:syc":"ܣܢ","name:ur":"دریائے سین","name:vi":"Sông Seine","source":"cadastre-dgi-fr source : Direction Générale des Impôts - Cadastre. Mise à jour : 2012","waterway":"river"},"id":"way/913549053"},
{"type":"Feature","geometry":{"type":"LineString","coordinates":[[2.4701003,48.7939303],[2.4687214,48.7978152],[2.4675063,48.7984295]]},"properties":{"@id":"way/913576880","name":"Bras de la Guyère","source":"survey","waterway":"river"},"id":"way/913576880"},
{"type":"Feature","geometry":{"type":"LineString","coordinates":[[2.3195455,48.9158535],[2.3262566,48.9176307]]},"properties":{"@id":"way/913864813","CEMT":"Vb","boat":"yes","have_riverbank":"yes","name":"La Seine","name:ar":"السين","name:arc":"ܣܢ","name:azb":"سئن چایی","name:be":"Сена","name:br":"Ar Saena","name:fa":"سن","name:fr":"La Seine","name:grc":"Σηκουάνας","name:kk-Arab":"سەنا","name:pa":"ਸੈਨ ਦਰਿਆ","name:pnb":"دریائے سین","name:ru":"Сена","name:sk":"Seina","name:syc":"ܣܢ","name:ur":"دریائے سین","name:vi":"Sông Seine","waterway":"river"},"id":"way/913864813"},
{"type":"Feature","geometry":{"type":"LineString","coordinates":[[2.2350985,48.8718131],[2.2357699,48.8727715]]},"properties":{"@id":"way/914241700","name":"La Seine","name:ar":"السين","name:arc":"ܣܢ","name:azb":"سئن چایی","name:be":"Сена","name:br":"Ar Saena","name:fa":"سن","name:fr":"La Seine","name:grc":"Σηκουάνας","name:kk-Arab":"سەنا","name:pa":"ਸੈਨ ਦਰਿਆ","name:pnb":"دریائے سین","name:ru":"Сена","name:sk":"Seina","name:syc":"ܣܢ","name:ur":"دریائے سین","name:vi":"Sông Seine","waterway":"river"},"id":"way/914241700"},
{"type":"Feature","geometry":{"type":"LineString","coordinates":[[2.2327335,48.8692462],[2.2377123,48.8711125]]},"properties":{"@id":"way/914241701","boat":"no","name":"Petit Bras de la Seine","waterway":"river"},"id":"way/914241701"},
{"type":"Feature","geometry":{"type":"LineString","coordinates":[[2.3384698,48.858236],[2.3351107,48.8589292]]},"properties":{"@id":"way/914456351","CEMT":"Vb","boat":"yes","name":"La Seine","name:ar":"السين","name:arc":"ܣܢ","name:azb":"سئن چایی","name:br":"Ar Saena","name:fa":"سن","name:fr":"La Seine","name:grc":"Σηκουάνας","name:kk-Arab":"سەنا","name:pa":"ਸੈਨ ਦਰਿਆ","name:pl":"Sekwana","name:pnb":"دریائے سین","name:ru":"Сена","name:sk":"Seina","name:syc":"ܣܢ","name:ur":"دریائے سین","name:vi":"Sông Seine","seamark:type":"separation_lane","waterway":"river"},"id":"way/914456351"},
{"type":"Feature","geometry":{"type":"LineString","coordinates":[[2.3522295,48.8546776],[2.3468041,48.8567282],[2.3400898,48.8581273],[2.3384698,48.858236]]},"properties":{"@id":"way/914456352","CEMT":"Vb","boat":"yes","name":"La Seine","name:ar":"السين","name:arc":"ܣܢ","name:azb":"سئن چایی","name:br":"Ar Saena","name:fa":"سن","name:fr":"La Seine","name:grc":"Σηκουάνας","name:kk-Arab":"سەنا","name:pa":"ਸੈਨ ਦਰਿਆ","name:pl":"Sekwana","name:pnb":"دریائے سین","name:ru":"Сена","name:sk":"Seina","name:syc":"ܣܢ","name:ur":"دریائے سین","name:vi":"Sông Seine","waterway":"river"},"id":"way/914456352"},
{"type":"Feature","geometry":{"type":"LineString","coordinates":[[2.2901364,48.8583814],[2.2887373,48.857206]]},"properties":{"@id":"way/914456358","CEMT":"Vb","boat":"yes","have_riverbank":"yes","name":"La Seine","name:ar":"السين","name:arc":"ܣܢ","name:azb":"سئن چایی","name:br":"Ar Saena","name:fa":"سن","name:fr":"La Seine","name:grc":"Σηκουάνας","name:kk-Arab":"سەنا","name:pa":"ਸੈਨ ਦਰਿਆ","name:pl":"Sekwana","name:pnb":"دریائے سین","name:ru":"Сена","name:sk":"Seina","name:syc":"ܣܢ","name:ur":"دریائے سین","name:vi":"Sông Seine","waterway":"river"},"id":"way/914456358"},
{"type":"Feature","geometry":{"type":"LineString","coordinates":[[2.2943487,48.8615816],[2.2917578,48.8600092],[2.2901364,48.8583814]]},"properties":{"@id":"way/914456360","CEMT":"Vb","boat":"yes","name":"La Seine","name:br":"Ar Saena","seamark:type":"separation_lane","waterway":"river"},"id":"way/914456360"},
{"type":"Feature","geometry":{"type":"LineString","coordinates":[[2.4226877,48.7897553],[2.4226814,48.7919971]]},"properties":{"@id":"way/932526175","CEMT":"Vb","admin_level":"7","boat":"yes","boundary":"administrative","have_riverbank":"yes","motorboat":"yes","name":"La Seine","name:ar":"السين","name:arc":"ܣܢ","name:azb":"سئن چایی","name:be":"Сена","name:br":"Ar Saena","name:fa":"سن","name:fr":"La Seine","name:grc":"Σηκουάνας","name:kk-Arab":"سەنا","name:pa":"ਸੈਨ ਦਰਿਆ","name:pnb":"دریائے سین","name:ru":"Сена","name:sk":"Seina","name:syc":"ܣܢ","name:ur":"دریائے سین","name:vi":"Sông Seine","source":"cadastre-dgi-fr source : Direction Générale des Impôts - Cadastre. Mise à jour : 2009","waterway":"river"},"id":"way/932526175"},
{"type":"Feature","geometry":{"type":"LineString","coordinates":[[2.4160164,48.7994932],[2.4145862,48.8006841]]},"properties":{"@id":"way/932526177","admin_level":"7","boat":"no","boundary":"administrative","have_riverbank":"yes","name":"La Seine","name:ar":"السين","name:arc":"ܣܢ","name:azb":"سئن چایی","name:be":"Сена","name:br":"Ar Saena","name:fa":"سن","name:fr":"La Seine","name:grc":"Σηκουάνας","name:kk-Arab":"سەنا","name:pa":"ਸੈਨ ਦਰਿਆ","name:pnb":"دریائے سین","name:ru":"Сена","name:sk":"Seina","name:syc":"ܣܢ","name:ur":"دریائے سین","name:vi":"Sông Seine","source":"cadastre-dgi-fr source : Direction Générale des Impôts - Cadastre. Mise à jour : 2009","waterway":"river"},"id":"way/932526177"},
{"type":"Feature","geometry":{"type":"LineString","coordinates":[[2.4094696,48.8054344],[2.4088439,48.8085036]]},"properties":{"@id":"way/932526180","CEMT":"Vb","admin_level":"7","boat":"yes","boundary":"administrative","motorboat":"yes","name":"La Seine","name:ar":"السين","name:arc":"ܣܢ","name:azb":"سئن چایی","name:be":"Сена","name:br":"Ar Saena","name:fa":"سن","name:fr":"La Seine","name:grc":"Σηκουάνας","name:kk-Arab":"سەنا","name:pa":"ਸੈਨ ਦਰਿਆ","name:pnb":"دریائے سین","name:ru":"Сена","name:sk":"Seina","name:syc":"ܣܢ","name:ur":"دریائے سین","name:vi":"Sông Seine","source":"cadastre-dgi-fr source : Direction Générale des Impôts - Cadastre. Mise à jour : 2009","waterway":"river"},"id":"way/932526180"},
{"type":"Feature","geometry":{"type":"LineString","coordinates":[[2.4088439,48.8085036],[2.4089823,48.8093613]]},"properties":{"@id":"way/932526183","CEMT":"Vb","admin_level":"7","boat":"yes","boundary":"administrative","have_riverbank":"yes","motorboat":"yes","name":"La Seine","name:ar":"السين","name:arc":"ܣܢ","name:azb":"سئن چایی","name:be":"Сена","name:br":"Ar Saena","name:fa":"سن","name:fr":"La Seine","name:grc":"Σηκουάνας","name:kk-Arab":"سەنا","name:pa":"ਸੈਨ ਦਰਿਆ","name:pnb":"دریائے سین","name:ru":"Сена","name:sk":"Seina","name:syc":"ܣܢ","name:ur":"دریائے سین","name:vi":"Sông Seine","source":"cadastre-dgi-fr source : Direction Générale des Impôts - Cadastre. Mise à jour : 2009","waterway":"river"},"id":"way/932526183"},
{"type":"Feature","geometry":{"type":"LineString","coordinates":[[2.4677984,48.8201713],[2.4691676,48.8188246]]},"properties":{"@id":"way/932541470","motorboat":"yes","name":"La Marne","oneway":"yes","waterway":"river"},"id":"way/932541470"},
{"type":"Feature","geometry":{"type":"LineString","coordinates":[[2.4692723,48.8201598],[2.4691676,48.8188246]]},"properties":{"@id":"way/932541475","CEMT":"I","boat":"yes","motorboat":"yes","name":"La Marne","waterway":"river"},"id":"way/932541475"},
{"type":"Feature","geometry":{"type":"LineString","coordinates":[[2.4545223,48.8165864],[2.4409219,48.8177214]]},"properties":{"@id":"way/1032956129","layer":"-1","name":"Bras de Gravelle","tunnel":"culvert","waterway":"river","wikidata":"Q109017676","wikipedia":"fr:Bras de Gravelle"},"id":"way/1032956129"},
{"type":"Feature","geometry":{"type":"LineString","coordinates":[[2.5354821,48.8536972],[2.5319377,48.8535065],[2.5279426,48.8527495],[2.5216493,48.8522508],[2.5158519,48.8513496]]},"properties":{"@id":"way/1171280207","CEMT":"I","boat":"yes","motorboat":"yes","name":"La Marne","waterway":"river"},"id":"way/1171280207"},
{"type":"Feature","geometry":{"type":"LineString","coordinates":[[2.5156804,48.8513034],[2.5155099,48.8512163]]},"properties":{"@id":"way/1171280208","CEMT":"I","boat":"yes","motorboat":"yes","name":"La Marne","waterway":"river"},"id":"way/1171280208"},
{"type":"Feature","geometry":{"type":"LineString","coordinates":[[2.5158519,48.8513496],[2.5156804,48.8513034]]},"properties":{"@id":"way/1171280209","CEMT":"I","boat":"yes","layer":"-1","motorboat":"yes","name":"La Marne","tunnel":"culvert","waterway":"river"},"id":"way/1171280209"},
{"type":"Feature","geometry":{"type":"LineString","coordinates":[[2.30145,48.863477],[2.296866,48.8626599],[2.2943487,48.8615816]]},"properties":{"@id":"way/1185670423","CEMT":"Vb","boat":"yes","name":"La Seine","name:ar":"السين","name:arc":"ܣܢ","name:azb":"سئن چایی","name:br":"Ar Saena","name:fa":"سن","name:fr":"La Seine","name:grc":"Σηκουάνας","name:kk-Arab":"سەنا","name:pa":"ਸੈਨ ਦਰਿਆ","name:pl":"Sekwana","name:pnb":"دریائے سین","name:ru":"Сена","name:sk":"Seina","name:syc":"ܣܢ","name:ur":"دریائے سین","name:vi":"Sông Seine","waterway":"river"},"id":"way/1185670423"},
{"type":"Feature","geometry":{"type":"LineString","coordinates":[[2.3015455,48.8634835],[2.30145,48.863477]]},"properties":{"@id":"way/1185670424","CEMT":"Vb","boat":"yes","layer":"-1","name":"La Seine","name:ar":"السين","name:arc":"ܣܢ","name:azb":"سئن چایی","name:br":"Ar Saena","name:fa":"سن","name:fr":"La Seine","name:grc":"Σηκουάνας","name:kk-Arab":"سەنا","name:pa":"ਸੈਨ ਦਰਿਆ","name:pl":"Sekwana","name:pnb":"دریائے سین","name:ru":"Сена","name:sk":"Seina","name:syc":"ܣܢ","name:ur":"دریائے سین","name:vi":"Sông Seine","tunnel":"culvert","waterway":"river"},"id":"way/1185670424"}
]}