{"type":"FeatureCollection","generator":"overpass-ide","copyright":"The data included in this document is from www.openstreetmap.org. The data is made available under ODbL.","timestamp":"2023-07-17T14:20:14Z","features":[{"type":"Feature","properties":{"@id":"relation/7141751","addr:city":"New York","addr:state":"NY","bicycle":"no","bridge":"viaduct","building:colour":"#3D4647","building:material":"metal","building:part":"yes","dog":"no","email":"info@thehighline.org","height":"7.5","layer":"2","leisure":"park","man_made":"bridge","min_height":"5;5.5","name":"The High Line","old_railway_operator":"NYC","opening_hours":"Mo-Su 07:00-19:00","operator":"Friends of the High Line","phone":"+1 212-500-6035","roof:material":"grass","roof:shape":"flat","smoking":"no","tourism":"attraction","type":"multipolygon","website":"https://www.thehighline.org/","wheelchair":"yes","wikidata":"Q843869","wikipedia":"en:High Line"},"geometry":{"type":"MultiPolygon","coordinates":[[[[-74.0069854,40.743267],[-74.0070603,40.7431642],[-74.0071326,40.7430649],[-74.0071722,40.7430104],[-74.0072452,40.7429101],[-74.0073432,40.7427757],[-74.0075531,40.7424917],[-74.0076195,40.7423534],[-74.0076731,40.7421334],[-74.0077142,40.7417788],[-74.007718,40.7417612],[-74.0077685,40.7415272],[-74.0077765,40.7414903],[-74.0077854,40.741449],[-74.007845,40.7411839],[-74.0079129,40.7408822],[-74.0079425,40.7407507],[-74.0079469,40.7407308],[-74.0079895,40.7405415],[-74.0080422,40.7404336],[-74.0080933,40.7402611],[-74.0081324,40.7398473],[-74.0081336,40.7398308],[-74.008135,40.7397963],[-74.008157,40.739479],[-74.00816,40.7394351],[-74.0081865,40.7394359],[-74.0082073,40.7394365],[-74.0083229,40.7394398],[-74.0083045,40.7396653],[-74.0082919,40.7398251],[-74.0082855,40.7398967],[-74.0082479,40.7403572],[-74.0081555,40.7406923],[-74.0081154,40.7408813],[-74.0080883,40.7410092],[-74.0080345,40.741272],[-74.0079692,40.7415707],[-74.0079662,40.7415827],[-74.0079053,40.7418352],[-74.0078977,40.7418809],[-74.0078938,40.7419044],[-74.0078922,40.7419144],[-74.0078857,40.7419536],[-74.0078605,40.7421053],[-74.0078001,40.7424277],[-74.0074973,40.7428427],[-74.0074889,40.7428539],[-74.0074668,40.7428847],[-74.0075204,40.7429078],[-74.0074388,40.74302],[-74.0073936,40.7429937],[-74.0073897,40.7429937],[-74.007389,40.7429947],[-74.007351,40.7430409],[-74.0071344,40.7433327],[-74.0071416,40.7433354],[-74.0072013,40.7433591],[-74.0071857,40.7433794],[-74.0071086,40.7434797],[-74.0071256,40.7435139],[-74.0072156,40.7436947],[-74.0072516,40.7437247],[-74.007221,40.7437672],[-74.007045,40.7435656],[-74.0070066,40.7434764],[-74.0069897,40.7435655],[-74.006987,40.7438066],[-74.0070908,40.74385],[-74.006999,40.7439781],[-74.007007,40.7440191],[-74.007021,40.7440906],[-74.0070675,40.7443278],[-74.0070804,40.7443333],[-74.0071135,40.7443474],[-74.0070462,40.7444337],[-74.0071015,40.7444559],[-74.0070877,40.7444746],[-74.0070409,40.7445381],[-74.0070928,40.7445568],[-74.0070339,40.7446381],[-74.007051,40.7446453],[-74.0070004,40.744717],[-74.007012,40.7447222],[-74.0069621,40.7447907],[-74.0069715,40.744795],[-74.0068543,40.7449534],[-74.0068586,40.7449573],[-74.0065574,40.7453803],[-74.0064575,40.7455894],[-74.0052975,40.7471905],[-74.0053318,40.7472043],[-74.0051681,40.7474357],[-74.0047221,40.7480792],[-74.0046649,40.7480579],[-74.004303,40.7485568],[-74.0042281,40.74866],[-74.0038733,40.7491491],[-74.003792,40.7493016],[-74.0029798,40.7504202],[-74.0024424,40.7511576],[-74.0022294,40.7514525],[-74.0021648,40.7515455],[-74.0021294,40.7516147],[-74.0020283,40.7518143],[-74.0020057,40.7518965],[-74.0019916,40.7520272],[-74.0020032,40.7521683],[-74.0020556,40.7523215],[-74.0021202,40.7524424],[-74.0024058,40.7527734],[-74.0027509,40.7529199],[-74.002722,40.7529609],[-74.0027311,40.7529647],[-74.0028296,40.7530059],[-74.0032741,40.7531921],[-74.0032771,40.753188],[-74.0034051,40.7532415],[-74.0034012,40.753247],[-74.0035776,40.7533216],[-74.0035811,40.7533169],[-74.0039037,40.7534532],[-74.0039003,40.7534579],[-74.0040806,40.7535343],[-74.0040843,40.7535292],[-74.0042126,40.7535829],[-74.0042086,40.7535883],[-74.0044214,40.7536768],[-74.0044244,40.7536727],[-74.0044836,40.7536973],[-74.0044805,40.7537017],[-74.0046211,40.753761],[-74.0046188,40.753764],[-74.0057108,40.7542137],[-74.0056732,40.7542677],[-74.0057052,40.7542953],[-74.0057528,40.7543416],[-74.0057971,40.754393],[-74.0058292,40.7544369],[-74.0058614,40.7544864],[-74.0058915,40.754533],[-74.0059139,40.7545845],[-74.0059328,40.754631],[-74.0059473,40.7546698],[-74.0059571,40.7547168],[-74.005966,40.7547678],[-74.0059711,40.7548084],[-74.0059765,40.7548765],[-74.0059723,40.7549218],[-74.0059636,40.754981],[-74.0059563,40.7550274],[-74.0059506,40.7550768],[-74.0059337,40.7551162],[-74.0059109,40.7551643],[-74.0058927,40.7552015],[-74.0058722,40.7552408],[-74.0058486,40.7552832],[-74.0058222,40.7553248],[-74.0052127,40.7561585],[-74.0049956,40.7562972],[-74.004965,40.7563125],[-74.0049376,40.7563257],[-74.0048896,40.7563484],[-74.0048408,40.7563685],[-74.0047891,40.7563876],[-74.0047294,40.7564075],[-74.0046675,40.756424],[-74.0045874,40.7564413],[-74.004523,40.7564526],[-74.0044466,40.7564619],[-74.0043721,40.7564677],[-74.0043083,40.7564702],[-74.0042298,40.7564683],[-74.0041578,40.7564621],[-74.0041263,40.7564587],[-74.0040875,40.7564539],[-74.0040372,40.7564463],[-74.0040414,40.7564282],[-74.0040451,40.7564121],[-74.0040503,40.7563894],[-74.0041056,40.7563984],[-74.0041632,40.7564051],[-74.0042454,40.7564108],[-74.0043386,40.7564115],[-74.0044151,40.7564075],[-74.0044987,40.7563986],[-74.0045811,40.7563844],[-74.0046597,40.7563664],[-74.0047213,40.7563494],[-74.0048007,40.7563218],[-74.0048661,40.7562926],[-74.0049194,40.7562647],[-74.0051264,40.7561293],[-74.0051262,40.7561195],[-74.0057457,40.7552509],[-74.0057704,40.7552044],[-74.0057998,40.7551398],[-74.00581,40.7551139],[-74.0058368,40.7550325],[-74.0058533,40.7548509],[-74.0058539,40.7547996],[-74.005849,40.7547504],[-74.0058392,40.7547088],[-74.0058219,40.7546536],[-74.005801,40.7545963],[-74.0057166,40.7544619],[-74.0056098,40.7543428],[-74.0055451,40.7542881],[-74.0054801,40.75424],[-74.0054327,40.7542107],[-74.0053637,40.7541733],[-74.005287,40.7541348],[-74.0051321,40.7540675],[-74.0044311,40.75377],[-74.0044289,40.7537729],[-74.0043696,40.7537483],[-74.0043722,40.7537448],[-74.0041601,40.7536549],[-74.0041581,40.7536575],[-74.0040298,40.7536038],[-74.004032,40.7536008],[-74.0038508,40.7535251],[-74.0038482,40.7535286],[-74.0035255,40.7533924],[-74.0035282,40.7533888],[-74.0033523,40.7533141],[-74.0033494,40.7533181],[-74.0032213,40.7532646],[-74.0032238,40.7532611],[-74.0027795,40.7530734],[-74.0026738,40.7530287],[-74.0026707,40.7530326],[-74.0022674,40.7528627],[-74.0012287,40.7524257],[-74.0011957,40.7524117],[-74.0011166,40.7523784],[-74.0011278,40.752363],[-74.0010075,40.752313],[-74.0010168,40.7523006],[-74.0010336,40.7522783],[-74.0010173,40.7522654],[-74.0009587,40.7522192],[-74.000905,40.7521768],[-74.0008229,40.7521112],[-73.9998109,40.7516858],[-73.9997622,40.7516658],[-73.9996329,40.7516091],[-73.9996637,40.7515671],[-74.0007899,40.7520425],[-74.0008474,40.7519618],[-74.0009133,40.7519894],[-74.0009177,40.7519833],[-74.0009674,40.7519144],[-74.0009779,40.7518998],[-74.0010586,40.751963],[-74.0011461,40.7520315],[-74.0011357,40.7520463],[-74.0011168,40.7520731],[-74.0011792,40.7521006],[-74.0011729,40.7521096],[-74.0011916,40.7521471],[-74.0012032,40.7521702],[-74.0012445,40.7522536],[-74.0013003,40.7523579],[-74.0013555,40.7523236],[-74.0013958,40.7523608],[-74.0013583,40.7523841],[-74.0017209,40.7525372],[-74.0017524,40.7524938],[-74.0018133,40.7525191],[-74.0017818,40.7525625],[-74.0018493,40.7525913],[-74.0018874,40.7525389],[-74.0019508,40.7525654],[-74.0019127,40.7526178],[-74.0020513,40.7526766],[-74.0020792,40.7526377],[-74.0021306,40.7526599],[-74.0020664,40.7525481],[-74.002062,40.7525412],[-74.0019605,40.752375],[-74.0019549,40.7523744],[-74.0019351,40.7523201],[-74.0019263,40.752296],[-74.0019099,40.7522507],[-74.0018833,40.7521161],[-74.001882,40.7519754],[-74.0019055,40.7518527],[-74.0018832,40.7518417],[-74.0019347,40.7517506],[-74.0019309,40.7517461],[-74.0020148,40.7515922],[-74.0023578,40.7511158],[-74.0027609,40.7505591],[-74.002803,40.7505003],[-74.0031371,40.7500261],[-74.0032089,40.7499242],[-74.0032148,40.7498772],[-74.0032172,40.7498585],[-74.0041283,40.7486203],[-74.0042058,40.748515],[-74.0046053,40.747972],[-74.0062835,40.7456618],[-74.0063337,40.7455871],[-74.0063782,40.7455128],[-74.0064605,40.7453394],[-74.0064549,40.7453368],[-74.0066255,40.7451131],[-74.0067848,40.7448876],[-74.0068656,40.7447549],[-74.006902,40.7446671],[-74.0069239,40.7445809],[-74.0069331,40.7445251],[-74.006938,40.7444955],[-74.0069399,40.744448],[-74.0069421,40.7443806],[-74.0069161,40.7443764],[-74.0069314,40.7442712],[-74.0069193,40.7441401],[-74.0069084,40.7440222],[-74.0069064,40.7440005],[-74.0068676,40.7439827],[-74.0067678,40.743937],[-74.0068509,40.7438228],[-74.0068281,40.743732],[-74.0067653,40.7437098],[-74.0068351,40.7436217],[-74.0068419,40.7434744],[-74.0068431,40.7434493],[-74.0068446,40.7434198],[-74.0069315,40.7432444],[-74.0069854,40.743267]]],[[[-74.0074557,40.7431463],[-74.0073979,40.74307],[-74.007356,40.7430437],[-74.0073894,40.7429956],[-74.0073907,40.7429941],[-74.0074388,40.7430219],[-74.0075173,40.7431167],[-74.0075794,40.7431895],[-74.0076265,40.7432196],[-74.0075905,40.7432692],[-74.0075381,40.7432424],[-74.007534,40.7432376],[-74.0074557,40.7431463]]]]},"id":"relation/7141751"},{"type":"Feature","properties":{"@id":"way/22727025","addr:city":"New York","addr:full":"Between 40th and 42nd Streets at 6th Avenue","addr:postcode":"10018","addr:state":"NY","check_date:opening_hours":"2021-11-16","ele":"20","gnis:county_id":"061","gnis:created":"01/17/2006","gnis:feature_id":"2083160","gnis:state_id":"36","heritage":"2","heritage:operator":"nrhp","leisure":"park","lpc:inscription_date":"1974-11-12","name":"Bryant Park","name:ja":"ブライアントパーク","name:ko":"브라이언트 공원","name:ru":"Брайант-парк","name:tr":"Bryant Park","nrhp:inscription_date":"1966-10-15","old_name":"Reservoir Square","opening_hours":"Mo-Su 07:00-23:00","operator":"Bryant Park Corporation","ref:lpc":"0879","ref:nrhp":"66000547","tourism":"attraction","website":"https://bryantpark.org/","wheelchair":"yes","wikidata":"Q995174","wikipedia":"en:Bryant Park"},"geometry":{"type":"Polygon","coordinates":[[[-73.9830608,40.7528464],[-73.9839324,40.753211],[-73.984804,40.7535787],[-73.9840853,40.754635],[-73.9839967,40.7546551],[-73.9833425,40.7543773],[-73.9824866,40.7540175],[-73.9822727,40.753923],[-73.9830608,40.7528464]]]},"id":"way/22727025"},{"type":"Feature","properties":{"@id":"way/34633854","addr:city":"New York","addr:housenumber":"350","addr:postcode":"10018","addr:state":"NY","addr:street":"5th Avenue","building":"office","building:colour":"beige","building:levels":"102","building:use":"office","check_date":"2021-04-21","construction_date":"1930-1931","ele":"15","gnis:feature_id":"949654","height":"443.2","name":"Empire State Building","name:en":"Empire State Building","name:es":"Edificio Empire State","name:he":"בניין אמפייר סטייט","name:hi":"एम्पायर स्टेट बिल्डिंग","name:ko":"엠파이어 스테이트 빌딩","name:ru":"Эмпайр-Стейт-Билдинг","name:uk":"Емпайр-Стейт-Білдінг","name:zh":"帝国大厦","nycdoitt:bin":"1015862","office":"yes","opening_hours":"Mo-Su 08:00-02:00","phone":"+1-212-736-3100","start_date":"1931","tourism":"attraction","website":"https://www.esbnyc.com/explore","wheelchair":"yes","wikidata":"Q9188","wikipedia":"en:Empire State Building"},"geometry":{"type":"Polygon","coordinates":[[[-73.9865012,40.748491],[-73.9864839,40.7485145],[-73.9863554,40.748689],[-73.9863252,40.7487301],[-73.9861574,40.7489585],[-73.9848166,40.7483931],[-73.9851602,40.7479255],[-73.9865012,40.748491]]]},"id":"way/34633854"},{"type":"Feature","properties":{"@id":"way/48869328","addr:city":"New York","addr:housenumber":"405","addr:postcode":"10017","addr:state":"NY","addr:street":"FDR Drive","building":"public","ele":"12","gnis:feature_id":"968243","name":"United Nations Headquarters","name:ar":"مقر الأمم المتحدة","name:de":"Hauptsitz der Vereinten Nationen","name:es":"Sede de la Organización de las Naciones Unidas","name:fr":"Siège des Nations unies","name:he":"בניין האומות המאוחדות","name:hi":"संयुक्त राष्ट्र मुख्यालय","name:hr":"Zgrada Generalne skupštine","name:ja":"国際連合本部ビル","name:ko":"유엔 본부","name:pl":"Kwatera główna ONZ","name:ru":"Штаб-квартира ООН","name:uk":"Штаб-квартира ООН","name:zh":"联合国总部大楼","name:zh_pinyin":"Liánhéguó Zǒngbù Dàlóu","nycdoitt:bin":"1083872","office":"international_organization","short_name":"UNO","short_name:de":"VN","short_name:es":"ONU","short_name:fr":"ONU","short_name:pl":"ONZ","start_date":"1952","toilets:wheelchair":"yes","tourism":"attraction","website":"https://www.un.org/","wheelchair":"yes","wikidata":"Q11297","wikipedia":"en:Headquarters of the United Nations"},"geometry":{"type":"Polygon","coordinates":[[[-73.9677562,40.7506761],[-73.9675277,40.7505821],[-73.9673911,40.7505251],[-73.9672677,40.7504751],[-73.9670372,40.7503782],[-73.9671213,40.750303],[-73.967299,40.7501442],[-73.9674283,40.7500087],[-73.9675158,40.7499107],[-73.9675569,40.7498572],[-73.9675666,40.7498445],[-73.9676068,40.749791],[-73.9674859,40.7497399],[-73.9674219,40.7497133],[-73.9673609,40.7497988],[-73.9672845,40.749906],[-73.9672335,40.7498856],[-73.9672095,40.7498756],[-73.9671901,40.7498675],[-73.9667929,40.7497017],[-73.9667847,40.7497131],[-73.9667749,40.7497273],[-73.9666373,40.7496722],[-73.9667431,40.7495418],[-73.9675252,40.7485777],[-73.9680455,40.7488],[-73.96819,40.7486],[-73.9682384,40.7485329],[-73.9682438,40.7485254],[-73.968465,40.7486192],[-73.9684601,40.7486259],[-73.9684076,40.7486978],[-73.9683894,40.7487232],[-73.9683542,40.7487718],[-73.9681932,40.7489941],[-73.9681369,40.7490719],[-73.9680763,40.7491556],[-73.9679765,40.7492949],[-73.9679564,40.7493213],[-73.9679515,40.7493274],[-73.9677537,40.7492471],[-73.967747,40.7492567],[-73.9675698,40.7495087],[-73.9677425,40.7495804],[-73.9677564,40.7495862],[-73.9678101,40.7495045],[-73.9683231,40.7497194],[-73.9682409,40.7498305],[-73.9682001,40.7498856],[-73.968153,40.749951],[-73.96809,40.7500462],[-73.9680775,40.7500642],[-73.9679964,40.7501892],[-73.967912,40.7503431],[-73.9678406,40.7504855],[-73.967795,40.7505885],[-73.9677562,40.7506761]]]},"id":"way/48869328"},{"type":"Feature","properties":{"@id":"way/50603780","addr:city":"New York","addr:housenumber":"1","addr:postcode":"10019","addr:state":"NY","addr:street":"Intrepid Plaza","building":"ship","height":"14","heritage":"2","heritage:operator":"nrhp","historic":"ship","layer":"1","name":"USS Intrepid","nycdoitt:bin":"1027183","operator":"Intrepid Museum","ref":"CV-11","ref:nrhp":"86000082","ship:type":"aircraft_carrier","start_date":"1943","tourism":"attraction","wheelchair":"yes","wikidata":"Q1351288","wikipedia":"en:USS Intrepid (CV-11)"},"geometry":{"type":"Polygon","coordinates":[[[-73.9993844,40.7642783],[-73.99942,40.764229],[-73.9993444,40.7641921],[-73.9993558,40.7641773],[-73.9994288,40.7642071],[-73.9995164,40.7640922],[-73.9994429,40.7640558],[-73.9994523,40.7640396],[-73.9995274,40.7640721],[-73.9995542,40.7640482],[-73.9995917,40.7640456],[-73.9999067,40.7641859],[-73.9999632,40.7641664],[-73.9999948,40.7641781],[-73.9999961,40.7641954],[-74.0000484,40.7642156],[-74.0000665,40.7642116],[-74.0000873,40.7642198],[-74.0000913,40.7642355],[-74.0001483,40.7642624],[-74.0001369,40.7642802],[-74.0003602,40.764365],[-74.0004219,40.7643889],[-74.0004326,40.7644056],[-74.0004467,40.7644117],[-74.0004688,40.764398],[-74.0005922,40.7644427],[-74.0005829,40.7644666],[-74.0006344,40.7644869],[-74.0006433,40.7644787],[-74.0007149,40.7645011],[-74.0008289,40.7645448],[-74.0009228,40.7645951],[-74.0010482,40.7646611],[-74.0010864,40.7646525],[-74.0013638,40.764769],[-74.0014724,40.7647954],[-74.0015555,40.7648208],[-74.0015971,40.764833],[-74.0016414,40.7647751],[-74.0018251,40.7648535],[-74.0017761,40.7649203],[-74.001801,40.7649844],[-74.0018178,40.7649913],[-74.0018342,40.7649684],[-74.0018658,40.7649813],[-74.0018494,40.7650042],[-74.0019619,40.7650504],[-74.001976,40.7650331],[-74.0020119,40.7650415],[-74.0020334,40.765041],[-74.0020535,40.7650506],[-74.0020582,40.7650679],[-74.0020897,40.7650806],[-74.0021139,40.7650796],[-74.0021347,40.7650841],[-74.0021454,40.7650948],[-74.002155,40.7651073],[-74.0021389,40.7651296],[-74.0023136,40.7651807],[-74.0021965,40.7654291],[-74.0015505,40.7652609],[-74.0015379,40.7652581],[-74.0015261,40.7652554],[-74.0009099,40.7650744],[-74.000901,40.7650715],[-74.0008898,40.7650679],[-74.0006839,40.7649937],[-74.0006172,40.764946],[-74.0004323,40.7648712],[-74.000468,40.7647822],[-74.0004743,40.7647665],[-74.0004569,40.7647587],[-74.0003445,40.764708],[-74.0003221,40.7646989],[-74.0001032,40.7646004],[-74.000083,40.7645914],[-73.9994014,40.7643074],[-73.9993995,40.764299],[-73.9993844,40.7642783]]]},"id":"way/50603780"},{"type":"Feature","properties":{"@id":"way/109269254","area":"yes","name":"Columbus Circle","name:ja":"コロンバスサークル","name:ko":"콜럼버스 서클","name:ru":"Коламбус-сёркл","tourism":"attraction","wikidata":"Q109968","wikipedia":"en:Columbus Circle"},"geometry":{"type":"Polygon","coordinates":[[[-73.9820431,40.7683463],[-73.9819944,40.7683598],[-73.9819497,40.7683658],[-73.9818961,40.7683688],[-73.9818424,40.7683662],[-73.9817897,40.7683578],[-73.9817391,40.7683441],[-73.9816915,40.7683251],[-73.9816478,40.7683013],[-73.9816089,40.7682731],[-73.9815756,40.7682411],[-73.9815485,40.7682059],[-73.9815282,40.7681682],[-73.9815149,40.7681287],[-73.9815091,40.7680881],[-73.9815107,40.7680474],[-73.9815198,40.7680073],[-73.9815362,40.7679684],[-73.9815596,40.7679317],[-73.9815884,40.7678988],[-73.9816229,40.7678692],[-73.9816623,40.7678434],[-73.981706,40.7678218],[-73.9817531,40.7678048],[-73.9818028,40.7677929],[-73.9818542,40.7677861],[-73.9819063,40.7677846],[-73.9819582,40.7677885],[-73.9820089,40.7677976],[-73.9820575,40.7678118],[-73.9821032,40.7678309],[-73.9821451,40.7678544],[-73.9821823,40.7678821],[-73.9822093,40.7679076],[-73.9822322,40.7679354],[-73.982251,40.7679648],[-73.9822653,40.7679957],[-73.9822749,40.7680276],[-73.9822797,40.7680601],[-73.9822798,40.7680928],[-73.982275,40.7681253],[-73.9822654,40.7681572],[-73.9822512,40.7681881],[-73.9822325,40.7682176],[-73.9822096,40.7682454],[-73.9821827,40.768271],[-73.9821522,40.7682942],[-73.9821185,40.7683146],[-73.9820819,40.7683321],[-73.9820431,40.7683463]]]},"id":"way/109269254"},{"type":"Feature","properties":{"@id":"way/109269297","addr:city":"New York","addr:housenumber":"2","addr:state":"NY","addr:street":"Columbus Circle","building":"yes","building:material":"concrete","building:part":"yes","email":"info@madmuseum.org","gnis:county_name":"New York","gnis:feature_id":"2083274","gnis:reviewed":"no","height":"45","name":"Museum of Arts and Design","nycdoitt:bin":"1024910","opening_hours":"Tu, We, Fr-Su 10:00-18:00; Th 10:00-21:00","phone":"+1 212-299-7777","roof:material":"concrete","roof:shape":"flat","short_name":"MAD","tourism":"museum","website":"https://www.madmuseum.org/","wheelchair":"yes","wikidata":"Q4633310","wikipedia":"en:Museum of Arts and Design"},"geometry":{"type":"Polygon","coordinates":[[[-73.9821056,40.7675022],[-73.9820577,40.7674909],[-73.9820189,40.7674844],[-73.9819587,40.7674801],[-73.9819343,40.7674791],[-73.9818879,40.7674772],[-73.9818292,40.7674787],[-73.9818612,40.7672627],[-73.9821813,40.767401],[-73.9821056,40.7675022]]]},"id":"way/109269297"},{"type":"Feature","properties":{"@id":"way/138141251","addr:city":"New York","addr:housenumber":"4","addr:postcode":"10001","addr:state":"NY","addr:street":"Pennsylvania Plaza","alt_name":"The Garden","building":"yes","ele":"11","gnis:feature_id":"956262","leisure":"stadium","name":"Madison Square Garden","name:en":"Madison Square Garden","name:ja":"マディソン・スクエア・ガーデン","name:ru":"Медисон-сквер-гарден","name:uk":"Медісон-сквер-гарден","name:zh":"麦迪逊广场花园","phone":"12124656741","short_name":"MSG","sport":"multi","start_date":"1968","team":"New York Rangers","team_2":"New York Knicks","tourism":"attraction","website":"http://www.thegarden.com/","wheelchair":"limited","wikidata":"Q186125","wikipedia":"en:Madison Square Garden"},"geometry":{"type":"Polygon","coordinates":[[[-73.9944193,40.750562],[-73.9943679,40.7506336],[-73.9943438,40.7506802],[-73.9943175,40.750728],[-73.9942884,40.7507752],[-73.9942574,40.7508206],[-73.994208,40.7508866],[-73.9941618,40.7509454],[-73.9941161,40.7509943],[-73.9940674,40.7510433],[-73.9940187,40.7511133],[-73.993927,40.7510766],[-73.9938845,40.7510948],[-73.9938683,40.7511008],[-73.9938405,40.7511111],[-73.9937966,40.7511242],[-73.9937781,40.7511293],[-73.9937713,40.7511312],[-73.9937317,40.7511412],[-73.9936802,40.7511518],[-73.9936372,40.7511596],[-73.9936205,40.7511618],[-73.9936021,40.7511643],[-73.9935322,40.7510924],[-73.9934669,40.7510947],[-73.9933748,40.7510909],[-73.993276,40.7510771],[-73.9931809,40.7510539],[-73.9930953,40.7510233],[-73.9930074,40.7509807],[-73.9929368,40.7509357],[-73.9928685,40.7508797],[-73.9928093,40.7508158],[-73.9927794,40.7507748],[-73.9926697,40.7507739],[-73.9926499,40.7507445],[-73.992644,40.7507326],[-73.9926309,40.7507062],[-73.9926292,40.750701],[-73.9926177,40.750667],[-73.9926101,40.750624],[-73.9927027,40.7505755],[-73.9926989,40.7505002],[-73.9925924,40.750499],[-73.9925931,40.7504623],[-73.9926039,40.7504083],[-73.9926503,40.7504139],[-73.9926626,40.7503637],[-73.9926797,40.7503177],[-73.9926967,40.7502851],[-73.9927148,40.7502535],[-73.9927295,40.7502299],[-73.9927467,40.7502061],[-73.9927658,40.750182],[-73.9927885,40.7501567],[-73.9928123,40.7501334],[-73.992839,40.7501084],[-73.9928709,40.7500807],[-73.9929144,40.7500514],[-73.9928862,40.7500254],[-73.9929093,40.7500063],[-73.9929348,40.7499889],[-73.9929785,40.7499658],[-73.9930406,40.7500331],[-73.9930874,40.7500114],[-73.9931313,40.749994],[-73.9931276,40.749915],[-73.9931907,40.7498957],[-73.9931941,40.7498949],[-73.9932285,40.7498872],[-73.9932583,40.7498806],[-73.9933246,40.7498726],[-73.9933898,40.7499393],[-73.9934809,40.7499368],[-73.9935996,40.749946],[-73.9936968,40.7499644],[-73.99379,40.7499923],[-73.9938348,40.7500113],[-73.9938791,40.75003],[-73.9939597,40.7500756],[-73.9940308,40.750128],[-73.9940933,40.7501882],[-73.9941209,40.7502243],[-73.9941512,40.7502639],[-73.9942614,40.7502619],[-73.9942695,40.7502778],[-73.9942876,40.7503206],[-73.9942946,40.7503404],[-73.9943035,40.7503661],[-73.9943125,40.7503989],[-73.9943169,40.7504152],[-73.9943249,40.7504515],[-73.9943289,40.7504783],[-73.9943323,40.7505014],[-73.9943324,40.7505244],[-73.9944193,40.750562]]]},"id":"way/138141251"},{"type":"Feature","properties":{"@id":"way/162755458","addr:city":"New York","addr:housenumber":"25","addr:postcode":"10019","addr:state":"NY","addr:street":"West 52nd Street","building":"yes","building:part":"yes","ele":"21","gnis:feature_id":"2083273","height":"30","name":"Paley Center for Media","nycdoitt:bin":"1076265","start_date":"1990","tourism":"museum","website":"https://www.paleycenter.org/","wikidata":"Q7127465","wikipedia":"en:Paley Center for Media"},"geometry":{"type":"Polygon","coordinates":[[[-73.9777737,40.7604989],[-73.9777466,40.7605352],[-73.9777376,40.7605477],[-73.9776294,40.7606928],[-73.9775911,40.7607441],[-73.9774081,40.7606659],[-73.9774462,40.7606146],[-73.9775634,40.760457],[-73.9775721,40.7604453],[-73.9775905,40.7604207],[-73.9776789,40.7604584],[-73.9777737,40.7604989]]]},"id":"way/162755458"},{"type":"Feature","properties":{"@id":"way/238974585","addr:city":"Long Island City","addr:housenumber":"4-09","addr:postcode":"11109","addr:state":"NY","addr:street":"47th Road","name":"Pepsi-Cola Sign","start_date":"1940","tourism":"attraction","website":"http://s-media.nyc.gov/agencies/lpc/lp/1653.pdf"},"geometry":{"type":"Polygon","coordinates":[[[-73.9575817,40.7476849],[-73.9577904,40.7472593],[-73.9578115,40.7472633],[-73.9575975,40.7476905],[-73.9575817,40.7476849]]]},"id":"way/238974585"},{"type":"Feature","properties":{"@id":"way/241051236","building":"yes","building:colour":"white","height":"4","historic":"memorial","name":"Franklin D. Roosevelt","roof:colour":"white","roof:shape":"flat"},"geometry":{"type":"Polygon","coordinates":[[[-73.9612994,40.7498341],[-73.9612742,40.7498608],[-73.9612375,40.7498409],[-73.9612627,40.7498142],[-73.9612994,40.7498341]]]},"id":"way/241051236"},{"type":"Feature","properties":{"@id":"way/241833272","addr:housenumber":"220","addr:postcode":"10003","addr:street":"East 6th Street","building":"yes","fee":"yes","height":"13.0","name":"The Ukrainian Museum","nycdoitt:bin":"1006616","opening_hours":"\"Temporarily closed\"","tourism":"museum","wikidata":"Q4470591","wikipedia":"en:Ukrainian Museum"},"geometry":{"type":"Polygon","coordinates":[[[-73.9897259,40.7275046],[-73.9898039,40.7275371],[-73.9899607,40.7276024],[-73.9899427,40.7276274],[-73.9899098,40.727673],[-73.9898288,40.7277856],[-73.9898048,40.7278189],[-73.9897714,40.7278137],[-73.9897387,40.7278064],[-73.9897069,40.7277969],[-73.9896764,40.7277854],[-73.9896472,40.727772],[-73.9896196,40.7277568],[-73.9895938,40.7277398],[-73.98957,40.7277212],[-73.9895972,40.7276834],[-73.9896716,40.7275801],[-73.9897084,40.7275289],[-73.9897259,40.7275046]]]},"id":"way/241833272"},{"type":"Feature","properties":{"@id":"way/247838607","addr:city":"New York","addr:housenumber":"29","addr:postcode":"10003","addr:street":"East 4th Street","building":"yes","check_date:opening_hours":"2023-04-05","fee":"yes","height":"19.1","name":"Merchant's House Museum","nycdoitt:bin":"1008785","opening_hours":"Sep-May Th-Su 13:00-17:00; Jun-Aug We-Su 13:00-17:00; PH off","tourism":"museum","website":"https://merchantshouse.org/","wheelchair":"no","wikidata":"Q3306353","wikipedia":"en:Merchant's House Museum"},"geometry":{"type":"Polygon","coordinates":[[[-73.9923274,40.7277406],[-73.992251,40.7277031],[-73.9923603,40.7275745],[-73.9924367,40.7276121],[-73.9924336,40.7276157],[-73.9923274,40.7277406]]]},"id":"way/247838607"},{"type":"Feature","properties":{"@id":"way/248166269","access":"permissive","building":"triumphal_arch","fixme":"OSM thinks this is a building. for accurate representation, a custom geometry must be uploaded to fix this. It is supposed to be an arch. a model can be found here https://www.cgtrader.com/free-3d-models/exterior/historic-exterior/ancient-arc-dbeaa29f-543","height":"20.5","historic":"monument","name":"Washington Square Arch","name:fr":"Arche du square Washington","nycdoitt:bin":"1088400","start_date":"1892","tourism":"attraction","wikidata":"Q2550491","wikipedia":"en:Washington Square Arch"},"geometry":{"type":"Polygon","coordinates":[[[-73.9970291,40.7311612],[-73.9972221,40.7312557],[-73.9971764,40.7313098],[-73.9969834,40.7312153],[-73.9970291,40.7311612]]]},"id":"way/248166269"},{"type":"Feature","properties":{"@id":"way/249664614","addr:city":"New York","addr:housenumber":"278","addr:postcode":"10013","addr:state":"NY","addr:street":"Spring Street","alt_name":"Museo de los Bomberos","building":"yes","ele":"5","gnis:feature_id":"2082957","height":"18.9","name":"New York City Fire Museum","nycdoitt:bin":"1009739","opening_hours":"10:00-17:00","tourism":"museum","website":"http://www.nycfiremuseum.org/","wheelchair":"yes","wikidata":"Q510422","wikipedia":"en:New York City Fire Museum"},"geometry":{"type":"Polygon","coordinates":[[[-74.0068188,40.7254709],[-74.0069737,40.7254862],[-74.0069797,40.7254515],[-74.0070871,40.7254624],[-74.0070837,40.7254813],[-74.0070756,40.7255276],[-74.0070464,40.7256996],[-74.0067838,40.7256742],[-74.0068188,40.7254709]]]},"id":"way/249664614"},{"type":"Feature","properties":{"@id":"way/263202827","building":"ship","heritage":"2","heritage:operator":"nrhp","heritage:website":"https://www.nps.gov/subjects/nationalregister/index.htm","historic":"ship","name":"Fireboat John J. Harvey","nrhp:criteria":"A, C","nrhp:inscription_date":"2000-06-15","protection_title":"Pier 66 Maritime","ref:nrhp":"00000576","ship:type":"fireboat","source_ref":"https://catalog.archives.gov/id/75319656","start_date":"1931","tourism":"attraction","website":"http://www.fireboat.org/","wikidata":"Q6241091","wikipedia":"en:John J. Harvey"},"geometry":{"type":"Polygon","coordinates":[[[-74.0100157,40.7524125],[-74.0099664,40.7524127],[-74.0099128,40.7524097],[-74.0098623,40.752396],[-74.0097751,40.7523664],[-74.0096843,40.7523265],[-74.0096173,40.7522911],[-74.0095971,40.7522731],[-74.009591,40.7522626],[-74.0095937,40.7522535],[-74.0096018,40.7522476],[-74.0096165,40.752245],[-74.0096476,40.7522463],[-74.0097253,40.7522653],[-74.0098221,40.752296],[-74.0099059,40.7523307],[-74.0099509,40.752353],[-74.0099865,40.7523835],[-74.0100157,40.7524125]]]},"id":"way/263202827"},{"type":"Feature","properties":{"@id":"way/263202828","building":"ship","heritage":"2","heritage:operator":"nrhp","heritage:website":"https://www.nps.gov/subjects/nationalregister/index.htm","historic":"ship","name":"Lightship Frying Pan","nrhp:criteria":"C","nrhp:inscription_date":"1999-01-28","protection_title":"Pier 66 Maritime","ref":"LV-115","ref:nrhp":"98001615","ship:type":"lightship","source_ref":"Source","start_date":"1929","tourism":"attraction","website":"http://www.fryingpan.com/","wikidata":"Q588285","wikipedia":"en:United States lightship Frying Pan (LV-115)"},"geometry":{"type":"Polygon","coordinates":[[[-74.0090792,40.7520006],[-74.0090822,40.7519984],[-74.0090936,40.7519936],[-74.0091177,40.7519935],[-74.0091499,40.7520002],[-74.0092184,40.7520236],[-74.0093242,40.7520751],[-74.0094327,40.7521431],[-74.0094572,40.7521618],[-74.0094704,40.7521839],[-74.009477,40.7522077],[-74.0094442,40.752211],[-74.0094122,40.7522097],[-74.0093802,40.7521992],[-74.0093358,40.7521804],[-74.0092574,40.7521472],[-74.0092015,40.7521165],[-74.0091556,40.7520912],[-74.009102,40.7520513],[-74.0090821,40.752031],[-74.0090735,40.752014],[-74.0090752,40.752006],[-74.0090792,40.7520006]]]},"id":"way/263202828"},{"type":"Feature","properties":{"@id":"way/264768896","addr:city":"New York","addr:housename":"Flatiron","addr:housenumber":"175","addr:postcode":"10010","addr:state":"NY","addr:street":"5th Avenue","architect":"Daniel H. Burnham","architect:wikipedia":"Daniel H. Burnham","building":"office","building:colour":"#CBC7AC","building:levels":"21","designation":"Office building","height":"86","name":"Flatiron Building","name:en":"Flatiron Building","name:es":"Edificio Flatiron","name:fa":"ساختمان فلاتایرون","name:he":"בניין פלאטאיירון","name:hi":"फ्लाटिरोन बिल्डिंग","name:ko":"플랫아이언 빌딩","name:ru":"Флэтайрон-билдинг","nycdoitt:bin":"1016278","old_name":"Fuller Building","ref:nrhp":"79001603","roof:colour":"light_gray","roof:shape":"flat","start_date":"1902","tourism":"attraction","website":"https://theflatironbuilding.com/","wikidata":"Q220728","wikipedia":"en:Flatiron Building"},"geometry":{"type":"Polygon","coordinates":[[[-73.9896051,40.7407597],[-73.9896147,40.7407617],[-73.989616,40.7407622],[-73.9896191,40.7407635],[-73.9896342,40.74077],[-73.9898548,40.7408641],[-73.9898591,40.740867],[-73.989866,40.7408739],[-73.9898703,40.7408821],[-73.9898715,40.7408907],[-73.9898697,40.7408994],[-73.989865,40.7409073],[-73.9897246,40.7410978],[-73.9896634,40.7411808],[-73.9896415,40.7412105],[-73.9895841,40.7412883],[-73.9895751,40.7412942],[-73.9895644,40.7412983],[-73.9895586,40.7412995],[-73.9895467,40.7413004],[-73.9895349,40.7412989],[-73.9895293,40.7412974],[-73.989519,40.7412928],[-73.9895144,40.7412898],[-73.989507,40.7412827],[-73.9895014,40.7412649],[-73.9895356,40.7410206],[-73.9895699,40.7407764],[-73.9895745,40.7407697],[-73.9895815,40.7407645],[-73.9895903,40.740761],[-73.9895978,40.7407596],[-73.9896051,40.7407597]]]},"id":"way/264768896"},{"type":"Feature","properties":{"@id":"way/265302076","addr:city":"New York","addr:housenumber":"476","addr:postcode":"10018","addr:state":"NY","addr:street":"5th Avenue","alt_name":"The Humanities and Social Sciences Library;Stephen A. Schwarzman Building","amenity":"library","architect":"Carrère and Hastings","building":"library","building:colour":"#DFDAC7","check_date":"2023-04-06","ele":"21","gnis:feature_id":"2083155","gnis:reviewed":"no","heritage":"2","heritage:operator":"nrhp","internet_access":"wlan","internet_access:ssid":"NYPL","name":"New York Public Library","name:ast":"Biblioteca Pública de Nueva York","name:es":"Biblioteca Pública de Nueva York","name:ko":"뉴욕 공립도서관","name:ru":"Нью-Йоркская публичная библиотека","name:tr":"New York Halk Kütüphanesi","name:uk":"Нью-Йоркська публічна бібліотека","name:zh":"紐約圖書館","nrhp:inscription_date":"1966-10-15","nrhp:nhl":"yes","nycdoitt:bin":"1034194","opening_hours":"Mo,Th 08:00-20:00; Tu,We 08:00-21:00; Fr 08:00-18:00; Sa 10:00-18:00; Su 10:00-17:00","operator":"New York Public Library","operator:short":"NYPL","operator:type":"public","operator:website":"https://www.nypl.org/","operator:wikidata":"Q219555","operator:wikipedia":"en:New York Public Library","ref:nrhp":"66000546","start_date":"1911-05-23","tourism":"attraction","website":"https://www.nypl.org/locations/schwarzman","wheelchair":"yes","wikidata":"Q7013887","wikipedia":"en:New York Public Library Main Branch"},"geometry":{"type":"Polygon","coordinates":[[[-73.9819696,40.7536841],[-73.9819656,40.7536896],[-73.9819051,40.7536644],[-73.9818442,40.7536392],[-73.9818482,40.7536337],[-73.9815082,40.7534906],[-73.9817211,40.7531984],[-73.9817606,40.7531446],[-73.9816942,40.7531158],[-73.9818541,40.7528973],[-73.9819179,40.7529241],[-73.9819668,40.752858],[-73.982157,40.7525994],[-73.9825202,40.7527526],[-73.9826105,40.7527907],[-73.9829827,40.752948],[-73.9829495,40.7529913],[-73.9829481,40.752993],[-73.9829564,40.7529964],[-73.9828968,40.753078],[-73.9828865,40.7530737],[-73.9824544,40.7536694],[-73.9824614,40.7536727],[-73.9824021,40.7537539],[-73.9823952,40.7537509],[-73.9823919,40.7537554],[-73.9823315,40.7538369],[-73.9819696,40.7536841]]]},"id":"way/265302076"},{"type":"Feature","properties":{"@id":"way/265357846","addr:city":"New York","addr:housenumber":"86","addr:postcode":"10036","addr:state":"NY","addr:street":"West 46th Street","air_conditioning":"yes","alt_name":"Intrepid Sea, Air & Space Museum","building":"yes","building:colour":"#DBDFC6","building:levels":"2","check_date":"2022-08-20","description":"Museum of Marine, Aircraft and Space","height":"11.5","internet_access":"wlan","internet_access:fee":"no","name":"Intrepid Museum","name:es":"Museo Intrepid-Spacemuseum","nycdoitt:bin":"1089013","official_name":"Intrepid Sea, Air & Space Museum","opening_hours":"Mo-Su 10:00-17:00","payment:mastercard":"yes","payment:visa":"yes","roof:colour":"#3C4E50","roof:shape":"flat","start_date":"1982","tourism":"museum","website":"https://www.intrepidmuseum.org/","wheelchair":"yes","wikidata":"Q952270","wikipedia":"en:Intrepid Sea, Air & Space Museum"},"geometry":{"type":"Polygon","coordinates":[[[-73.9993064,40.7643941],[-73.999366,40.7644188],[-73.999406,40.7643635],[-73.999425,40.7643374],[-73.9998286,40.7645051],[-73.9996984,40.7646848],[-73.9996857,40.7647023],[-73.9992226,40.7645099],[-73.9992798,40.7644309],[-73.9993064,40.7643941]]]},"id":"way/265357846"},{"type":"Feature","properties":{"@id":"way/265947358","addr:city":"New York","addr:housenumber":"89","addr:state":"NY","addr:street":"East 42nd Street","building":"train_station","ele":"18","gnis:feature_id":"951479","height":"45.8","loc_name":"Grand Central Station","name":"Grand Central Terminal","name:de":"Hauptbahnhof New York City (Grand Central)","name:ja":"グランド・セントラル駅","name:ko":"그랜드 센트럴 터미널","name:ru":"Центральный вокзал Нью-Йорка","name:zh":"中央车站","nycdoitt:bin":"1035381","opening_hours":"Mo-Su 05:30-02:00","operator":"Metropolitan Transportation Authority","short_name":"GCT","start_date":"1913","toilets:wheelchair":"yes","tourism":"attraction","website":"https://www.grandcentralterminal.com/","wheelchair":"yes","wikidata":"Q11290","wikipedia":"en:Grand Central Terminal"},"geometry":{"type":"Polygon","coordinates":[[[-73.9775875,40.7522599],[-73.9775991,40.7522646],[-73.9780876,40.7524633],[-73.9781158,40.7524755],[-73.9781623,40.7524952],[-73.9781668,40.7524973],[-73.9781702,40.7524994],[-73.9781737,40.752502],[-73.9781768,40.7525048],[-73.9781798,40.7525078],[-73.9781822,40.7525113],[-73.9781842,40.7525145],[-73.9781857,40.7525176],[-73.9781869,40.7525211],[-73.9781876,40.7525246],[-73.9781878,40.7525287],[-73.9781872,40.7525327],[-73.9781863,40.7525362],[-73.9781851,40.7525396],[-73.9781832,40.7525429],[-73.9781811,40.7525464],[-73.9781521,40.7525854],[-73.9781396,40.7526022],[-73.9775814,40.7533137],[-73.9773935,40.7532342],[-73.9772638,40.7531781],[-73.9767238,40.7529507],[-73.9765768,40.7528885],[-73.9763618,40.7527967],[-73.9765184,40.7525855],[-73.9765934,40.7524757],[-73.9769535,40.751981],[-73.9775875,40.7522599]]]},"id":"way/265947358"},{"type":"Feature","properties":{"@id":"way/266199252","addr:city":"New York","addr:housenumber":"421","addr:postcode":"10065","addr:state":"NY","addr:street":"East 61st Street","building":"yes","ele":"10","gnis:feature_id":"2083580","gnis:reviewed":"no","name":"Mount Vernon Hotel Museum","nycdoitt:bin":"1045284","old_name":"Abigail Adams Smith Museum","ref:nrhp":"73001223","start_date":"1799","tourism":"museum","website":"https://mvhm.org/","wikidata":"Q6924383","wikipedia":"en:Mount Vernon Hotel Museum"},"geometry":{"type":"Polygon","coordinates":[[[-73.9596616,40.76042],[-73.9597261,40.7604578],[-73.9597907,40.7604956],[-73.9598552,40.7605334],[-73.959764,40.7606234],[-73.9596995,40.7605856],[-73.9596349,40.7605478],[-73.9595704,40.76051],[-73.9596616,40.76042]]]},"id":"way/266199252"},{"type":"Feature","properties":{"@id":"way/266774911","addr:city":"New York","addr:full":"42nd Street Between 7th Avenue and Broadway","addr:postcode":"10036","addr:state":"NY","building:material":"metal","building:part":"yes","description":"The famous New Years Ball, as of 2020 the sixth ball is being used, sits atop this building year round.","height":"133.6","min_height":"110.6","name":"Times Square Ball","roof:material":"metal","roof:shape":"flat","start_date":"1907","tourism":"attraction","wikidata":"Q1058395","wikipedia":"en:Times Square Ball"},"geometry":{"type":"Polygon","coordinates":[[[-73.9865786,40.7561362],[-73.9865754,40.7561362],[-73.9865728,40.7561352],[-73.9865711,40.7561333],[-73.9865711,40.7561308],[-73.9865732,40.7561286],[-73.9865771,40.7561278],[-73.98658,40.7561287],[-73.9865821,40.7561315],[-73.9865813,40.7561343],[-73.9865786,40.7561362]]]},"id":"way/266774911"},{"type":"Feature","properties":{"@id":"way/266887857","addr:city":"New York","addr:postcode":"10021","addr:state":"NY","building":"yes","ele":"23","gnis:feature_id":"2083526","height":"36.0","name":"Asia Society","nycdoitt:bin":"1042714","opening_hours":"Tu-Su 11:00-18:00","tourism":"museum","website":"http://www.asiasociety.org/","wikidata":"Q842828","wikipedia":"en:Asia Society"},"geometry":{"type":"Polygon","coordinates":[[[-73.9642463,40.7696636],[-73.9645069,40.7697719],[-73.9643335,40.7700133],[-73.9640756,40.7699062],[-73.9641801,40.7697608],[-73.9641773,40.7697596],[-73.9642463,40.7696636]]]},"id":"way/266887857"},{"type":"Feature","properties":{"@id":"way/278353405","addr:city":"New York","addr:housename":"Pier 83","addr:postcode":"10036","addr:state":"NY","addr:street":"West 42nd Street","alt_name":"Circle Line Sightseeing Cruises","building":"commercial","height":"9.6","layer":"1","name":"Circle Line","nycdoitt:bin":"1027181","phone":"+1-212-563-3200","tourism":"attraction","website":"https://www.circleline.com","wikipedia":"en:Circle Line Sightseeing Cruises"},"geometry":{"type":"Polygon","coordinates":[[[-74.0014898,40.7626308],[-74.0016671,40.762705],[-74.0015963,40.7628017],[-74.0015256,40.7628983],[-74.0013485,40.762824],[-74.0014192,40.7627274],[-74.0014898,40.7626308]]]},"id":"way/278353405"},{"type":"Feature","properties":{"@id":"way/280571506","building":"yes","height":"19.5","name":"Museum of the Moving Image","nycdoitt:bin":"4439074","tourism":"museum"},"geometry":{"type":"Polygon","coordinates":[[[-73.9237234,40.7560175],[-73.9243328,40.7563023],[-73.9242077,40.7564571],[-73.9241133,40.7565738],[-73.9240875,40.7565766],[-73.9240298,40.7565586],[-73.9235568,40.7563376],[-73.923513,40.7563057],[-73.9235064,40.756294],[-73.9235283,40.7562589],[-73.9235831,40.7561911],[-73.9237234,40.7560175]]]},"id":"way/280571506"},{"type":"Feature","properties":{"@id":"way/284880674","addr:housenumber":"500","addr:postcode":"10044","addr:street":"Main Street","building":"yes","height":"10.6","historic":"yes","name":"Blackwell House","nycdoitt:bin":"1083198","tourism":"attraction","wikidata":"Q4923596","wikipedia":"en:Blackwell House"},"geometry":{"type":"Polygon","coordinates":[[[-73.9511064,40.7602659],[-73.9511541,40.7602904],[-73.9511916,40.7602483],[-73.9512506,40.7602786],[-73.9511595,40.7603807],[-73.9511232,40.7604213],[-73.9510165,40.7603666],[-73.9511064,40.7602659]]]},"id":"way/284880674"},{"type":"Feature","properties":{"@id":"way/288749896","addr:city":"New York","addr:housenumber":"99","addr:postcode":"10014","addr:state":"NY","addr:street":"Gansevoort Street","building":"yes","fee":"yes","fee:conditional":"donation @ Fr 19:00-22:00","museum":"art","name":"Whitney Museum of American Art","name:es":"Museo de Arte America Whitney","name:ja":"ホイットニー美術館","name:ru":"Музей американского искусства Уитни","opening_hours":"We-Th, Sa-Mo 10:30-18:00; Fr 10:30-22:00","phone":"+1-212-570-3600","short_name":"The Whitney","tourism":"museum","website":"https://www.whitney.org/","wikidata":"Q639791","wikipedia":"en:Whitney Museum of American Art"},"geometry":{"type":"Polygon","coordinates":[[[-74.0084766,40.739445],[-74.0094548,40.7394784],[-74.0094467,40.7396126],[-74.0092604,40.7398208],[-74.0091016,40.7398125],[-74.0088632,40.7398008],[-74.0088615,40.739821],[-74.0087638,40.7398163],[-74.0087437,40.7398119],[-74.0087549,40.7396843],[-74.0086176,40.7396773],[-74.0084222,40.7396694],[-74.0084264,40.7396192],[-74.0084636,40.7396207],[-74.0084766,40.739445]]]},"id":"way/288749896"},{"type":"Feature","properties":{"@id":"way/319773436","access":"yes","artist_name":"Antonin Jean Carles","building":"yes","height":"12.1","historic":"monument","material":"granite","name":"James Gordon Bennett Monument"},"geometry":{"type":"Polygon","coordinates":[[[-73.9876227,40.7504237],[-73.9875585,40.7504071],[-73.9875714,40.7503784],[-73.9875837,40.7503816],[-73.9875881,40.7503719],[-73.9876263,40.7503817],[-73.9876221,40.7503911],[-73.9876358,40.7503946],[-73.9876227,40.7504237]]]},"id":"way/319773436"},{"type":"Feature","properties":{"@id":"way/328674680","building":"yes","historic":"castle","name":"Gate House","operator":"Stevens Institute of Technology","wheelchair":"no"},"geometry":{"type":"Polygon","coordinates":[[[-74.0261331,40.7430248],[-74.0261501,40.7430168],[-74.0261544,40.7430148],[-74.0261737,40.743021],[-74.026183,40.7430364],[-74.0261749,40.743053],[-74.0261545,40.7430608],[-74.0261319,40.7430552],[-74.0261239,40.7430415],[-74.0261129,40.7430452],[-74.0261092,40.7430549],[-74.026094,40.74306],[-74.0260459,40.7430456],[-74.0260331,40.7430702],[-74.0259754,40.7430529],[-74.0260094,40.7429878],[-74.0261161,40.7430197],[-74.0261331,40.7430248]]]},"id":"way/328674680"},{"type":"Feature","properties":{"@id":"way/370574294","addr:state":"NY","amenity":"arts_centre","ele":"4","gnis:county_name":"Queens","gnis:feature_id":"2079338","gnis:import_uuid":"57871b70-0100-4405-bb30-88b2e001a944","gnis:reviewed":"no","name":"MoMA PS1","name:ko":"모마 PS1","old_name":"Public School 1 Contemporary Arts Center","source":"USGS Geonames","tourism":"museum","website":"https://momaps1.org/","wikidata":"Q1139848","wikipedia":"en:MoMA PS1"},"geometry":{"type":"Polygon","coordinates":[[[-73.9475525,40.7452177],[-73.9481439,40.7453429],[-73.9479561,40.7458849],[-73.9468446,40.7456668],[-73.9469005,40.7454977],[-73.9475525,40.7452177]]]},"id":"way/370574294"},{"type":"Feature","properties":{"@id":"way/383689939","addr:city":"Long Island City","addr:housenumber":"9-01","addr:postcode":"11106","addr:street":"33rd Road","name":"The Noguchi Museum","opening_hours":"Mo-Tu off; We-Fr 10:00-17:00; Sa-Su 10:00-18:00","tourism":"museum","website":"https://www.noguchi.org/","wikidata":"Q836080","wikipedia":"en:Noguchi Museum"},"geometry":{"type":"Polygon","coordinates":[[[-73.9382247,40.7668348],[-73.9373287,40.7671561],[-73.9373221,40.7671453],[-73.9376791,40.7665588],[-73.9381836,40.766751],[-73.9382581,40.766779],[-73.9382247,40.7668348]]]},"id":"way/383689939"},{"type":"Feature","properties":{"@id":"way/471550476","building":"roof","historic":"memorial","memorial":"building","name":"New York City AIDS Memorial"},"geometry":{"type":"Polygon","coordinates":[[[-74.0015298,40.7375141],[-74.001293,40.7374111],[-74.0014202,40.7373268],[-74.0015298,40.7375141]]]},"id":"way/471550476"},{"type":"Feature","properties":{"@id":"way/546663191","layer":"1","man_made":"bridge","name":"Gapstow Bridge","tourism":"attraction","website":"https://www.centralparknyc.org/locations/gapstow-bridge","wikidata":"Q5521797"},"geometry":{"type":"Polygon","coordinates":[[[-73.9736955,40.7669501],[-73.9739316,40.7668564],[-73.9739491,40.7668817],[-73.9739659,40.7669065],[-73.9737287,40.7669986],[-73.9737118,40.7669736],[-73.9736955,40.7669501]]]},"id":"way/546663191"},{"type":"Feature","properties":{"@id":"way/576178058","building":"yes","historic":"monument","name":"Samuel Sullivan Cox","wikidata":"Q28563370"},"geometry":{"type":"Polygon","coordinates":[[[-73.9831423,40.7260635],[-73.9831217,40.7260555],[-73.9831331,40.7260387],[-73.9831537,40.7260468],[-73.9831423,40.7260635]]]},"id":"way/576178058"},{"type":"Feature","properties":{"@id":"way/576185021","artist_name":"Gertrude Vanderbilt Whitney","artwork_type":"statue","building":"yes","height":"3","historic":"memorial","name":"Peter Stuyvesant","wheelchair":"yes"},"geometry":{"type":"Polygon","coordinates":[[[-73.9843179,40.734019],[-73.9842961,40.7340416],[-73.9842792,40.7340323],[-73.9843011,40.7340096],[-73.9843179,40.734019]]]},"id":"way/576185021"},{"type":"Feature","properties":{"@id":"way/585788256","alt_name":"Michael Friedsam Memorial Carousel","building":"yes","height":"8.2","leisure":"park","name":"Central Park Carousel","nycdoitt:bin":"1083826","roof:colour":"grey","tourism":"attraction","website":"https://www.centralparknyc.org/locations/carousel","website:alternate":"https://www.nycgovparks.org/parks/central-park/highlights/12390","wikidata":"Q5061605","wikipedia":"en:Central Park Carousel"},"geometry":{"type":"Polygon","coordinates":[[[-73.9751861,40.7698465],[-73.9752995,40.7698433],[-73.9753743,40.7698958],[-73.9753788,40.7699818],[-73.975309,40.7700388],[-73.9751956,40.770042],[-73.9751208,40.7699895],[-73.9751163,40.7699035],[-73.9751861,40.7698465]]]},"id":"way/585788256"},{"type":"Feature","properties":{"@id":"way/586476446","addr:housenumber":"234","addr:postcode":"10036","addr:state":"NY","addr:street":"West 42nd Street","name":"Madame Tussauds New York","tourism":"museum","website":"https://www.madametussauds.com/new-york/","wheelchair":"limited","wikidata":"Q21903395","wikipedia":"en:Madame Tussauds New York"},"geometry":{"type":"Polygon","coordinates":[[[-73.9884976,40.75638],[-73.9884088,40.7565067],[-73.988299,40.7564611],[-73.9882212,40.7564286],[-73.9881728,40.7564088],[-73.9881443,40.756396],[-73.98817,40.7563603],[-73.9881802,40.7563462],[-73.9882696,40.7562222],[-73.988303,40.756176],[-73.9884898,40.7559168],[-73.9887566,40.7560313],[-73.9886739,40.7561457],[-73.9886392,40.7561313],[-73.9885848,40.7562065],[-73.9886143,40.7562187],[-73.9884976,40.75638]]]},"id":"way/586476446"},{"type":"Feature","properties":{"@id":"way/591988949","addr:housenumber":"234","addr:postcode":"10036","addr:state":"NY","addr:street":"West 42nd Street","contact:facebook":"https://www.facebook.com/RipleysNY","contact:instagram":"https://www.instagram.com/ripleysny/","contact:twitter":"https://twitter.com/RipleysNY","email":"fun@ripleysny.com","name":"Ripley's Believe It or Not!","opening_hours":"Mo-Su 09:00-01:00","phone":"+1-212-398-3133","tourism":"attraction","website":"https://ripleysnewyork.com"},"geometry":{"type":"Polygon","coordinates":[[[-73.988518,40.756552],[-73.9884663,40.7565305],[-73.9884088,40.7565067],[-73.9884976,40.75638],[-73.9886069,40.7564253],[-73.988518,40.756552]]]},"id":"way/591988949"},{"type":"Feature","properties":{"@id":"way/608947452","access":"yes","artist_name":"Gaetano Russo","building":"yes","building:material":"concrete","building:part":"yes","height":"0.5;25","historic":"monument","material":"granite","name":"Christopher Columbus Monument","name:kn":"ಕ್ರಿಸ್ಟೊಫರ್ ಕೊಲಂಬಸ್","name:ru":"Христофору Колумбу","roof:material":"concrete","roof:shape":"flat","wheelchair":"yes","wikidata":"Q86518088","wikipedia":"en:Columbus Monument (New York City)"},"geometry":{"type":"Polygon","coordinates":[[[-73.9819363,40.7681182],[-73.9818993,40.7681268],[-73.9818298,40.7680965],[-73.9818222,40.7680678],[-73.9818593,40.7680197],[-73.9818953,40.7680101],[-73.9819648,40.7680403],[-73.9819734,40.7680701],[-73.9819363,40.7681182]]]},"id":"way/608947452"},{"type":"Feature","properties":{"@id":"way/608965023","access":"yes","historic":"monument","name":"USS Maine Monument","name:ru":"Памятник броненосцу «Мэн»","start_date":"1913-05-30","website":"https://www.nycgovparks.org/parks/central-park/monuments/966","website:alternate":"https://www.centralparknyc.org/locations/maine-monument","wikidata":"Q17198579","wikipedia":"en:USS Maine National Monument"},"geometry":{"type":"Polygon","coordinates":[[[-73.981018,40.7682623],[-73.9810034,40.7682648],[-73.9810087,40.768283],[-73.9809709,40.7682894],[-73.9809665,40.7682745],[-73.9809434,40.7682784],[-73.9809311,40.7682369],[-73.98095,40.7682336],[-73.9809432,40.7682107],[-73.9809835,40.7682038],[-73.9809884,40.7682202],[-73.9810038,40.7682175],[-73.9810044,40.7682194],[-73.981007,40.7682293],[-73.9810405,40.7682242],[-73.9810709,40.7682307],[-73.981046,40.7682466],[-73.9810148,40.7682523],[-73.9810174,40.7682603],[-73.981018,40.7682623]]]},"id":"way/608965023"},{"type":"Feature","properties":{"@id":"way/665241356","artist_name":"Alexander Doyle","artwork_subject":"Horace Greeley","historic":"monument","name":"Horace Greely Statue","start_date":"1894","website":"https://www.nycgovparks.org/parks/greeley-square-park/monuments/635"},"geometry":{"type":"Polygon","coordinates":[[[-73.9883384,40.7485863],[-73.988352,40.7485619],[-73.9883794,40.7485706],[-73.9883657,40.7485951],[-73.9883384,40.7485863]]]},"id":"way/665241356"},{"type":"Feature","properties":{"@id":"way/702073747","historic":"monument"},"geometry":{"type":"Polygon","coordinates":[[[-73.9816915,40.7531138],[-73.9816576,40.7530996],[-73.9816645,40.7530901],[-73.9816791,40.7530963],[-73.9816984,40.7531044],[-73.9816915,40.7531138]]]},"id":"way/702073747"},{"type":"Feature","properties":{"@id":"way/702073748","historic":"monument"},"geometry":{"type":"Polygon","coordinates":[[[-73.9818327,40.752922],[-73.9818135,40.752914],[-73.9817988,40.7529078],[-73.9818057,40.7528983],[-73.9818396,40.7529126],[-73.9818327,40.752922]]]},"id":"way/702073748"},{"type":"Feature","properties":{"@id":"way/702073753","historic":"monument"},"geometry":{"type":"Polygon","coordinates":[[[-73.983757,40.7533624],[-73.9837807,40.7533723],[-73.9837559,40.753406],[-73.9837323,40.7533959],[-73.983757,40.7533624]]]},"id":"way/702073753"},{"type":"Feature","properties":{"@id":"way/702073754","historic":"monument"},"geometry":{"type":"Polygon","coordinates":[[[-73.9832569,40.7540661],[-73.9832806,40.7540761],[-73.9832558,40.7541097],[-73.9832323,40.7540997],[-73.9832569,40.7540661]]]},"id":"way/702073754"},{"type":"Feature","properties":{"@id":"way/702073761","historic":"monument"},"geometry":{"type":"Polygon","coordinates":[[[-73.9819554,40.7525567],[-73.9819396,40.7525783],[-73.9819123,40.7525668],[-73.9819281,40.7525452],[-73.9819554,40.7525567]]]},"id":"way/702073761"},{"type":"Feature","properties":{"@id":"way/702073762","historic":"monument"},"geometry":{"type":"Polygon","coordinates":[[[-73.9813477,40.7533909],[-73.9813204,40.7533794],[-73.9813362,40.7533578],[-73.9813635,40.7533693],[-73.9813477,40.7533909]]]},"id":"way/702073762"},{"type":"Feature","properties":{"@id":"way/702073813","historic":"monument"},"geometry":{"type":"Polygon","coordinates":[[[-73.981516,40.753078],[-73.9814526,40.7530514],[-73.9814645,40.7530352],[-73.9814705,40.7530377],[-73.9815279,40.7530618],[-73.981516,40.753078]]]},"id":"way/702073813"},{"type":"Feature","properties":{"@id":"way/702073815","historic":"monument"},"geometry":{"type":"Polygon","coordinates":[[[-73.9816856,40.7528463],[-73.981628,40.7528221],[-73.9816222,40.7528197],[-73.9816341,40.7528035],[-73.9816974,40.7528301],[-73.9816856,40.7528463]]]},"id":"way/702073815"},{"type":"Feature","properties":{"@id":"way/702472511","addr:city":"New York","addr:housenumber":"45","addr:postcode":"10111","addr:state":"NY","addr:street":"Rockefeller Plaza","historic":"yes","landuse":"commercial","name":"Rockefeller Center","name:en":"Rockefeller Center","name:ja":"ロックフェラー・センター","name:ko":"록펠러 센터","name:ru":"Рокфеллер-Центр","phone":"+1 212-332-6868","ref:nrhp":"87002591","tourism":"attraction","website":"https://www.rockefellercenter.com/","wheelchair":"yes","wikidata":"Q11277","wikipedia":"en:Rockefeller Center"},"geometry":{"type":"Polygon","coordinates":[[[-73.9794304,40.7578979],[-73.9814092,40.758738],[-73.9814897,40.7586313],[-73.9818397,40.7581559],[-73.9818491,40.7581437],[-73.9818813,40.7581274],[-73.9819175,40.7581295],[-73.9833055,40.7587197],[-73.9832848,40.7587415],[-73.9832781,40.7587508],[-73.9831449,40.7589321],[-73.9830778,40.7589032],[-73.9830434,40.7589504],[-73.9829502,40.7590771],[-73.9828726,40.7591848],[-73.982869,40.7591913],[-73.9827839,40.759317],[-73.9831701,40.7594821],[-73.983004,40.7597089],[-73.9828041,40.7599823],[-73.9827731,40.7600179],[-73.9828388,40.7600464],[-73.9827477,40.7601674],[-73.9827194,40.7602064],[-73.9827113,40.760203],[-73.9825734,40.7603929],[-73.9825551,40.7603852],[-73.9824121,40.7605821],[-73.9824399,40.7605937],[-73.9824107,40.7606339],[-73.9823782,40.7606731],[-73.9818974,40.7604715],[-73.9818212,40.760576],[-73.9814701,40.7610544],[-73.9814253,40.761113],[-73.9801801,40.7605903],[-73.9801922,40.7605715],[-73.9798522,40.7604273],[-73.9796101,40.7603196],[-73.9795927,40.760343],[-73.9784172,40.7598493],[-73.9783494,40.7599395],[-73.9783117,40.7599902],[-73.9782681,40.7600495],[-73.9782115,40.7601264],[-73.9781683,40.7601851],[-73.9780853,40.760298],[-73.9780372,40.7603633],[-73.9780038,40.760408],[-73.9779693,40.7604466],[-73.977111,40.760085],[-73.9771377,40.7600481],[-73.9771678,40.760007],[-73.9772994,40.7598273],[-73.9773133,40.7598083],[-73.9773017,40.7598034],[-73.9774741,40.7595669],[-73.9775603,40.7594562],[-73.9769487,40.7591981],[-73.9769045,40.7591799],[-73.976887,40.7591677],[-73.9768817,40.7591463],[-73.9768897,40.7591311],[-73.9773779,40.7584728],[-73.9774764,40.7583358],[-73.9775754,40.7581982],[-73.9776863,40.7580441],[-73.9777185,40.7580177],[-73.9777493,40.7580106],[-73.9777903,40.7580208],[-73.9782972,40.7582356],[-73.9783841,40.7581161],[-73.9785596,40.7578746],[-73.978371,40.7577954],[-73.9780507,40.7576609],[-73.97798,40.7576312],[-73.9781611,40.7573884],[-73.9781812,40.7573798],[-73.9782073,40.7573803],[-73.9782402,40.757395],[-73.9782603,40.7573666],[-73.9792373,40.7577851],[-73.979246,40.7578039],[-73.97924,40.7578176],[-73.9794304,40.7578979]]]},"id":"way/702472511"},{"type":"Feature","properties":{"@id":"way/702492597","landuse":"commercial","name":"Diamond District","name:en":"Diamond District","name:ru":"Дайамонд","place":"neighbourhood","tourism":"attraction","wikidata":"Q1208691"},"geometry":{"type":"Polygon","coordinates":[[[-73.9814457,40.7582032],[-73.9814304,40.7581968],[-73.9814103,40.7581884],[-73.981372,40.7581724],[-73.9813258,40.758153],[-73.9813118,40.7581471],[-73.9812667,40.7581283],[-73.9812005,40.7581005],[-73.9811775,40.7581322],[-73.9811603,40.7581559],[-73.9810963,40.758129],[-73.9810757,40.7581204],[-73.9809884,40.7580837],[-73.980963,40.7580731],[-73.9808513,40.7580262],[-73.9808279,40.7580164],[-73.9807639,40.7579895],[-73.9807221,40.757972],[-73.9806841,40.7579561],[-73.9806761,40.7579527],[-73.9806274,40.7579323],[-73.9806152,40.7579272],[-73.9805568,40.7579027],[-73.9803242,40.7578051],[-73.9801722,40.7577413],[-73.9800875,40.7577058],[-73.9800727,40.7576996],[-73.9800083,40.7576725],[-73.9799929,40.7576661],[-73.9799406,40.7576441],[-73.9798697,40.7576163],[-73.9797964,40.7575855],[-73.979786,40.7575812],[-73.9797335,40.7575591],[-73.9797025,40.7575461],[-73.9796864,40.7575394],[-73.9796875,40.7575379],[-73.9795941,40.7574987],[-73.9795226,40.7574695],[-73.9792903,40.7573713],[-73.9790513,40.757271],[-73.9790214,40.7572584],[-73.9789066,40.7572109],[-73.9788142,40.7571715],[-73.9785349,40.757053],[-73.9785026,40.7570401],[-73.9784366,40.7570113],[-73.9785842,40.7568028],[-73.9786077,40.7567697],[-73.9786305,40.7567565],[-73.9786989,40.756658],[-73.9788054,40.7565079],[-73.9788703,40.7565352],[-73.9791448,40.756651],[-73.9791852,40.756668],[-73.9792737,40.7565467],[-73.979542,40.7566599],[-73.9796776,40.7567171],[-73.97974,40.7567434],[-73.9797612,40.7567537],[-73.9800322,40.7568667],[-73.9803775,40.7570124],[-73.9804012,40.7570224],[-73.9804426,40.7570399],[-73.980505,40.7570662],[-73.9805654,40.7570917],[-73.9806033,40.7571077],[-73.9806197,40.7571146],[-73.9806874,40.7570217],[-73.9806966,40.7570255],[-73.9807613,40.7569365],[-73.9807966,40.7568878],[-73.981205,40.7570607],[-73.9811694,40.7571099],[-73.9811515,40.7571348],[-73.9811145,40.757186],[-73.9810414,40.7572872],[-73.9812129,40.7573583],[-73.9812092,40.7573633],[-73.9812391,40.7573763],[-73.9812867,40.7573964],[-73.9815516,40.7575077],[-73.9815329,40.7575332],[-73.9815918,40.757558],[-73.9815581,40.7576041],[-73.9816194,40.7576298],[-73.9816827,40.7576565],[-73.9817427,40.7576818],[-73.9818062,40.7577085],[-73.9818799,40.7577378],[-73.9817405,40.7579314],[-73.981664,40.7580472],[-73.9815236,40.7582357],[-73.9814457,40.7582032]]]},"id":"way/702492597"},{"type":"Feature","properties":{"@id":"way/702540318","addr:postcode":"10036","name":"Times Square","name:en":"Times Square","name:ko":"타임 스퀘어","name:ru":"Таймс-сквер","name:tr":"Times Meydanı","name:zh":"時報廣場","old_name":"Longacre Square","place":"square","tourism":"attraction","wheelchair":"yes","wikidata":"Q11259","wikipedia":"en:Times Square"},"geometry":{"type":"Polygon","coordinates":[[[-73.9857117,40.7571663],[-73.9857221,40.7571439],[-73.9857305,40.757126],[-73.9857678,40.757127],[-73.9859744,40.7565956],[-73.9859784,40.7565822],[-73.9859824,40.7565686],[-73.9859959,40.7565163],[-73.9860099,40.7564751],[-73.9860482,40.7564912],[-73.9863144,40.7566018],[-73.9863673,40.7566237],[-73.9863757,40.756626],[-73.9863928,40.7566283],[-73.9864092,40.7566227],[-73.9864169,40.7566169],[-73.9864234,40.7566081],[-73.9864464,40.7565772],[-73.9865903,40.7566397],[-73.9865682,40.75667],[-73.986562,40.7566808],[-73.9865589,40.7566896],[-73.98656,40.7566985],[-73.9865646,40.7567067],[-73.986575,40.7567148],[-73.9865899,40.7567225],[-73.9866378,40.7567429],[-73.9865831,40.756823],[-73.9865311,40.756801],[-73.986519,40.7567962],[-73.9865041,40.7567929],[-73.9864895,40.7567943],[-73.9864788,40.7567988],[-73.9864705,40.7568041],[-73.9864642,40.7568114],[-73.9864581,40.7568199],[-73.9861061,40.7573015],[-73.9861034,40.7573051],[-73.9860995,40.7573175],[-73.9861042,40.7573298],[-73.9861131,40.7573412],[-73.9861301,40.7573492],[-73.9861846,40.7573727],[-73.9861923,40.7573756],[-73.9861699,40.7574076],[-73.9861416,40.7574479],[-73.986132,40.7574439],[-73.9860986,40.7574298],[-73.9860776,40.7574209],[-73.9860629,40.7574194],[-73.9860504,40.7574203],[-73.9860396,40.757424],[-73.9860308,40.7574298],[-73.9860199,40.7574443],[-73.9859464,40.7575468],[-73.9859513,40.7575764],[-73.9857282,40.7578864],[-73.9856958,40.7578979],[-73.9856742,40.7579287],[-73.9856682,40.7579373],[-73.9856635,40.7579476],[-73.9856648,40.7579585],[-73.9856723,40.7579662],[-73.9856823,40.7579733],[-73.9857038,40.7579826],[-73.9857367,40.7579968],[-73.9857457,40.7580007],[-73.985732,40.7580455],[-73.9856837,40.7580252],[-73.9856493,40.7580108],[-73.9855335,40.7579634],[-73.9854396,40.7579238],[-73.9854172,40.7579142],[-73.9853729,40.7578953],[-73.9853916,40.7578485],[-73.9854011,40.7578274],[-73.9854035,40.757818],[-73.9854455,40.7577267],[-73.9855383,40.7575247],[-73.9855991,40.7573924],[-73.9856102,40.7573682],[-73.9856599,40.75727],[-73.9856686,40.7572528],[-73.9856903,40.7572084],[-73.9857117,40.7571663]]]},"id":"way/702540318"},{"type":"Feature","properties":{"@id":"way/705811842","addr:city":"New York","addr:housenumber":"119","addr:postcode":"10011","addr:state":"NY","addr:street":"West 23rd Street","area":"yes","name":"Poster House","opening_hours":"We-Mo 11:00-18:00, Tu off","phone":"+1 917-722-2439","toilets:wheelchair":"yes","tourism":"museum","website":"https://posterhouse.org/","wheelchair":"yes","wikidata":"Q66119437"},"geometry":{"type":"Polygon","coordinates":[[[-73.9935834,40.7433846],[-73.9932392,40.7438572],[-73.9930835,40.7437916],[-73.9934383,40.7433235],[-73.9935834,40.7433846]]]},"id":"way/705811842"},{"type":"Feature","properties":{"@id":"way/725918026","historic":"monument","inscription":"SAM SLOAN\n1817-1907"},"geometry":{"type":"Polygon","coordinates":[[[-74.0278659,40.7362126],[-74.0278538,40.7361953],[-74.0278776,40.7361857],[-74.0278898,40.736203],[-74.0278659,40.7362126]]]},"id":"way/725918026"},{"type":"Feature","properties":{"@id":"way/757030416","historic":"memorial","memorial":"war_memorial","name":"General Pershing Memorial"},"geometry":{"type":"Polygon","coordinates":[[[-74.0253069,40.748383],[-74.0253642,40.7483921],[-74.0253581,40.7484143],[-74.0253008,40.7484052],[-74.0253069,40.748383]]]},"id":"way/757030416"},{"type":"Feature","properties":{"@id":"way/833335529","alt_name":"Diller Island","email":"info@littleisland.org","layer":"1","leisure":"park","man_made":"pier","name":"Little Island","old_name":"Little Island @Pier55","opening_hours":"Mo-Su 06:00-23:00","seamark:platform:category":"artificial_island","start_date":"2021-05-21","tourism":"attraction","website":"https://littleisland.org/","wheelchair":"yes","wikidata":"Q106910658","wikipedia":"en:Little Island at Pier 55"},"geometry":{"type":"Polygon","coordinates":[[[-74.0108412,40.7426017],[-74.0107796,40.7425816],[-74.0107466,40.742559],[-74.01071,40.7425541],[-74.0106846,40.7425352],[-74.0106673,40.7425175],[-74.0106049,40.7425096],[-74.0105647,40.7424837],[-74.0105293,40.7424779],[-74.0105027,40.7424587],[-74.0104862,40.7424398],[-74.0104258,40.7424328],[-74.0103848,40.7424062],[-74.010359,40.7424038],[-74.0103325,40.7423889],[-74.0103035,40.7423663],[-74.0102992,40.7423517],[-74.0102939,40.7423591],[-74.0102568,40.7423431],[-74.0102178,40.7423261],[-74.0102054,40.7423249],[-74.0102016,40.7423336],[-74.0101715,40.74233],[-74.0101437,40.7423081],[-74.0101252,40.7422888],[-74.0100648,40.7422837],[-74.0100298,40.7422581],[-74.0099956,40.7422556],[-74.0099686,40.7422431],[-74.0099674,40.7422294],[-74.0099397,40.7422138],[-74.0098857,40.7422102],[-74.0098282,40.7421782],[-74.0098419,40.7421492],[-74.0098668,40.7421239],[-74.0098954,40.7421068],[-74.0099026,40.7420666],[-74.0099381,40.7420361],[-74.0099356,40.7420105],[-74.009967,40.7419882],[-74.0099944,40.7419714],[-74.0099984,40.7419306],[-74.0100371,40.741901],[-74.0100379,40.7418754],[-74.010068,40.7418556],[-74.010091,40.741836],[-74.0100962,40.7417933],[-74.0101332,40.7417644],[-74.0101324,40.7417388],[-74.0101622,40.7417156],[-74.0101717,40.7416851],[-74.0101777,40.7416611],[-74.010187,40.74165],[-74.0102149,40.7416176],[-74.0102559,40.7415794],[-74.0102849,40.7415614],[-74.0102929,40.7415242],[-74.0103312,40.7414885],[-74.0103322,40.7414657],[-74.0103595,40.7414403],[-74.0103826,40.7414079],[-74.0104344,40.7414241],[-74.0104805,40.7414492],[-74.0105096,40.7414568],[-74.0105424,40.7414747],[-74.0105675,40.7414966],[-74.0106174,40.7415036],[-74.0106553,40.7415282],[-74.0106918,40.7415308],[-74.0107232,40.7415481],[-74.0107383,40.7415617],[-74.0107463,40.7415689],[-74.0107912,40.7415703],[-74.010841,40.741601],[-74.0108764,40.7416063],[-74.0109032,40.7416272],[-74.010924,40.7416441],[-74.0109755,40.7416521],[-74.0110165,40.7416765],[-74.0110445,40.7416792],[-74.0110784,40.7417008],[-74.0111047,40.7417259],[-74.0111583,40.7417321],[-74.0111929,40.7417532],[-74.0112274,40.7417553],[-74.0112565,40.7417743],[-74.0112796,40.7417947],[-74.0112942,40.741797],[-74.0113321,40.7418029],[-74.0113655,40.7418238],[-74.0113912,40.7418295],[-74.0113823,40.7418579],[-74.0113523,40.7418833],[-74.0113301,40.7419043],[-74.0113148,40.7419458],[-74.0112858,40.7419716],[-74.0112811,40.7420007],[-74.0112714,40.7420074],[-74.0112285,40.7420369],[-74.0112274,40.7420445],[-74.011223,40.7420757],[-74.0111913,40.7421094],[-74.0111885,40.7421407],[-74.0111362,40.7421736],[-74.0111374,40.7422233],[-74.0111096,40.742248],[-74.0110959,40.7422849],[-74.0110569,40.7423203],[-74.0110424,40.7423654],[-74.0110034,40.7423931],[-74.0109848,40.7424383],[-74.0109535,40.742462],[-74.0109329,40.7424995],[-74.0109011,40.7425136],[-74.0108943,40.7425456],[-74.0108653,40.742566],[-74.0108412,40.7426017]]]},"id":"way/833335529"},{"type":"Feature","properties":{"@id":"way/928018701","alt_name":"Penn Station – Moynihan Train Hall","indoor":"area","layer":"-1","level":"-1","location":"underground","name":"Moynihan Train Hall","operator":"Amtrak","tourism":"attraction","wikidata":"Q104536857","wikipedia":"en:Moynihan Train Hall"},"geometry":{"type":"Polygon","coordinates":[[[-73.994979,40.750671],[-73.9950393,40.7505921],[-73.99505,40.7505773],[-73.9951475,40.7506181],[-73.9952234,40.7506499],[-73.9952132,40.7506639],[-73.995336,40.7507153],[-73.9959347,40.750969],[-73.9960871,40.7510381],[-73.9961989,40.7510854],[-73.9962909,40.7511243],[-73.9962247,40.7512199],[-73.9961951,40.7512605],[-73.9960838,40.7514115],[-73.9960613,40.7514425],[-73.9960453,40.7514645],[-73.9957097,40.7519211],[-73.9957045,40.7519282],[-73.9956498,40.7520102],[-73.9956425,40.7520201],[-73.9954358,40.7519308],[-73.9953746,40.7519051],[-73.9953649,40.7519011],[-73.9953546,40.7518968],[-73.9946815,40.7516121],[-73.994563,40.7515625],[-73.9943847,40.7514858],[-73.9944541,40.7513925],[-73.9944572,40.7513877],[-73.994466,40.7513758],[-73.9944723,40.7513676],[-73.9947086,40.7510437],[-73.9947291,40.7510156],[-73.9947921,40.7509293],[-73.9948576,40.7508395],[-73.9949456,40.7507189],[-73.9949505,40.7507122],[-73.9949543,40.750707],[-73.9949589,40.7507006],[-73.9949593,40.7507],[-73.994966,40.750691],[-73.994979,40.750671]]]},"id":"way/928018701"},{"type":"Feature","properties":{"@id":"way/959930316","historic":"memorial","inscription":"An Eternal Light\nAn inspiration\nand a Promise of\nEnduring Peace\nThis star was lighted\nNovember XI MCMXXIII\n\nIn memory of those who have\nmade the supreme sacrifice\nfor the triumph of the\nFree Peoples of the World","material":"granite","memorial":"war_memorial","name":"Eternal Light Flagstaff","natural":"bare_rock","wikidata":"Q17509630","wikipedia":"en:Eternal Light Flagstaff"},"geometry":{"type":"Polygon","coordinates":[[[-73.9887277,40.742099],[-73.9886611,40.742071],[-73.9886999,40.7420182],[-73.9887664,40.7420463],[-73.9887277,40.742099]]]},"id":"way/959930316"},{"type":"Feature","properties":{"@id":"way/278346578","addr:city":"New York","addr:housenumber":"11","addr:postcode":"10019","addr:state":"NY","addr:street":"West 53rd Street","alt_name":"Museum of Modern Art","building":"museum","building:part":"yes","ele":"19","fee":"yes","gnis:feature_id":"958207","museum":"art","name":"MoMA","name:es":"MoMA","name:et":"New Yorgi moodsa kunsti muuseum","name:fr":"MoMA","name:ko":"근대 미술관","name:ru":"Нью-Йоркский музей современного искусства","name:uk":"Музей сучасного мистецтва","name:zh":"现代艺术博物馆","nycdoitt:bin":"1087646","official_name":"The Museum of Modern Art","opening_hours":"Mo-Sa,Su 10:30-17:30; Fr 10:30-20:00","short_name":"MoMA","start_date":"1929","tourism":"museum","website":"https://www.moma.org/","wheelchair":"yes","wikidata":"Q188740","wikipedia":"en:Museum of Modern Art","@relations":[{"role":"outline","rel":2100751,"reltags":{"name":"MoMA","name:es":"MoMA","tourism":"attraction","type":"building"}}]},"geometry":{"type":"Polygon","coordinates":[[[-73.9773515,40.7615072],[-73.9773978,40.7614486],[-73.9774342,40.7614637],[-73.9774706,40.7614787],[-73.977513,40.7614199],[-73.9776016,40.7612974],[-73.9776226,40.7612683],[-73.9780807,40.7614585],[-73.9781235,40.7614763],[-73.9781219,40.7614787],[-73.9781006,40.7615088],[-73.9780318,40.7616058],[-73.9779169,40.7617645],[-73.9779959,40.7617974],[-73.9779678,40.7618363],[-73.9778874,40.7618029],[-73.9778042,40.7619178],[-73.977777,40.7619557],[-73.9769666,40.761619],[-73.977117,40.7614097],[-73.9771521,40.7614242],[-73.9771873,40.7614384],[-73.9772824,40.7614776],[-73.9773176,40.7614923],[-73.9773515,40.7615072]]]},"id":"way/278346578"},{"type":"Feature","properties":{"@id":"way/5672001","highway":"residential","maxspeed":"25 mph","name":"Gay Street","name:ru":"Гей-стрит","oneway":"yes","surface":"asphalt","tiger:cfcc":"A41","tiger:county":"New York, NY","tiger:name_base":"Gay","tiger:name_type":"St","tiger:reviewed":"no","tiger:zip_left":"10014","tiger:zip_right":"10014","tourism":"attraction","wikidata":"Q5528649","wikipedia":"en:Gay Street (Manhattan)"},"geometry":{"type":"LineString","coordinates":[[-74.0003713,40.7339701],[-74.0003599,40.7339257],[-74.0003264,40.7337951],[-74.0003266,40.7337653],[-74.000338,40.7337333],[-74.0006686,40.7332967],[-74.0007095,40.7332427]]},"id":"way/5672001"},{"type":"Feature","properties":{"@id":"way/162776008","highway":"footway","lit":"yes","name":"McGraw-Hill Waterfall Tunnel","surface":"concrete","tourism":"attraction"},"geometry":{"type":"LineString","coordinates":[[-73.9822497,40.7606769],[-73.9823005,40.7606059],[-73.9823106,40.7605918],[-73.9826461,40.7601231],[-73.9826571,40.7601077],[-73.9827044,40.7600415],[-73.9827448,40.7599855],[-73.9829963,40.7596363]]},"id":"way/162776008"},{"type":"Feature","properties":{"@id":"way/1121915656","highway":"footway","lit":"yes","name":"McGraw-Hill Waterfall Tunnel","surface":"concrete","tourism":"attraction","tunnel":"yes"},"geometry":{"type":"LineString","coordinates":[[-73.9829963,40.7596363],[-73.9830284,40.7595927]]},"id":"way/1121915656"},{"type":"Feature","properties":{"@id":"way/1121915658","highway":"footway","lit":"yes","name":"McGraw-Hill Waterfall Tunnel","surface":"concrete","tourism":"attraction"},"geometry":{"type":"LineString","coordinates":[[-73.9830284,40.7595927],[-73.9831156,40.7594716],[-73.9831606,40.7594093]]},"id":"way/1121915658"},{"type":"Feature","properties":{"@id":"way/148251196","@relations":[{"role":"part","rel":2100751,"reltags":{"name":"MoMA","name:es":"MoMA","tourism":"attraction","type":"building"}}]},"geometry":{"type":"LineString","coordinates":[[-73.9775347,40.7616563],[-73.9776609,40.7614821],[-73.9776778,40.7614587],[-73.9780318,40.7616058],[-73.9779169,40.7617645],[-73.9779959,40.7617974],[-73.9779678,40.7618363],[-73.9778874,40.7618029],[-73.9775347,40.7616563]]},"id":"way/148251196"},{"type":"Feature","properties":{"@id":"way/161156112","@relations":[{"role":"","rel":2154552,"reltags":{"name":"Saint Patrick’s Cathedral","name:es":"Catedral St Patrick's","opening_hours":"06:30-20:45","tourism":"attraction","type":"building"}}]},"geometry":{"type":"LineString","coordinates":[[-73.9767537,40.7585606],[-73.9767075,40.7586255],[-73.9767964,40.7586618],[-73.9768425,40.7585968],[-73.9767537,40.7585606]]},"id":"way/161156112"},{"type":"Feature","properties":{"@id":"way/161156113","@relations":[{"role":"","rel":2154552,"reltags":{"name":"Saint Patrick’s Cathedral","name:es":"Catedral St Patrick's","opening_hours":"06:30-20:45","tourism":"attraction","type":"building"}}]},"geometry":{"type":"LineString","coordinates":[[-73.9765867,40.7587972],[-73.9765401,40.7588616],[-73.9766284,40.7588982],[-73.976675,40.7588337],[-73.9765867,40.7587972]]},"id":"way/161156113"},{"type":"Feature","properties":{"@id":"way/266010379","@relations":[{"role":"","rel":2154552,"reltags":{"name":"Saint Patrick’s Cathedral","name:es":"Catedral St Patrick's","opening_hours":"06:30-20:45","tourism":"attraction","type":"building"}}]},"geometry":{"type":"LineString","coordinates":[[-73.9761796,40.758713],[-73.9761587,40.7587423],[-73.9759188,40.7586434],[-73.9760077,40.7585187],[-73.9757876,40.7584279],[-73.975775,40.7584199],[-73.9757645,40.7584103],[-73.9757565,40.7583994],[-73.9757513,40.7583876],[-73.9757497,40.7583815],[-73.9757489,40.7583753],[-73.9757489,40.7583691],[-73.9757496,40.7583629],[-73.9757532,40.7583507],[-73.9757597,40.7583393],[-73.9757688,40.7583289],[-73.9757802,40.75832],[-73.9757936,40.7583128],[-73.9758008,40.7583099],[-73.9758163,40.7583057],[-73.9758325,40.7583038],[-73.9758406,40.7583037],[-73.9758488,40.7583041],[-73.9758569,40.7583051],[-73.9758649,40.7583067],[-73.9758726,40.7583088],[-73.976095,40.7584006],[-73.9761804,40.7582808],[-73.9764207,40.7583799],[-73.9763975,40.7584124],[-73.9768425,40.7585968],[-73.9767964,40.7586618],[-73.9767647,40.7587066],[-73.9767085,40.7587863],[-73.976675,40.7588337],[-73.9766284,40.7588982],[-73.9765401,40.7588616],[-73.9761796,40.758713]]},"id":"way/266010379"},{"type":"Feature","properties":{"@id":"way/266010403","@relations":[{"role":"","rel":2154552,"reltags":{"name":"Saint Patrick’s Cathedral","name:es":"Catedral St Patrick's","opening_hours":"06:30-20:45","tourism":"attraction","type":"building"}}]},"geometry":{"type":"LineString","coordinates":[[-73.9755198,40.7582934],[-73.975508,40.7582573],[-73.9755352,40.7582205],[-73.9755813,40.75821],[-73.9757129,40.7582643],[-73.9757287,40.7582344],[-73.9757627,40.7582222],[-73.9757999,40.7582334],[-73.975802,40.7582393],[-73.9758253,40.7582367],[-73.9758577,40.7581913],[-73.9760779,40.7582821],[-73.9761019,40.7582484],[-73.9761804,40.7582808],[-73.976095,40.7584006],[-73.9758726,40.7583088],[-73.9758649,40.7583067],[-73.9758569,40.7583051],[-73.9758488,40.7583041],[-73.9758406,40.7583037],[-73.9758325,40.7583038],[-73.9758163,40.7583057],[-73.9758008,40.7583099],[-73.9757936,40.7583128],[-73.9757802,40.75832],[-73.9757688,40.7583289],[-73.9757597,40.7583393],[-73.9757532,40.7583507],[-73.9757496,40.7583629],[-73.9757489,40.7583691],[-73.9757489,40.7583753],[-73.9757497,40.7583815],[-73.9757513,40.7583876],[-73.9757565,40.7583994],[-73.9757645,40.7584103],[-73.975775,40.7584199],[-73.9757876,40.7584279],[-73.9760077,40.7585187],[-73.9759188,40.7586434],[-73.9758371,40.7586097],[-73.9758642,40.7585718],[-73.9756469,40.7584821],[-73.9756813,40.7584339],[-73.9756736,40.7584208],[-73.975658,40.7584198],[-73.9756305,40.7584028],[-73.9756257,40.7583727],[-73.9756515,40.7583478],[-73.9755198,40.7582934]]},"id":"way/266010403"},{"type":"Feature","properties":{"@id":"node/367697376","addr:housenumber":"213","addr:postcode":"07030","addr:state":"NJ","addr:street":"Bloomfield Street","ele":"5","gnis:county_name":"Hudson","gnis:feature_id":"2059168","gnis:reviewed":"no","name":"Hoboken Fire Department Museum","opening_hours":"Sa,Su 11:00-16:00","source":"USGS Geonames","tourism":"museum","website":"https://www.hobokenmuseum.org/visit/hoboken-fire-department-museum/","wikidata":"Q4809792"},"geometry":{"type":"Point","coordinates":[-74.0309564,40.739273]},"id":"node/367697376"},{"type":"Feature","properties":{"@id":"node/367697388","addr:city":"Hoboken","addr:housenumber":"1301","addr:postcode":"07030","addr:state":"NJ","addr:street":"Hudson Street","ele":"3","gnis:county_name":"Hudson","gnis:feature_id":"2060323","gnis:import_uuid":"57871b70-0100-4405-bb30-88b2e001a944","gnis:reviewed":"no","name":"Hoboken Historical Museum","source":"USGS Geonames","tourism":"museum","website":"https://www.hobokenmuseum.org/","wikidata":"Q14705586"},"geometry":{"type":"Point","coordinates":[-74.0249925,40.7521438]},"id":"node/367697388"},{"type":"Feature","properties":{"@id":"node/368043598","addr:city":"New York","addr:country":"US","addr:housenumber":"53","addr:postcode":"10014","addr:state":"NY","addr:street":"Christopher Street","amenity":"bar","ele":"7","gnis:county_name":"New York","gnis:feature_id":"2082946","gnis:import_uuid":"57871b70-0100-4405-bb30-88b2e001a944","gnis:reviewed":"no","lgbtq":"primary","name":"Stonewall Inn","source":"USGS Geonames","sport":"billiards","tourism":"attraction","website":"https://thestonewallinnnyc.com/","wheelchair":"limited","wikidata":"Q1261362","wikipedia":"en:Stonewall Inn"},"geometry":{"type":"Point","coordinates":[-74.0021484,40.7338007]},"id":"node/368043598"},{"type":"Feature","properties":{"@id":"node/368061605","addr:state":"NY","ele":"11","gnis:county_name":"New York","gnis:feature_id":"2091590","gnis:reviewed":"no","name":"Yeshiva University Museum","source":"USGS Geonames","tourism":"museum","website":"https://www.yumuseum.org/","wikidata":"Q8052851","wikipedia":"en:Yeshiva University Museum"},"geometry":{"type":"Point","coordinates":[-73.9938312,40.737978]},"id":"node/368061605"},{"type":"Feature","properties":{"@id":"node/368061607","addr:state":"NY","ele":"16","gnis:county_name":"New York","gnis:feature_id":"2091587","name":"Dahesh Museum of Art","start_date":"1995","tourism":"museum","website":"http://www.daheshmuseum.org/","wikidata":"Q2999991","wikipedia":"en:Dahesh Museum of Art"},"geometry":{"type":"Point","coordinates":[-74.0049076,40.7250957]},"id":"node/368061607"},{"type":"Feature","properties":{"@id":"node/368061644","addr:city":"Astoria","addr:postcode":"11106","addr:state":"NY","addr:street":"35th Avenue","ele":"11","gnis:county_name":"Queens","gnis:feature_id":"2079317","gnis:import_uuid":"57871b70-0100-4405-bb30-88b2e001a944","gnis:reviewed":"no","name":"Museum of the Moving Image","name:fr":"Musée de l'image animée","phone":"+1 718 777 6800","source":"USGS Geonames","toilets:wheelchair":"yes","tourism":"museum","website":"https://movingimage.us/","wheelchair":"yes","wikidata":"Q465765","wikipedia":"en:Museum of the Moving Image (New York City)"},"geometry":{"type":"Point","coordinates":[-73.9240069,40.7561949]},"id":"node/368061644"},{"type":"Feature","properties":{"@id":"node/368061657","addr:state":"NY","ele":"10","gnis:county_name":"New York","gnis:feature_id":"2080645","gnis:import_uuid":"57871b70-0100-4405-bb30-88b2e001a944","gnis:reviewed":"no","name":"Museum of African Art","source":"USGS Geonames","tourism":"museum"},"geometry":{"type":"Point","coordinates":[-73.9977778,40.725]},"id":"node/368061657"},{"type":"Feature","properties":{"@id":"node/424555887","artist:wikidata":"Q1606961","artist:wikipedia":"en:Henry Kirke Brown","artist_name":"Henry Kirke Brown","historic":"memorial","material":"bronze","memorial":"statue","name":"George Washington","name:en":"George Washington","name:ru":"Джордж Вашингтон","start_date":"1856-07-04","subject:wikidata":"Q23","subject:wikipedia":"en:George Washington","wikidata":"Q17182170","wikipedia":"en:Equestrian statue of George Washington (New York City)"},"geometry":{"type":"Point","coordinates":[-73.990695,40.7353762]},"id":"node/424555887"},{"type":"Feature","properties":{"@id":"node/424555888","artist_name":"Kantilal B. Patel","height":"2.4","historic":"memorial","material":"bronze","memorial":"statue","name":"Mohandas Gandhi","start_date":"1986-10-02","subject:wikidata":"Q1001","subject:wikipedia":"en:Mahatma Gandhi","wikidata":"Q17495786","wikipedia":"en:Statue of Mahatma Gandhi (New York City)"},"geometry":{"type":"Point","coordinates":[-73.9913248,40.7355514]},"id":"node/424555888"},{"type":"Feature","properties":{"@id":"node/566445454","addr:city":"New York","addr:country":"US","addr:housenumber":"1133","addr:postcode":"10036","addr:state":"NY","addr:street":"6th Avenue","email":"info@icp.org","name":"International Center of Photography","tourism":"museum","website":"https://www.icp.org/","wikidata":"Q636942","wikipedia":"en:International Center of Photography"},"geometry":{"type":"Point","coordinates":[-73.9837251,40.7557394]},"id":"node/566445454"},{"type":"Feature","properties":{"@id":"node/1240900810","attraction":"animal","name":"Tortoise","operator":"Wildlife Conservation Society","tourism":"attraction","wheelchair":"yes"},"geometry":{"type":"Point","coordinates":[-73.9727565,40.7679978]},"id":"node/1240900810"},{"type":"Feature","properties":{"@id":"node/1240900824","attraction":"animal","name":"Seal","operator":"Wildlife Conservation Society","species:wikidata":"Q162919","species:wikipedia":"en:Seal (emblem)","tourism":"attraction","wheelchair":"yes"},"geometry":{"type":"Point","coordinates":[-73.9716059,40.7683715]},"id":"node/1240900824"},{"type":"Feature","properties":{"@id":"node/1240900847","attraction":"animal","name":"Puffin","operator":"Wildlife Conservation Society","species:wikidata":"Q26685","species:wikipedia":"en:Atlantic puffin","tourism":"attraction"},"geometry":{"type":"Point","coordinates":[-73.9713336,40.7681959]},"id":"node/1240900847"},{"type":"Feature","properties":{"@id":"node/1240900912","attraction":"animal","name":"California Sea Lion","operator":"Wildlife Conservation Society","species:wikidata":"Q379732","species:wikipedia":"en:California sea lion","tourism":"attraction","wheelchair":"yes"},"geometry":{"type":"Point","coordinates":[-73.9717588,40.767819]},"id":"node/1240900912"},{"type":"Feature","properties":{"@id":"node/1240900960","attraction":"animal","name":"Gentoo Penguin","operator":"Wildlife Conservation Society","species:wikidata":"Q213021","species:wikipedia":"en:Gentoo penguin","tourism":"attraction"},"geometry":{"type":"Point","coordinates":[-73.971457,40.7683299]},"id":"node/1240900960"},{"type":"Feature","properties":{"@id":"node/1240900963","attraction":"animal","name":"Grizzly Bear","operator":"Wildlife Conservation Society","species:wikidata":"Q171004","species:wikipedia":"en:Grizzly bear","tourism":"attraction","wheelchair":"limited"},"geometry":{"type":"Point","coordinates":[-73.971913,40.7684111]},"id":"node/1240900963"},{"type":"Feature","properties":{"@id":"node/1240901027","attraction":"animal","name":"Snow Monkey","operator":"Wildlife Conservation Society","species:wikidata":"Q39214440","tourism":"attraction"},"geometry":{"type":"Point","coordinates":[-73.9723113,40.7681796]},"id":"node/1240901027"},{"type":"Feature","properties":{"@id":"node/1240901089","attraction":"animal","name":"Red Panda","operator":"Wildlife Conservation Society","species:wikidata":"Q41960","species:wikipedia":"en:Red panda","tourism":"attraction","wheelchair":"yes"},"geometry":{"type":"Point","coordinates":[-73.9727846,40.7682913]},"id":"node/1240901089"},{"type":"Feature","properties":{"@id":"node/1240901124","attraction":"animal","name":"Snow Leopard","tourism":"attraction"},"geometry":{"type":"Point","coordinates":[-73.9726493,40.7686428]},"id":"node/1240901124"},{"type":"Feature","properties":{"@id":"node/1251496233","historic":"memorial","inscription":"MAJOR GENERAL / WILLIAM JENKINS WORTH / 1794–1849 / WILLIAM J. WORTH, BORN IN HUDSON, N.Y. / BEGAN HIS MILITARY CAREER IN THE WAR OF 1812, / AND FROM 1820–1828 WAS COMMANDANT OF CADETS AT WEST POINT. / IN THE MEXICAN-AMERICAN WAR, HE DISTINGUISHED HIMSELF","material":"granite","memorial":"obelisk","name":"General Worth Monument","website":"https://www.nycgovparks.org/parks/worth-square/monuments/1734","wikidata":"Q86595805","wikipedia":"en:General William Jenkins Worth Monument"},"geometry":{"type":"Point","coordinates":[-73.9889671,40.7427549]},"id":"node/1251496233"},{"type":"Feature","properties":{"@id":"node/1251605864","artist:wikidata":"Q1606961","artist:wikipedia":"en:Henry Kirke Brown","artist_name":"Henry Kirke Brown","historic":"memorial","material":"bronze","memorial":"statue","name":"Abraham Lincoln","start_date":"1870-09-16","subject:wikidata":"Q91","subject:wikipedia":"en:Abraham Lincoln","wikidata":"Q17509515","wikipedia":"en:Statue of Abraham Lincoln (New York City)"},"geometry":{"type":"Point","coordinates":[-73.9900668,40.7362448]},"id":"node/1251605864"},{"type":"Feature","properties":{"@id":"node/1251605892","artist:wikidata":"Q223274","artist:wikipedia":"en:Frédéric Auguste Bartholdi","artist_name":"Frédéric Auguste Bartholdi","historic":"memorial","inscription":"Lafayette // To the City of New York. France. In remembrance of sympathy in time of trial. 1870–1871. // As soon as I heard of American independence, my heart was enlisted. 1776.","material":"bronze","memorial":"statue","name":"Marquis de Lafayette","start_date":"1876-09-06","subject:wikidata":"Q186652","subject:wikipedia":"en:Gilbert du Motier, Marquis de Lafayette","wikidata":"Q18151402","wikipedia":"en:Statue of the Marquis de Lafayette (New York City)"},"geometry":{"type":"Point","coordinates":[-73.9899886,40.7356902]},"id":"node/1251605892"},{"type":"Feature","properties":{"@id":"node/1251612275","historic":"memorial","name":"Antonín Dvořák","subject:wikidata":"Q7298","subject:wikipedia":"Antonín Dvořák"},"geometry":{"type":"Point","coordinates":[-73.9829448,40.733864]},"id":"node/1251612275"},{"type":"Feature","properties":{"@id":"node/1251645998","historic":"memorial","memorial:type":"plate","name":"New York Life Insurance Company Memorial"},"geometry":{"type":"Point","coordinates":[-73.9865245,40.7425838]},"id":"node/1251645998"},{"type":"Feature","properties":{"@id":"node/1251830314","historic":"memorial","name":"Edwin Booth","subject:wikidata":"Q798506","subject:wikipedia":"en:Edwin Booth"},"geometry":{"type":"Point","coordinates":[-73.9858956,40.7379294]},"id":"node/1251830314"},{"type":"Feature","properties":{"@id":"node/1251856901","historic":"memorial","name":"Milan R. Stefanik"},"geometry":{"type":"Point","coordinates":[-73.98299,40.7265459]},"id":"node/1251856901"},{"type":"Feature","properties":{"@id":"node/1260078175","historic":"memorial","memorial":"bust","name":"Alexander Lyman Holley","wikidata":"Q17510758","wikipedia":"en:Alexander Lyman Holley (sculpture)"},"geometry":{"type":"Point","coordinates":[-73.9980065,40.7311241]},"id":"node/1260078175"},{"type":"Feature","properties":{"@id":"node/1289222423","artist_name":"José Otavio Correia Lima","historic":"memorial","material":"bronze","memorial":"statue","name":"José Bonifácio de Andrada e Silva","start_date":"1955-04-22","subject:wikidata":"Q379631","subject:wikipedia":"en:José Bonifácio de Andrada e Silva","website":"https://www.nycgovparks.org/parks/bryant-park/monuments/37","wheelchair":"yes","wikidata":"Q18151040","wikipedia":"en:Statue of José Bonifácio de Andrada"},"geometry":{"type":"Point","coordinates":[-73.9846746,40.753725]},"id":"node/1289222423"},{"type":"Feature","properties":{"@id":"node/1289222425","historic":"memorial","memorial":"plaque","name":"Wendell L. Willkie"},"geometry":{"type":"Point","coordinates":[-73.9829359,40.7527805]},"id":"node/1289222425"},{"type":"Feature","properties":{"@id":"node/1289222428","artist:wikidata":"Q2069921","artist:wikipedia":"en:John Quincy Adams Ward","artist_name":"John Quincy Adams Ward","historic":"memorial","material":"bronze","memorial":"statue","name":"William Earl Dodge","start_date":"1885-10-22","subject:wikidata":"Q1792980","subject:wikipedia":"en:William E. Dodge","website":"https://www.nycgovparks.org/parks/bryant-park/monuments/389","wheelchair":"yes","wikidata":"Q18159283","wikipedia":"en:Statue of William E. Dodge"},"geometry":{"type":"Point","coordinates":[-73.983093,40.7540704]},"id":"node/1289222428"},{"type":"Feature","properties":{"@id":"node/1289222432","artist_name":"Karl Fischer","historic":"memorial","material":"bronze","memorial":"bust","name":"Johann Wolfgang von Goethe","start_date":"1932-02-15","subject:wikidata":"Q5879","subject:wikipedia":"en:Johann Wolfgang von Goethe","website":"https://www.nycgovparks.org/parks/bryant-park/monuments/592","wheelchair":"no","wikidata":"Q18148576","wikipedia":"en:Bust of Johann Wolfgang von Goethe (New York City)"},"geometry":{"type":"Point","coordinates":[-73.9837314,40.7532191]},"id":"node/1289222432"},{"type":"Feature","properties":{"@id":"node/1289222452","artist:wikidata":"Q1641647","artist:wikipedia":"en:Jo Davidson","artist_name":"Jo Davidson","historic":"memorial","material":"bronze","memorial":"statue","name":"Gertrude Stein","start_date":"1992-11-05","subject:wikidata":"Q188385","subject:wikipedia":"en:Gertrude Stein","website":"https://www.nycgovparks.org/parks/bryant-park/monuments/1502","wheelchair":"no","wikidata":"Q17303177","wikipedia":"en:Statue of Gertrude Stein"},"geometry":{"type":"Point","coordinates":[-73.9831572,40.7532779]},"id":"node/1289222452"},{"type":"Feature","properties":{"@id":"node/1611095365","artist_name":"Carl Augustus Heber","historic":"memorial","inscription":"To the living and the dead heroes of Greenpoint who fought in the world war because they loved America, revered its deals, understood and supported its institutions and gave their all that our government shall not perish from the earth.","material":"bronze","memorial":"war_memorial","name":"Greenpoint World War I Memorial","start_date":"1923","wikidata":"Q49527681","wikipedia":"en:McGolrick Park"},"geometry":{"type":"Point","coordinates":[-73.9434617,40.7244463]},"id":"node/1611095365"},{"type":"Feature","properties":{"@id":"node/1764403580","historic":"memorial","name":"Nikola Tesla","subject:wikidata":"Q9036","subject:wikipedia":"en:Nikola Tesla"},"geometry":{"type":"Point","coordinates":[-73.9901189,40.7435528]},"id":"node/1764403580"},{"type":"Feature","properties":{"@id":"node/1810241472","addr:city":"New York","addr:housenumber":"150","addr:postcode":"10011","addr:state":"NY","addr:street":"West 17th Street","name":"Rubin Museum of Art","opening_hours":"Mo 11:00-17:00, Sa,Su 11:00-18:00; We 11:00-21:00, Th 11:00-17:00, Fr 11:00-22:00","phone":"+1-212-620-5000","tourism":"museum","website":"http://rubinmuseum.org/","wikidata":"Q63751","wikipedia":"en:Rubin Museum of Art"},"geometry":{"type":"Point","coordinates":[-73.9977377,40.7400959]},"id":"node/1810241472"},{"type":"Feature","properties":{"@id":"node/2477560532","historic":"memorial","memorial":"statue","name":"José Gervasio Artigas","wikidata":"Q252847","wikipedia":"en:José Gervasio Artigas"},"geometry":{"type":"Point","coordinates":[-74.004506,40.7249037]},"id":"node/2477560532"},{"type":"Feature","properties":{"@id":"node/2517056822","addr:postcode":"10010","name":"Flatiron District","name:en":"Flatiron District","name:ru":"Флэтайрон","name:zh-Hans":"熨斗区","name:zh-Hant":"熨斗區","place":"neighbourhood","tourism":"attraction","wikidata":"Q1427377"},"geometry":{"type":"Point","coordinates":[-73.9896534,40.7410722]},"id":"node/2517056822"},{"type":"Feature","properties":{"@id":"node/2696814837","historic":"memorial","name":"Berlin Wall Segment"},"geometry":{"type":"Point","coordinates":[-73.9748535,40.7602556]},"id":"node/2696814837"},{"type":"Feature","properties":{"@id":"node/2704048088","addr:housenumber":"281","addr:postcode":"10010","addr:street":"Park Avenue South","contact:email":"hello.ny@fotografiska.com","contact:facebook":"FotografiskaNY","contact:instagram":"fotografiska.ny","contact:website":"https://www.fotografiska.com/nyc/","name":"Fotografiska","opening_hours":"Mo-Su 09:00-21:00","tourism":"museum","wikidata":"Q104830591","wikipedia":"en:Fotografiska New York"},"geometry":{"type":"Point","coordinates":[-73.986775,40.7392696]},"id":"node/2704048088"},{"type":"Feature","properties":{"@id":"node/2709493872","addr:housenumber":"357","addr:postcode":"10018","addr:street":"West 37th Street","name":"Schwartz Luggage Storage","tourism":"attraction"},"geometry":{"type":"Point","coordinates":[-73.9945593,40.7552441]},"id":"node/2709493872"},{"type":"Feature","properties":{"@id":"node/2726853514","artwork_type":"sculpture","historic":"memorial","memorial":"statue","name":"Firemen's Monument","ref:nrhp":"86003454","start_date":"1891","wikidata":"Q5451913","wikipedia":"en:Firemen's Monument"},"geometry":{"type":"Point","coordinates":[-74.0327576,40.7423002]},"id":"node/2726853514"},{"type":"Feature","properties":{"@id":"node/2727025884","artist_name":"Karl Morningstar Illava","historic":"memorial","name":"107th Infantry Memorial","start_date":"1927","subject:wikidata":"Q4546729","subject:wikipedia":"en:107th Infantry Regiment (United States)","website":"https://www.nycgovparks.org/parks/central-park/monuments/1136","website:alternate":"https://www.centralparknyc.org/locations/107th-united-states-infantry","wikidata":"Q17507904","wikipedia":"en:107th Infantry Memorial"},"geometry":{"type":"Point","coordinates":[-73.969557,40.7693306]},"id":"node/2727025884"},{"type":"Feature","properties":{"@id":"node/2837054155","historic":"memorial","image":"https://www.hmdb.org/Photos/22/Photo22148o.jpg","memorial":"bust","name":"Alexander Hamilton","source_ref":"https://www.hmdb.org/m.asp?m=7334"},"geometry":{"type":"Point","coordinates":[-74.0169159,40.7702125]},"id":"node/2837054155"},{"type":"Feature","properties":{"@id":"node/2901041510","historic":"monument","name":"Neumann Smokestack"},"geometry":{"type":"Point","coordinates":[-74.035223,40.7370236]},"id":"node/2901041510"},{"type":"Feature","properties":{"@id":"node/2973916148","historic":"memorial","name":"Soldier's Monument."},"geometry":{"type":"Point","coordinates":[-73.92978,40.7309558]},"id":"node/2973916148"},{"type":"Feature","properties":{"@id":"node/3057375928","access":"permissive","historic":"monument","inscription":"Property of the Hess Estate which has never been dedicated for public purposes.","material":"concrete","name":"Hess Triangle","note":"see also: http://chriswhong.com/open-data/in-search-of-hess-triangle-part-1/\n\nhttps://www.mentalfloss.com/article/552583/david-hess-spite-triangle-that-marks-century-old-grudge-against-new-york-city","website":"https://www.atlasobscura.com/places/hess-triangle","wikidata":"Q18148743","wikipedia":"en:Hess triangle"},"geometry":{"type":"Point","coordinates":[-74.0030709,40.7335093]},"id":"node/3057375928"},{"type":"Feature","properties":{"@id":"node/3154318791","name":"The Houdini Museum of New York","tourism":"museum","website":"http://www.houdinimuseumny.com/"},"geometry":{"type":"Point","coordinates":[-73.9906463,40.7502679]},"id":"node/3154318791"},{"type":"Feature","properties":{"@id":"node/3278932286","amenity":"clock","historic":"yes","name":"Delacorte Musical Clock","start_date":"1965","tourism":"attraction","website":"https://www.nycgovparks.org/parks/central-park/monuments/378","website:alternate":"https://www.centralparknyc.org/locations/delacorte-clock","wikidata":"Q43306957","wikipedia":"en:Delacorte Clock"},"geometry":{"type":"Point","coordinates":[-73.9711748,40.7681147]},"id":"node/3278932286"},{"type":"Feature","properties":{"@id":"node/3298095220","addr:city":"New York","addr:housenumber":"103","addr:street":"Charlton Street","name":"Children's Museum of the Arts","short_name":"CMA","tourism":"museum","website":"https://cmany.org/","wikidata":"Q5098190","wikipedia":"en:Children's Museum of the Arts"},"geometry":{"type":"Point","coordinates":[-74.0081354,40.7275353]},"id":"node/3298095220"},{"type":"Feature","properties":{"@id":"node/3572646793","name":"Tropical Zone","tourism":"attraction"},"geometry":{"type":"Point","coordinates":[-73.9725255,40.7676311]},"id":"node/3572646793"},{"type":"Feature","properties":{"@id":"node/3597257542","alt_name":"Le Carrousel Magique","alt_name:en":"The Magic Carousel","alt_name:fr":"Le Carrousel Magique","artist:wikidata":"Q6778491","artist:wikipedia":"en:Marvin Sylvor","artist_name":"Marvin Sylvor","attraction":"carousel","fee":"yes","name":"Le Carrousel","name:en":"The Carousel","name:fr":"Le Carrousel","tourism":"attraction","website":"https://bryantpark.org/activities/le-carrousel","wheelchair":"no","wikipedia":"en:Bryant Park#Carousel"},"geometry":{"type":"Point","coordinates":[-73.9838795,40.7534287]},"id":"node/3597257542"},{"type":"Feature","properties":{"@id":"node/3623620317","name":"The Museum at FIT","opening_hours":"Tu-Fr 12:00-20:00; Sa 10:00-17:00","operator":"The Museum at FIT","tourism":"museum","website":"http://www.fitnyc.edu/museum.asp"},"geometry":{"type":"Point","coordinates":[-73.9941473,40.7466544]},"id":"node/3623620317"},{"type":"Feature","properties":{"@id":"node/3830610284","addr:city":"New York","addr:housenumber":"90","addr:postcode":"10014","addr:street":"Bedford Street","name":"Friends Building","name:fr":"Appartement de Friends","tourism":"attraction","wikimedia_commons":"Category:Friends House"},"geometry":{"type":"Point","coordinates":[-74.0052999,40.7323594]},"id":"node/3830610284"},{"type":"Feature","properties":{"@id":"node/3894881938","description":"Permanent Memorial to Honour teh Victims of Slavery and the Transatlantic Slave Trade","description:de":"gut erhalten","grave":"no","heritage":"no","historic":"memorial","inscription":"Acknowledge the Tragedy - Consider the Legacy - Lest We Forget","name":"The Ark of Return","name:hr":"Arka povratka","website":"http://www.un.org/en/events/africandescentdecade/assets/pdf/Memorial_Programme_Final_Proof.pdf","year":"2015"},"geometry":{"type":"Point","coordinates":[-73.9668935,40.7504683]},"id":"node/3894881938"},{"type":"Feature","properties":{"@id":"node/4224363289","addr:housenumber":"223","addr:postcode":"10016","addr:street":"5th Avenue","name":"Museum of Sex","opening_hours":"Mo-Th, Su 10:30-22:00; Fr, Sa 10:30-23:00","operator:type":"private","phone":"+1 212-689-6337","subject":"sex","tourism":"museum","website":"https://www.museumofsex.com/","wheelchair":"yes","wikidata":"Q1322466","wikipedia":"en:Museum of sex"},"geometry":{"type":"Point","coordinates":[-73.9873576,40.7440374]},"id":"node/4224363289"},{"type":"Feature","properties":{"@id":"node/4236846689","name":"Rockefeller Center","name:ko":"록펠러센터","name:zh":"洛克菲勒中心","tourism":"attraction","wheelchair":"yes"},"geometry":{"type":"Point","coordinates":[-73.9788005,40.7588447]},"id":"node/4236846689"},{"type":"Feature","properties":{"@id":"node/4236846690","addr:housenumber":"75","addr:postcode":"10011","addr:street":"9th Avenue","name":"Chelsea Market","name:ko":"첼시마켓","opening_hours":"Mo-Sa 07:00-21:00; Su 08:00-20:00","phone":"+12122436005","tourism":"attraction","website":"http://chelseamarket.com/"},"geometry":{"type":"Point","coordinates":[-74.0069958,40.7429236]},"id":"node/4236846690"},{"type":"Feature","properties":{"@id":"node/4252536496","addr:city":"New York","addr:housenumber":"11","addr:postcode":"10010","addr:state":"NY","addr:street":"East 26th Street","air_conditioning":"yes","check_date":"2023-04-03","description":"Award winning museum that highlights the role of mathematics in illuminating the patterns and structures all around us. Its dynamic exhibits, gallery, and programs are designed to stimulate inquiry, spark curiosity, and reveal the wonders of mathematics.","email":"info@momath.org","fee":"yes","internet_access":"wlan","internet_access:fee":"no","internet_access:ssid":"MoMathGuest","name":"National Museum of Mathematics","opening_hours":"Mo-Su 10:00-17:00","operator:type":"private","payment:american_express":"yes","payment:credit_cards":"yes","payment:mastercard":"yes","payment:visa":"yes","phone":"+1-212-542-0566","short_name":"MoMath","toilets":"yes","toilets:wheelchair":"yes","tourism":"museum","website":"https://momath.org/","wheelchair":"yes","wikidata":"Q6940939"},"geometry":{"type":"Point","coordinates":[-73.9873437,40.7432428]},"id":"node/4252536496"},{"type":"Feature","properties":{"@id":"node/4314829890","name":"Liz Christy Garden","tourism":"attraction","wikidata":"Q6660076","wikipedia":"en:Liz Christy Garden"},"geometry":{"type":"Point","coordinates":[-73.9921517,40.724241]},"id":"node/4314829890"},{"type":"Feature","properties":{"@id":"node/4319650089","name":"Colonnade row","tourism":"attraction","wikidata":"Q8348030","wikipedia":"en:Colonnade Row"},"geometry":{"type":"Point","coordinates":[-73.9924535,40.72928]},"id":"node/4319650089"},{"type":"Feature","properties":{"@id":"node/4324579690","name":"Couv Led Zepp 5e album","tourism":"attraction"},"geometry":{"type":"Point","coordinates":[-73.9850116,40.7273461]},"id":"node/4324579690"},{"type":"Feature","properties":{"@id":"node/4333671794","name":"Sightseeing Pass, LLC","tourism":"attraction"},"geometry":{"type":"Point","coordinates":[-73.9875915,40.7608186]},"id":"node/4333671794"},{"type":"Feature","properties":{"@id":"node/4425455889","name":"Cocktail Kingdom","name:en":"Cocktail Kingdom","tourism":"attraction"},"geometry":{"type":"Point","coordinates":[-73.9907173,40.7436081]},"id":"node/4425455889"},{"type":"Feature","properties":{"@id":"node/4462440249","addr:city":"New York","addr:housenumber":"225","addr:postcode":"10016","addr:state":"NY","addr:street":"Madison Avenue","museum":"art","name":"The Morgan Library & Museum","name:en":"The Morgan Library & Museum","opening_hours":"Tu-Su 10:00-17:30","phone":"+1-212-685-0008","tourism":"museum","website":"https://www.themorgan.org/","wikidata":"Q1478423","wikipedia":"en:Morgan Library & Museum"},"geometry":{"type":"Point","coordinates":[-73.9814793,40.7491907]},"id":"node/4462440249"},{"type":"Feature","properties":{"@id":"node/4464191389","name":"\"Curry hill\"","name:en":"\"Curry hill\"","tourism":"attraction"},"geometry":{"type":"Point","coordinates":[-73.9824692,40.7426273]},"id":"node/4464191389"},{"type":"Feature","properties":{"@id":"node/4470028591","name":"Greenwich Village","name:en":"Greenwich Village","tourism":"attraction","wikidata":"Q205380","wikipedia":"en:Greenwich Village"},"geometry":{"type":"Point","coordinates":[-74.0028172,40.7335844]},"id":"node/4470028591"},{"type":"Feature","properties":{"@id":"node/4470030189","addr:housenumber":"555","addr:street":"West 24th Street","email":"newyork@gagosian.com","name":"Gagosian","opening_hours":"Tu-Sa 10:00-18:00","phone":"+1-212-741-1111","tourism":"museum","website":"https://gagosian.com","wikidata":"Q2748031","wikipedia":"en:Gagosian Gallery"},"geometry":{"type":"Point","coordinates":[-74.0059445,40.7494423]},"id":"node/4470030189"},{"type":"Feature","properties":{"@id":"node/4672274964","historic":"memorial","memorial":"statue","name":"General Philip Henry Sheridan Statue","name:fr":"Statue du général Philip Henry Sheridan"},"geometry":{"type":"Point","coordinates":[-74.0021952,40.7336203]},"id":"node/4672274964"},{"type":"Feature","properties":{"@id":"node/4672280505","historic":"monument","name":"Gay Liberation Monument","wikidata":"Q16270988","wikipedia":"en:Gay Liberation Monument"},"geometry":{"type":"Point","coordinates":[-74.0023951,40.7336068]},"id":"node/4672280505"},{"type":"Feature","properties":{"@id":"node/4724909637","historic":"memorial","name":"Marsh & McLennan 9/11 Memorial","wheelchair":"yes"},"geometry":{"type":"Point","coordinates":[-73.9814414,40.7569095]},"id":"node/4724909637"},{"type":"Feature","properties":{"@id":"node/4822806226","name":"La de forest house","name:en":"La de forest house","tourism":"attraction"},"geometry":{"type":"Point","coordinates":[-73.9946773,40.733199]},"id":"node/4822806226"},{"type":"Feature","properties":{"@id":"node/4872376339","historic":"memorial","name":"Sgt Daniel Kish Memorial"},"geometry":{"type":"Point","coordinates":[-73.9376696,40.7345723]},"id":"node/4872376339"},{"type":"Feature","properties":{"@id":"node/4987007257","historic":"memorial","memorial":"bust","survey:date":"2021-12-19"},"geometry":{"type":"Point","coordinates":[-74.0432064,40.744897]},"id":"node/4987007257"},{"type":"Feature","properties":{"@id":"node/5016404328","name":"Chelsea Flea Market","name:de":"Chelsea Flea Market","name:en":"Chelsea Flea Market","tourism":"attraction","wheelchair":"yes"},"geometry":{"type":"Point","coordinates":[-73.9903215,40.7436928]},"id":"node/5016404328"},{"type":"Feature","properties":{"@id":"node/5115375199","historic":"memorial","name":"Japanese Peace Bell","name:hr":"Japansko zvono mira","name:ru":"Японский «Колокол мира»","wikidata":"Q2067390","wikipedia":"en:Japanese Peace Bell"},"geometry":{"type":"Point","coordinates":[-73.9677448,40.7494211]},"id":"node/5115375199"},{"type":"Feature","properties":{"@id":"node/5166579821","addr:postcode":"10014","name":"Ground Zero Museum Workshop","opening_hours":"We-Su 11:00-15:00","tourism":"museum","website":"https://groundzeromuseumworkshop.org/"},"geometry":{"type":"Point","coordinates":[-74.0067195,40.74121]},"id":"node/5166579821"},{"type":"Feature","properties":{"@id":"node/5190610589","addr:city":"New York","addr:housenumber":"350","addr:postcode":"10118","addr:state":"NY","addr:street":"5th Avenue","name":"NY Skyride","phone":"+1 212-279-9777","tourism":"attraction","website":"skyride.com"},"geometry":{"type":"Point","coordinates":[-73.9856549,40.7483271]},"id":"node/5190610589"},{"type":"Feature","properties":{"@id":"node/5214014522","name":"Sea Lions","tourism":"attraction"},"geometry":{"type":"Point","coordinates":[-73.9717654,40.7678409]},"id":"node/5214014522"},{"type":"Feature","properties":{"@id":"node/5243012671","historic":"memorial","inscription":"This plaque is erected in memory of Lowell Kingsley Hanson 1903-1976 whose imagination and tireless devotion to the trees and beauty of Turtle Bay and its neigborhood were an inspiration to all who sought to help in this endeavor. The Turtle Bay Tree Fund","memorial":"plaque","name":"Lowell Kingsley Hanson"},"geometry":{"type":"Point","coordinates":[-73.9664086,40.7532553]},"id":"node/5243012671"},{"type":"Feature","properties":{"@id":"node/5243563217","addr:housenumber":"18","addr:street":"W 10 Street","historic":"monument","name":"Emma Lazarus"},"geometry":{"type":"Point","coordinates":[-73.9966681,40.7337917]},"id":"node/5243563217"},{"type":"Feature","properties":{"@id":"node/5258640021","name":"The Ride","phone":"2122210853","tourism":"attraction"},"geometry":{"type":"Point","coordinates":[-73.991113,40.7549459]},"id":"node/5258640021"},{"type":"Feature","properties":{"@id":"node/5462632728","historic":"monument","name":"Columbus Statue"},"geometry":{"type":"Point","coordinates":[-74.0326632,40.7488068]},"id":"node/5462632728"},{"type":"Feature","properties":{"@id":"node/5468067617","addr:city":"Hoboken","addr:housenumber":"415","addr:state":"NJ","addr:street":"Monroe Street","name":"Frank Sinatra's Birthplace","tourism":"attraction"},"geometry":{"type":"Point","coordinates":[-74.0386034,40.7434374]},"id":"node/5468067617"},{"type":"Feature","properties":{"@id":"node/5509996164","addr:city":"New York","addr:housenumber":"526","addr:postcode":"10012","addr:state":"NY","addr:street":"Laguardia Place","name":"The Renee and Chaim Gross Foundation","opening_hours":"Th,Fr 13:00-17:00","phone":"+1-212-529-4906","toilets:wheelchair":"no","tourism":"museum","website":"http://www.rcgrossfoundation.org/","wheelchair":"limited","wikidata":"Q24259668"},"geometry":{"type":"Point","coordinates":[-73.99882,40.7284684]},"id":"node/5509996164"},{"type":"Feature","properties":{"@id":"node/5526994817","historic":"memorial","inscription":"In memory of those who lost their lives in the disaster to the steamer General Slocum June XV MCMIV / Dedicated by the Sympathy Society of German Ladies The Year Of Our Lord MCMVI","name":"Slocum Disaster Memorial","start_date":"1906","website":"https://www.nycgovparks.org/parks/tompkins-square-park/monuments/1453","wikipedia":"en:PS General Slocum"},"geometry":{"type":"Point","coordinates":[-73.9813718,40.7268975]},"id":"node/5526994817"},{"type":"Feature","properties":{"@id":"node/5576457144","fee":"yes","name":"Museum of the American Gangster","opening_hours":"Tu-Su 13:00-18:00; Mo 13:00-19:00","tourism":"museum","website":"https://theatre80.wordpress.com/about-80-st-marks-place/about-museum-of-the-american-gangster/","wikidata":"Q6941063"},"geometry":{"type":"Point","coordinates":[-73.9858672,40.7276111]},"id":"node/5576457144"},{"type":"Feature","properties":{"@id":"node/5658819507","historic":"memorial","name":"Ghost Bike"},"geometry":{"type":"Point","coordinates":[-73.919127,40.7314146]},"id":"node/5658819507"},{"type":"Feature","properties":{"@id":"node/5721473569","addr:street":"Queens Boulevard","historic":"monument","inscription":"this monument is in honor and dedicated to those men who fought in the amateur and professional bouts sponsored by the veterans boxers association of New York, ring 8, inc.","name":"Site of the Sunnyside Garden Arena"},"geometry":{"type":"Point","coordinates":[-73.9198609,40.7430233]},"id":"node/5721473569"},{"type":"Feature","properties":{"@id":"node/5721477303","name":"Underpenny Museum Antique & Collectables","phone":"+1-917-517-1492","tourism":"museum"},"geometry":{"type":"Point","coordinates":[-73.9533895,40.7427467]},"id":"node/5721477303"},{"type":"Feature","properties":{"@id":"node/5732924817","historic":"monument"},"geometry":{"type":"Point","coordinates":[-74.0393507,40.7592264]},"id":"node/5732924817"},{"type":"Feature","properties":{"@id":"node/5747425246","addr:housenumber":"546","addr:street":"LaGuardia Place","name":"Center for Architecture","tourism":"museum","website":"https://www.centerforarchitecture.org/","wheelchair":"limited","wikidata":"Q5059504"},"geometry":{"type":"Point","coordinates":[-73.9985805,40.72873]},"id":"node/5747425246"},{"type":"Feature","properties":{"@id":"node/5754828182","historic":"memorial","name":"Ghost Bike"},"geometry":{"type":"Point","coordinates":[-73.9897335,40.7678524]},"id":"node/5754828182"},{"type":"Feature","properties":{"@id":"node/5763751554","name":"Anton Kern Gallery","tourism":"attraction","website":"https://antonkerngallery.com/"},"geometry":{"type":"Point","coordinates":[-73.9739449,40.7611131]},"id":"node/5763751554"},{"type":"Feature","properties":{"@id":"node/5804736154","historic":"monument","name":"Marilyn Monroe subway grate","name:fr":"Grille aération Marilyn Monroe"},"geometry":{"type":"Point","coordinates":[-73.9715429,40.7577054]},"id":"node/5804736154"},{"type":"Feature","properties":{"@id":"node/5849724991","name":"Spyscape","tourism":"attraction","wheelchair":"yes","wikidata":"Q65082668"},"geometry":{"type":"Point","coordinates":[-73.9838591,40.7650644]},"id":"node/5849724991"},{"type":"Feature","properties":{"@id":"node/5897336785","architect":"Thomas Hastings","artist:wikidata":"Q5733455","artist:wikipedia":"Herbert Adams (sculptor)","artist_name":"Herbert Adams","historic":"memorial","material":"bronze","memorial":"statue","name":"William Cullen Bryant","start_date":"1911-10-24","subject:wikidata":"Q454840","subject:wikipedia":"en:William Cullen Bryant","website":"https://www.nycgovparks.org/parks/bryant-park/monuments/189","wikidata":"Q17300112","wikipedia":"en:William Cullen Bryant Memorial"},"geometry":{"type":"Point","coordinates":[-73.982751,40.7534331]},"id":"node/5897336785"},{"type":"Feature","properties":{"@id":"node/5907164986","name":"Food Truck Street","tourism":"attraction","wheelchair":"yes"},"geometry":{"type":"Point","coordinates":[-73.9814247,40.7570047]},"id":"node/5907164986"},{"type":"Feature","properties":{"@id":"node/5927576885","name":"Hangman's Elm","natural":"tree","species":"Ulmus procera","species:en":"English Elm","start_date":"1679","tourism":"attraction","tree:diameter":"61 inches","type":"English Elm","wikidata":"Q1407769"},"geometry":{"type":"Point","coordinates":[-73.998611,40.731889]},"id":"node/5927576885"},{"type":"Feature","properties":{"@id":"node/5927588585","name":"Mark Twain House","tourism":"attraction"},"geometry":{"type":"Point","coordinates":[-73.9964593,40.7337057]},"id":"node/5927588585"},{"type":"Feature","properties":{"@id":"node/6035120505","addr:housenumber":"77","addr:street":"8th Avenue","name":"Museum of Illusions","tourism":"museum","website":"https://museumofillusions.us/"},"geometry":{"type":"Point","coordinates":[-74.0028554,40.7396591]},"id":"node/6035120505"},{"type":"Feature","properties":{"@id":"node/6052834698","name":"NBC Studios","tourism":"attraction"},"geometry":{"type":"Point","coordinates":[-73.9796681,40.7591424]},"id":"node/6052834698"},{"type":"Feature","properties":{"@id":"node/6052834699","addr:city":"New York","addr:housenumber":"251","addr:postcode":"10013","addr:state":"NY","addr:street":"Spring Street","name":"Color Factory","opening_hours":"Mo, Th, Su 09:30-18:00; Tu 09:30-17:00; We off; Fr, Sa 09:30-20:00","tourism":"attraction","website":"http://colorfactory.co"},"geometry":{"type":"Point","coordinates":[-74.0054663,40.7257695]},"id":"node/6052834699"},{"type":"Feature","properties":{"@id":"node/6288550803","historic":"memorial"},"geometry":{"type":"Point","coordinates":[-73.9874268,40.7325625]},"id":"node/6288550803"},{"type":"Feature","properties":{"@id":"node/6481436185","name":"Carrie Bradshaw's house","name:es":"Casa di Carrie Bradshaw","tourism":"attraction","wikipedia":"en:Carrie Bradshaw"},"geometry":{"type":"Point","coordinates":[-74.0038569,40.7353583]},"id":"node/6481436185"},{"type":"Feature","properties":{"@id":"node/6481772610","addr:housenumber":"155","addr:street":"Avenue C","alt_name":"MoRUS","contact:facebook":"https://www.facebook.com/morusnyc","contact:instagram":"https://www.instagram.com/morusnyc/","contact:twitter":"https://twitter.com/MoRUSNYC","email":"info@morusnyc.org","fee":"yes","level":"0","name":"Museum of Reclaimed Urban Space","opening_hours":"Tu,Th-Su 11:00-19:00","phone":"+1-646-340-8341","toilets":"yes","toilets:access":"permissive","toilets:unisex":"yes","toilets:wheelchair":"no","tourism":"museum","website":"https://morusnyc.org/","wheelchair":"no","wikidata":"Q6941005"},"geometry":{"type":"Point","coordinates":[-73.9778791,40.7257313]},"id":"node/6481772610"},{"type":"Feature","properties":{"@id":"node/6572266170","highway":"elevator","name":"Surreal Elevator","tourism":"attraction"},"geometry":{"type":"Point","coordinates":[-73.9363479,40.7428146]},"id":"node/6572266170"},{"type":"Feature","properties":{"@id":"node/6744726761","historic":"memorial","memorial":"ghost_bike","name":"Gelasio Reyes"},"geometry":{"type":"Point","coordinates":[-73.9259734,40.7457097]},"id":"node/6744726761"},{"type":"Feature","properties":{"@id":"node/6751703757","direction":"100","historic":"memorial","inscription":"CHARLES STEWART MOTT\nCLASS OF 1897","memorial":"plaque"},"geometry":{"type":"Point","coordinates":[-74.0257405,40.743972]},"id":"node/6751703757"},{"type":"Feature","properties":{"@id":"node/6760369789","historic":"memorial","memorial":"plaque"},"geometry":{"type":"Point","coordinates":[-74.0257834,40.7448512]},"id":"node/6760369789"},{"type":"Feature","properties":{"@id":"node/6760369790","historic":"memorial","memorial":"plaque"},"geometry":{"type":"Point","coordinates":[-74.025775,40.74485]},"id":"node/6760369790"},{"type":"Feature","properties":{"@id":"node/6760369791","historic":"memorial","memorial":"plaque"},"geometry":{"type":"Point","coordinates":[-74.0257658,40.7448487]},"id":"node/6760369791"},{"type":"Feature","properties":{"@id":"node/6760369792","historic":"memorial","memorial":"plaque"},"geometry":{"type":"Point","coordinates":[-74.0257623,40.7448483]},"id":"node/6760369792"},{"type":"Feature","properties":{"@id":"node/6760369793","historic":"memorial","memorial":"plaque"},"geometry":{"type":"Point","coordinates":[-74.0257548,40.744847]},"id":"node/6760369793"},{"type":"Feature","properties":{"@id":"node/6760369794","historic":"memorial","memorial":"plaque"},"geometry":{"type":"Point","coordinates":[-74.0257496,40.744846]},"id":"node/6760369794"},{"type":"Feature","properties":{"@id":"node/6760369795","historic":"memorial","memorial":"plaque"},"geometry":{"type":"Point","coordinates":[-74.0257444,40.744845]},"id":"node/6760369795"},{"type":"Feature","properties":{"@id":"node/6760369796","historic":"memorial","memorial":"plaque"},"geometry":{"type":"Point","coordinates":[-74.0257393,40.7448438]},"id":"node/6760369796"},{"type":"Feature","properties":{"@id":"node/6760369797","historic":"memorial","memorial":"plaque"},"geometry":{"type":"Point","coordinates":[-74.0257341,40.7448429]},"id":"node/6760369797"},{"type":"Feature","properties":{"@id":"node/6760369798","historic":"memorial","memorial":"plaque"},"geometry":{"type":"Point","coordinates":[-74.0257286,40.7448412]},"id":"node/6760369798"},{"type":"Feature","properties":{"@id":"node/6760369799","historic":"memorial","memorial":"plaque"},"geometry":{"type":"Point","coordinates":[-74.0257247,40.7448401]},"id":"node/6760369799"},{"type":"Feature","properties":{"@id":"node/6760369800","historic":"memorial","memorial":"plaque"},"geometry":{"type":"Point","coordinates":[-74.0257212,40.7448378]},"id":"node/6760369800"},{"type":"Feature","properties":{"@id":"node/6760369801","historic":"memorial","memorial":"plaque"},"geometry":{"type":"Point","coordinates":[-74.0257182,40.7448358]},"id":"node/6760369801"},{"type":"Feature","properties":{"@id":"node/6760369802","historic":"memorial","memorial":"plaque"},"geometry":{"type":"Point","coordinates":[-74.0257167,40.7448318]},"id":"node/6760369802"},{"type":"Feature","properties":{"@id":"node/6760369803","historic":"memorial","memorial":"plaque"},"geometry":{"type":"Point","coordinates":[-74.0257155,40.7448284]},"id":"node/6760369803"},{"type":"Feature","properties":{"@id":"node/6760369804","historic":"memorial","memorial":"plaque"},"geometry":{"type":"Point","coordinates":[-74.025715,40.744825]},"id":"node/6760369804"},{"type":"Feature","properties":{"@id":"node/6760369805","historic":"memorial","memorial":"plaque"},"geometry":{"type":"Point","coordinates":[-74.0257145,40.7448219]},"id":"node/6760369805"},{"type":"Feature","properties":{"@id":"node/6760369806","historic":"memorial","memorial":"plaque"},"geometry":{"type":"Point","coordinates":[-74.0257139,40.7448192]},"id":"node/6760369806"},{"type":"Feature","properties":{"@id":"node/6760369807","historic":"memorial","memorial":"plaque"},"geometry":{"type":"Point","coordinates":[-74.0257791,40.7448506]},"id":"node/6760369807"},{"type":"Feature","properties":{"@id":"node/6760369808","historic":"memorial","memorial":"plaque"},"geometry":{"type":"Point","coordinates":[-74.0257706,40.7448495]},"id":"node/6760369808"},{"type":"Feature","properties":{"@id":"node/6760369809","historic":"memorial","memorial":"plaque"},"geometry":{"type":"Point","coordinates":[-74.0257584,40.7448476]},"id":"node/6760369809"},{"type":"Feature","properties":{"@id":"node/6762427696","direction":"-150","historic":"memorial","inscription":"NEW JERSEY ALPHA OF TAU BETA PI - A NATIONAL HONORARY ENGINEERING FRATERNITY","memorial":"plaque"},"geometry":{"type":"Point","coordinates":[-74.0261441,40.7432647]},"id":"node/6762427696"},{"type":"Feature","properties":{"@id":"node/6765321219","historic":"memorial","inscription":"Walkway and fishing built by the City of Hoboken Mayor and Council for the intent of all Hoboken residents. Mayor DAVID ROBERTS Members of the City Council CHRISTOPHER CAMPOS, President","memorial":"plaque"},"geometry":{"type":"Point","coordinates":[-74.0225446,40.745461]},"id":"node/6765321219"},{"type":"Feature","properties":{"@id":"node/6765485425","historic":"memorial","memorial":"plaque"},"geometry":{"type":"Point","coordinates":[-74.0266572,40.7410363]},"id":"node/6765485425"},{"type":"Feature","properties":{"@id":"node/6765485426","historic":"memorial","memorial":"plaque"},"geometry":{"type":"Point","coordinates":[-74.0266515,40.7410564]},"id":"node/6765485426"},{"type":"Feature","properties":{"@id":"node/6765485427","historic":"memorial","memorial":"plaque"},"geometry":{"type":"Point","coordinates":[-74.0266452,40.7410758]},"id":"node/6765485427"},{"type":"Feature","properties":{"@id":"node/6765485428","historic":"memorial","memorial":"plaque"},"geometry":{"type":"Point","coordinates":[-74.0266391,40.7410969]},"id":"node/6765485428"},{"type":"Feature","properties":{"@id":"node/6765485429","historic":"memorial","memorial":"plaque"},"geometry":{"type":"Point","coordinates":[-74.026633,40.7411173]},"id":"node/6765485429"},{"type":"Feature","properties":{"@id":"node/6765485430","historic":"memorial","memorial":"plaque"},"geometry":{"type":"Point","coordinates":[-74.0266274,40.7411364]},"id":"node/6765485430"},{"type":"Feature","properties":{"@id":"node/6765485431","historic":"memorial","memorial":"plaque"},"geometry":{"type":"Point","coordinates":[-74.0266122,40.7410812]},"id":"node/6765485431"},{"type":"Feature","properties":{"@id":"node/6765485440","historic":"memorial","memorial":"war_memorial","name":"Hoboken Second World War memorial"},"geometry":{"type":"Point","coordinates":[-74.0264527,40.7410551]},"id":"node/6765485440"},{"type":"Feature","properties":{"@id":"node/6767976793","direction":"335","historic":"memorial","inscription":"SGT. WILLIAM FESKEN MEMORIAL FIELD IN MEMORY OF SGT. WILLIAM FESKEN KILLED IN ACTION IN VIETNAM MAY 2, 1967 AND DEDICATED TO ALL THOSE WHO SACRIFICED THEIR LIVES IN THE VIETNAM CONFLICT SO THAT OUR COUNTRY MIGHT LIVE PRESENTED BY TEAMSTERS LOCAL 560","memorial":"plaque"},"geometry":{"type":"Point","coordinates":[-74.0274553,40.7417795]},"id":"node/6767976793"},{"type":"Feature","properties":{"@id":"node/6790545176","historic":"memorial","inscription":"The Joan R. Abel Memorial Rain Garden\nArchitect  -  Preservationist  -  Environmentalist","memorial":"plaque"},"geometry":{"type":"Point","coordinates":[-74.0316547,40.7374515]},"id":"node/6790545176"},{"type":"Feature","properties":{"@id":"node/6791165986","historic":"memorial","inscription":"Captain Clinton E. Fisk Memorial Park dedicated in honor of Capt. Clinton E. Fisk born April 13,1882 in Jersey City who served with Co. \"D\" 107 Reg. 27th Division United States Army. Killed in action at St. Souplet, France October 18, 1918. ...","inscription2":"... A grand living memorial to a fine gentleman and soldier who made the supreme sacrifice defending the pronciples of Americanism. Erected by Captain Clinton E. Fisk Post No.132 and Auxiliary Veterans of Foreign Wars of the United States October 19, 1947","inscription3":"Erected by the people of the Hudson City section of Jersey City in grateful recognition of the service rendered by the boys of this section in the World War","memorial":"statue","name":"Captain Clinton E. Fisk Memorial Park"},"geometry":{"type":"Point","coordinates":[-74.0432612,40.745386]},"id":"node/6791165986"},{"type":"Feature","properties":{"@id":"node/6799372987","historic":"memorial","inscription":"In remembrance of those from Hoboken who lost their lives in the Vietnam War","memorial":"war_memorial","name":"Hoboken Vietnam War memorial"},"geometry":{"type":"Point","coordinates":[-74.0271768,40.7367997]},"id":"node/6799372987"},{"type":"Feature","properties":{"@id":"node/6806128800","direction":"280","historic":"memorial","inscription":"Dedicated to the valiant American expeditionary forces who embarked from this port to participate in the World War 1917–1918","memorial":"stone","name":"Hoboken First World War memorial"},"geometry":{"type":"Point","coordinates":[-74.0277609,40.7369151]},"id":"node/6806128800"},{"type":"Feature","properties":{"@id":"node/6852303846","name":"The AKC Museum of the Dog","tourism":"museum","website":"https://museumofthedog.org/"},"geometry":{"type":"Point","coordinates":[-73.9776714,40.7506893]},"id":"node/6852303846"},{"type":"Feature","properties":{"@id":"node/6893429005","historic":"monument","name":"Birthplace of Baseball Monument","source":"Mapbox"},"geometry":{"type":"Point","coordinates":[-74.0273362,40.7499392]},"id":"node/6893429005"},{"type":"Feature","properties":{"@id":"node/6949759186","addr:housenumber":"561","addr:street":"Broadway","name":"Little Singer Building","tourism":"attraction"},"geometry":{"type":"Point","coordinates":[-73.9981638,40.7241263]},"id":"node/6949759186"},{"type":"Feature","properties":{"@id":"node/7041713696","addr:city":"New York","addr:housenumber":"128","addr:postcode":"10065","addr:state":"NY","addr:street":"East 63rd Street","contact:facebook":"https://www.facebook.com/societyillustrators/","contact:instagram":"https://www.instagram.com/soi128/","email":"info@societyillustrators.org","museum":"art","name":"Society of Illustrators","opening_hours":"We-Sa 11:00-17:00","opening_hours:url":"https://societyillustrators.org/plan-your-visit/","phone":"+1 212 838 2560","tourism":"museum","website":"https://societyillustrators.org/"},"geometry":{"type":"Point","coordinates":[-73.966827,40.7648187]},"id":"node/7041713696"},{"type":"Feature","properties":{"@id":"node/7137281975","historic":"memorial","name":"Oklahoma City Bombing"},"geometry":{"type":"Point","coordinates":[-73.9778646,40.7368731]},"id":"node/7137281975"},{"type":"Feature","properties":{"@id":"node/7181779685","historic":"monument","name":"The Kneeling Fireman"},"geometry":{"type":"Point","coordinates":[-73.9796343,40.7537971]},"id":"node/7181779685"},{"type":"Feature","properties":{"@id":"node/7181779686","addr:city":"New York","addr:housenumber":"55","addr:state":"NY","addr:street":"Hudson River Greenway","name":"Pier 55","tourism":"attraction","wheelchair":"yes"},"geometry":{"type":"Point","coordinates":[-74.0091644,40.7424478]},"id":"node/7181779686"},{"type":"Feature","properties":{"@id":"node/7185484002","historic":"memorial","name":"Ghost Bike"},"geometry":{"type":"Point","coordinates":[-73.9481662,40.7455047]},"id":"node/7185484002"},{"type":"Feature","properties":{"@id":"node/7222013084","historic":"memorial","inscription":"We consecrate this place to honor and to remember the fifty-six citizens of Hoboken killed in the attacks on September 11, 2001.","material":"glass","name":"In memory of 56 Hoboken citizens killed on September 11, 2001"},"geometry":{"type":"Point","coordinates":[-74.0273151,40.7371686]},"id":"node/7222013084"},{"type":"Feature","properties":{"@id":"node/7248973406","historic":"memorial","memorial":"plaque"},"geometry":{"type":"Point","coordinates":[-74.033154,40.7482908]},"id":"node/7248973406"},{"type":"Feature","properties":{"@id":"node/7248973409","historic":"memorial","memorial":"plaque"},"geometry":{"type":"Point","coordinates":[-74.0330624,40.7482752]},"id":"node/7248973409"},{"type":"Feature","properties":{"@id":"node/7248973416","historic":"monument"},"geometry":{"type":"Point","coordinates":[-74.0330969,40.7483198]},"id":"node/7248973416"},{"type":"Feature","properties":{"@id":"node/7272017086","name":"Golf","tourism":"attraction"},"geometry":{"type":"Point","coordinates":[-74.0086276,40.7458328]},"id":"node/7272017086"},{"type":"Feature","properties":{"@id":"node/7281199872","historic":"memorial","name":"Reverand Antonio Demo C.S."},"geometry":{"type":"Point","coordinates":[-74.0021837,40.7300478]},"id":"node/7281199872"},{"type":"Feature","properties":{"@id":"node/7653745279","historic":"memorial","memorial":"ghost_bike"},"geometry":{"type":"Point","coordinates":[-73.9931697,40.747896]},"id":"node/7653745279"},{"type":"Feature","properties":{"@id":"node/7821215845","historic":"memorial","inscription":"This tablet marks the geographic Center of the farm","memorial":"plaque","name":"Inclenberg"},"geometry":{"type":"Point","coordinates":[-73.9811516,40.7477781]},"id":"node/7821215845"},{"type":"Feature","properties":{"@id":"node/7924363679","historic":"memorial","name":"William Tylee Ranney"},"geometry":{"type":"Point","coordinates":[-74.034645,40.7592406]},"id":"node/7924363679"},{"type":"Feature","properties":{"@id":"node/8390776327","historic":"memorial","memorial":"ghost_bike"},"geometry":{"type":"Point","coordinates":[-73.9924884,40.7431494]},"id":"node/8390776327"},{"type":"Feature","properties":{"@id":"node/8410396764","historic":"monument"},"geometry":{"type":"Point","coordinates":[-74.0086178,40.7519956]},"id":"node/8410396764"},{"type":"Feature","properties":{"@id":"node/8443229856","historic":"monument"},"geometry":{"type":"Point","coordinates":[-73.9157055,40.7428188]},"id":"node/8443229856"},{"type":"Feature","properties":{"@id":"node/8653246932","historic":"memorial","memorial":"ghost_bike"},"geometry":{"type":"Point","coordinates":[-73.9472318,40.7645446]},"id":"node/8653246932"},{"type":"Feature","properties":{"@id":"node/8732602457","architect":"Charles R. Lamb","architect:wikidata":"Q5082159","artist:wikidata":"Q7184041","artist_name":"Philip Martiny","historic":"memorial","inscription":"To the soldiers and sailors of Chelsea, World War, 1914–1918","material":"bronze","memorial":"war_memorial","name":"Chelsea Park Memorial","start_date":"1921-04-07","website":"https://www.nycgovparks.org/parks/chelsea-park/monuments/232"},"geometry":{"type":"Point","coordinates":[-73.9995859,40.7494635]},"id":"node/8732602457"},{"type":"Feature","properties":{"@id":"node/8818128217","name":"Historical landmark from 1877","tourism":"attraction"},"geometry":{"type":"Point","coordinates":[-73.9464648,40.7470015]},"id":"node/8818128217"},{"type":"Feature","properties":{"@id":"node/8939987670","historic":"memorial","inscription":"Irving Berlin 1888 - 1989 lived in this house for his last forty-two years","memorial":"plaque","name":"Irving Berlin"},"geometry":{"type":"Point","coordinates":[-73.964615,40.7531333]},"id":"node/8939987670"},{"type":"Feature","properties":{"@id":"node/9007964737","addr:housenumber":"47","addr:street":"East 60th Street","name":"Grolier Club","tourism":"museum","website":"https://www.grolierclub.org/"},"geometry":{"type":"Point","coordinates":[-73.9698587,40.7640002]},"id":"node/9007964737"},{"type":"Feature","properties":{"@id":"node/9133127776","historic":"memorial","inscription":"Leonard James Hiller","material":"metal","memorial":"plaque"},"geometry":{"type":"Point","coordinates":[-73.9560856,40.7365839]},"id":"node/9133127776"},{"type":"Feature","properties":{"@id":"node/9133381986","artist":"Anthony Goicolea","historic":"memorial","memorial":"sculpture","name":"LGBT Memorial","website":"https://hudsonriverpark.org/activities/lgbt-memorial/"},"geometry":{"type":"Point","coordinates":[-74.0103304,40.7372146]},"id":"node/9133381986"},{"type":"Feature","properties":{"@id":"node/9188172206","description":"\"Ghost bike\" plaque in memory of Thomas Panto, struck on October 11, 2021","historic":"memorial","inscription":"Cyclist killed here Rest in peace www.ghostbikes.org","memorial":"ghost_bike","source":"https://twitter.com/JimRockaway/status/1450897829405372423","start_date":"2021-10-20","support":"street_lamp"},"geometry":{"type":"Point","coordinates":[-73.93168,40.7516048]},"id":"node/9188172206"},{"type":"Feature","properties":{"@id":"node/9204935746","description":"Ghost bike in memory of Josef Mittlemann, 67, Nov. 28, 2017","historic":"memorial","memorial":"ghost_bike","source":"https://www.bicycling.com/culture/a34703255/ghost-bikes-memorials-for-cyclists/"},"geometry":{"type":"Point","coordinates":[-74.0040364,40.7534212]},"id":"node/9204935746"},{"type":"Feature","properties":{"@id":"node/9204935747","historic":"memorial","memorial":"ghost_bike"},"geometry":{"type":"Point","coordinates":[-74.0040321,40.7534195]},"id":"node/9204935747"},{"type":"Feature","properties":{"@id":"node/9441264932","historic":"memorial","material":"bronze","memorial":"vehicle","name":"S.S. United States Propeller"},"geometry":{"type":"Point","coordinates":[-74.0045214,40.7588891]},"id":"node/9441264932"},{"type":"Feature","properties":{"@id":"node/9515090739","direction":"285","historic":"memorial","inscription":"THE NORTH RIVER BRIDGE Co.\nGROUND BROKEN JUNE 8th 1895\nFIRST FOUNDATION MASONRY\nLAID JUNE 18th 1895","memorial":"plaque"},"geometry":{"type":"Point","coordinates":[-74.0251095,40.7445517]},"id":"node/9515090739"},{"type":"Feature","properties":{"@id":"node/9630719403","historic":"memorial","inscription":"In loving memory of\nJulie D. Warshaw\nPresident of Tudor City Greens, Inc.\nfrom October 2007 to May 2009\nBoard Member from 2003 to 2010\nJulie died on May 5, 2020\nHer positive influence on the parks will be remembered.","memorial":"plaque"},"geometry":{"type":"Point","coordinates":[-73.9709064,40.7488289]},"id":"node/9630719403"},{"type":"Feature","properties":{"@id":"node/9630719404","historic":"memorial","inscription":"This memorial has been placed\nin honor of\nNANCY FITZPATRICK\nPresident of Tudor City Greens\nfrom 1990 until her death on February 24, 2002.\nHer dedication to and love of our Parks\nwere the cornerstones of her Presidency.","memorial":"plaque"},"geometry":{"type":"Point","coordinates":[-73.9709031,40.748833]},"id":"node/9630719404"},{"type":"Feature","properties":{"@id":"node/9630719405","historic":"memorial","inscription":"In loving memory of\nWilliam E. Baltz\nPresident of Tudor City Greens, Inc.\nfrom February 2002 to October 2007\nBoard Member from 1987 until his death on April 18, 2009\nEverywhere in our parks we see Bill","memorial":"plaque"},"geometry":{"type":"Point","coordinates":[-73.9708993,40.7488371]},"id":"node/9630719405"},{"type":"Feature","properties":{"@id":"node/9632225717","historic":"monument","name":"Water's Soul","wikidata":"Q108830467"},"geometry":{"type":"Point","coordinates":[-74.028301,40.7309156]},"id":"node/9632225717"},{"type":"Feature","properties":{"@id":"node/9652875023","direction":"120","historic":"memorial","inscription":"IN HONOR OF\nJOHN FERGUSON McKEAN\n1907 - 1993\nFOUNDER AND PRESIDENT\nOF THE TUDOR CITY ASSOCIATION\n1973 - 1993\nWHO FOUGHT TIRELESSLY TO SAVE\nTHE TUDOR CITY PARKS FROM DEVELOPMENT.\nHE WILL HAVE OUR ETERNAL RESPECT AND GRATITUDE\nFOR HIS UNSELFISH EFFORTS.","memorial":"plaque"},"geometry":{"type":"Point","coordinates":[-73.9704853,40.7495982]},"id":"node/9652875023"},{"type":"Feature","properties":{"@id":"node/9652875024","direction":"30","historic":"memorial","inscription":"This sole remaining Tudor City 1927 north park lamppost was restored in 2006 thanks to Elizabeth L. \"Bette\" McKean in hopes it may light many happy evenings to come.","memorial":"plaque"},"geometry":{"type":"Point","coordinates":[-73.9703129,40.7498152]},"id":"node/9652875024"},{"type":"Feature","properties":{"@id":"node/9690651010","historic":"monument","name":"Ghost bike"},"geometry":{"type":"Point","coordinates":[-73.9522416,40.7408264]},"id":"node/9690651010"},{"type":"Feature","properties":{"@id":"node/9706010360","direction":"105","historic":"memorial","inscription":"GIVEN IN MEMORY OF\nDR. JOHN W. BALLANTINE\nBy his\ngrandchildren","memorial":"plaque"},"geometry":{"type":"Point","coordinates":[-74.0249877,40.7447408]},"id":"node/9706010360"},{"type":"Feature","properties":{"@id":"node/9706010361","historic":"memorial","inscription":"THE TORCH BEARERS\nPRESENTED BY THE SCULPTOR\nANNA HYATT HUNTINGTON\nTO\nSTEVENS INSTITUTE OF TECHNOLOGY\n1964","memorial":"plaque"},"geometry":{"type":"Point","coordinates":[-74.0249508,40.7446001]},"id":"node/9706010361"},{"type":"Feature","properties":{"@id":"node/9706010362","direction":"105","historic":"memorial","inscription":"The Burchard Patio has\nbeen furnished through a\ngenerous gift from\nThe Class of 1999\nThe following member from the Class of 1999 made gifts\nat a leadership level:\nMichael A. Acquavella     Leonardo J. Mendoza\nSean C. Anderson     Marissa M. Moses","memorial":"plaque","openplaques:id":"56972"},"geometry":{"type":"Point","coordinates":[-74.0272493,40.7427389]},"id":"node/9706010362"},{"type":"Feature","properties":{"@id":"node/9725576079","historic":"memorial","memorial":"ghost_bike"},"geometry":{"type":"Point","coordinates":[-73.9962389,40.7467854]},"id":"node/9725576079"},{"type":"Feature","properties":{"@id":"node/9807685938","direction":"300","historic":"memorial","inscription":"CHE\nA Tudor City Dog\nOct. 1, 1997 - Jan. 10, 2011","memorial":"plaque"},"geometry":{"type":"Point","coordinates":[-73.970928,40.7489692]},"id":"node/9807685938"},{"type":"Feature","properties":{"@id":"node/9807685939","direction":"300","historic":"memorial","inscription":"JULIE WARSHAW\nGARDENER AND FRIEND","memorial":"plaque"},"geometry":{"type":"Point","coordinates":[-73.9709305,40.7489658]},"id":"node/9807685939"},{"type":"Feature","properties":{"@id":"node/9807685940","direction":"300","historic":"memorial","inscription":"David Wilkinson, Jr.\n1960 - 2008\nLoved and Remembered","memorial":"plaque"},"geometry":{"type":"Point","coordinates":[-73.9709331,40.7489624]},"id":"node/9807685940"},{"type":"Feature","properties":{"@id":"node/9877458067","addr:housenumber":"130","addr:postcode":"10010","addr:street":"East 23rd Street","name":"The Friends Experience","tourism":"attraction","website":"https://www.friendstheexperience.com/new-york/"},"geometry":{"type":"Point","coordinates":[-73.9850148,40.7394271]},"id":"node/9877458067"},{"type":"Feature","properties":{"@id":"node/9882177449","historic":"memorial","memorial":"ghost_bike"},"geometry":{"type":"Point","coordinates":[-73.9810531,40.7308011]},"id":"node/9882177449"},{"type":"Feature","properties":{"@id":"node/10181690393","historic":"memorial","inscription":"DEDICATED BY / NYLIC POST 503 / THE AMERICAN LEGION\nDEPARTMENT / OF NEW YORK / TO ALL MEMBERS OF / NEW YORK LIFE\nINSURANCE COMPANY / WHO HAVE SERVED THEIR COUNTRY IN / THE ARMED\nFORCES IN THE TIME OF WAR / MAY 30, 1946/","material":"bronze","memorial":"plaque","name":"New York Life Insurance Company War Memorial","website":"https://www.nycgovparks.org/parks/madison-square-park/monuments/1109"},"geometry":{"type":"Point","coordinates":[-73.9870355,40.7425111]},"id":"node/10181690393"},{"type":"Feature","properties":{"@id":"node/10246738229","historic":"memorial","memorial":"plaque","name":"“The Engineers Club”","website":"https://www.teslasociety.com/bryantpark.htm"},"geometry":{"type":"Point","coordinates":[-73.9834167,40.7527904]},"id":"node/10246738229"},{"type":"Feature","properties":{"@id":"node/10246738230","artist_name":"Moises Cabrera Orozco","historic":"memorial","material":"bronze","memorial":"statue","name":"Benito Juárez","start_date":"2004-10-09","subject:wikidata":"Q182276","subject:wikipedia":"en:Benito Juárez","website":"https://www.nycgovparks.org/parks/bryant-park/monuments/1969","wikidata":"Q17509360","wikipedia":"en:Statue of Benito Juárez (New York City)"},"geometry":{"type":"Point","coordinates":[-73.9842668,40.7544299]},"id":"node/10246738230"},{"type":"Feature","properties":{"@id":"node/10652722697","historic":"memorial","memorial":"bust","name":"Tadeusz Kosciusko","subject:wikidata":"Q191479"},"geometry":{"type":"Point","coordinates":[-73.9369596,40.724508]},"id":"node/10652722697"},{"type":"Feature","properties":{"@id":"node/10695444959","historic":"memorial","memorial":"bust","name":"Peter Stuyvesant","subject:wikidata":"Q161536"},"geometry":{"type":"Point","coordinates":[-73.9869449,40.7301647]},"id":"node/10695444959"},{"type":"Feature","properties":{"@id":"node/10695444961","historic":"memorial","memorial":"bust","name":"Daniel D. Tompkins","subject:wikidata":"Q223545"},"geometry":{"type":"Point","coordinates":[-73.987248,40.7301555]},"id":"node/10695444961"},{"type":"Feature","properties":{"@id":"node/10992750816","historic":"memorial","memorial":"stele","name":"Bronka Novak Tablet"},"geometry":{"type":"Point","coordinates":[-73.9621869,40.7551615]},"id":"node/10992750816"},{"type":"Feature","properties":{"@id":"node/10992750818","historic":"memorial","memorial":"stele","name":"Clara Coffey Tablet"},"geometry":{"type":"Point","coordinates":[-73.9622658,40.7550746]},"id":"node/10992750818"},{"type":"Feature","properties":{"@id":"node/10994970505","addr:housenumber":"61","addr:postcode":"10011","addr:street":"Chelsea Piers","name":"The Lighthouse","tourism":"attraction"},"geometry":{"type":"Point","coordinates":[-74.0094604,40.7476857]},"id":"node/10994970505"}]}